distance,city,state,zip,flood_risk
0.0,Kuala Lumpur,Kuala Lumpur,50050,1
1267.2715581684524,Johor Bahru,Johor,80400,0
157.33697059481582,Muar,Johor,84000,1
775.2805332131976,Puchong,Selangor,47100,0
886.3346642438673,Petaling Jaya,Selangor,46000,0
656.8220045181135,Klang,Selangor,41000,0
261.9632001057625,Kuala Lumpur,Kuala Lumpur,50000,1
2564.513564022031,Subang Jaya,Selangor,47620,0
471.3421347044776,Johor Bahru,Johor,81200,1
1784.168778604862,Kuala Lumpur,Kuala Lumpur,53000,0
858.2456430592781,Kuala Lumpur,Kuala Lumpur,56000,0
155.2135876213443,Kuala Lumpur,Kuala Lumpur,55100,1
277.9648937035569,Kuala Lumpur,Kuala Lumpur,50400,1
761.731832455607,Cheras,Selangor,43200,0
366.8102816574833,Kuala Lumpur,Kuala Lumpur,50470,1
830.8121312277099,Kuala Lumpur,Kuala Lumpur,55100,0
435.9845204455574,Butterworth,Penang,12100,1
900.1552663438848,Klang,Selangor,42000,0
1350.050508624938,Batu Caves,Selangor,68100,0
753.1209759556434,Seri Kembangan,Selangor,43300,0
879.2535210449965,Petaling Jaya,Selangor,46300,0
254.2029587038489,Klang,Selangor,41200,1
2287.3833050037824,Ipoh,Perak,31650,0
2002.7897354995305,Johor Bahru,Johor,81200,0
1960.97773034784,Kuala Lumpur,Kuala Lumpur,56000,0
1832.050007428545,Kuala Lumpur,Kuala Lumpur,55100,0
1148.5788516544544,Klang,Selangor,42000,0
244.97442964239104,Klang,Selangor,42450,1
64.33249225259236,Johor Bahru,Johor,81100,1
376.8002186622493,Klang,Selangor,42100,1
2389.460774519868,Tasek Gelugor,Penang,13300,0
348.43863854367504,Kuala Lumpur,Kuala Lumpur,51000,1
197.02381751701373,Kuching,Sarawak,93350,1
121.51236776304762,Kuala Lumpur,Kuala Lumpur,53300,1
2002.7897354995305,Johor Bahru,Johor,81200,0
366.8102816574833,Kuala Lumpur,Kuala Lumpur,50470,1
589.0245663977263,Ipoh,Perak,30000,0
726.235028124888,Kajang,Selangor,43000,0
303.28123896051784,Kota Kinabalu,Sabah,88450,1
781.8857315596131,Kuala Lumpur,Kuala Lumpur,51200,0
1460.4723696666822,Johor Bahru,Johor,81200,0
976.1671826967214,Klang,Selangor,42000,0
1625.5933115311718,Johor Bahru,Johor,81200,0
486.0048405079849,Petaling Jaya,Selangor,46100,1
1801.8711147413685,Petaling Jaya,Selangor,46300,0
598.0821945729941,Kuala Lumpur,Kuala Lumpur,53000,0
1413.8617981182672,Johor Bahru,Johor,81100,0
1893.159418754395,Kuala Lumpur,Kuala Lumpur,58200,0
0.0,Kuantan,Pahang,25000,1
469.8327658103372,Kajang,Selangor,43000,1
291.42018842564454,Klang,Selangor,42100,1
246.1778857651032,Kuala Lumpur,Kuala Lumpur,51200,1
2003.8667561832376,Ipoh,Perak,31400,0
764.6763072828312,Kuala Lumpur,Kuala Lumpur,55100,0
356.0248439150968,Kuala Lumpur,Kuala Lumpur,50470,1
277.9648937035569,Kuala Lumpur,Kuala Lumpur,50400,1
1151.530849595727,Johor Bahru,Johor,81100,0
368.7841661756463,Kuching,Sarawak,93400,1
656.8753072651493,Seremban,Negeri Sembilan,70100,0
182.406319042514,Johor Bahru,Johor,81100,1
589.0245663977263,Ipoh,Perak,30000,0
37785.91138436691,Kuala Terengganu,Terengganu,20928,0
2609.2786942210605,Kuantan,Pahang,26080,0
1414.142391103936,Kuala Lumpur,Kuala Lumpur,52100,0
1294.7633385885752,Petaling Jaya,Selangor,47500,0
339.48591618566724,Kuala Lumpur,Kuala Lumpur,59100,1
267.69606144165925,Johor Bahru,Johor,81100,1
433.3894575772429,Ampang,Selangor,68000,1
284.987453933,Kapit,Sarawak,96800,1
1025.5664961783689,Kuala Lumpur,Kuala Lumpur,50470,0
217.2811556893505,Kuala Lumpur,Kuala Lumpur,50150,1
2109.193194120573,Johor Bahru,Johor,81300,0
1003.0456471922578,Johor Bahru,Johor,81200,0
353.8226759655297,Kuala Lumpur,Kuala Lumpur,50300,1
691.7355930412161,Taman Peringgit Jaya,Melaka,75400,0
570.1949148567668,Johor Bahru,Johor,81200,0
3467.472095427708,Kuala Terengganu,Terengganu,21080,0
1582.2105451756886,Miri,Sarawak,98000,0
121.51236776304762,Kuala Lumpur,Kuala Lumpur,53300,1
1492.0795011876326,Petaling Jaya,Selangor,46050,0
2395.031401559701,Ipoh,Perak,30000,0
1403.0173836457975,Kuala Lumpur,Kuala Lumpur,58200,0
700.5027199922471,Ipoh,Perak,30300,0
134.24518102853577,Kuala Lumpur,Kuala Lumpur,59000,1
1135.023236402687,Kuala Lumpur,Kuala Lumpur,53200,0
264.8094839674531,Kuala Lumpur,Kuala Lumpur,56000,1
409.0531384649654,Seremban,Negeri Sembilan,70200,1
201.35029964489863,Sepang,Selangor,43900,1
1316.5596907349775,Petaling Jaya,Selangor,47301,0
2592.133253681664,Petaling Jaya,Selangor,47600,0
1231.2198008288706,Petaling Jaya,Selangor,46050,0
1739.7430205789271,Kuala Lumpur,Kuala Lumpur,55200,0
888.7079120891303,Johor Bahru,Johor,80400,0
806.8859336788447,Kulai,Johor,81000,0
2342.1180259656235,Johor Bahru,Johor,81100,0
1326.6007337284707,Subang Jaya,Selangor,47610,0
0.0,Padang Lalang,Penang,14000,1
556.1474400139821,Petaling Jaya,Selangor,47301,0
838.4900193663312,Johor Bahru,Johor,81200,0
1154.6771261715205,Subang Jaya,Selangor,47620,0
1149.1028336767222,Johor Bahru,Johor,81200,0
1837.451647975464,Subang Jaya,Selangor,47600,0
143.22997580607324,Kuala Lumpur,Kuala Lumpur,53300,1
2237.9151215813777,Ipoh,Perak,30250,0
1990.01905091136,Johor Bahru,Johor,81100,0
2064.0127205282074,Bandar Baru Bangi,Selangor,43650,0
1832.050007428545,Kuala Lumpur,Kuala Lumpur,53200,0
0.0,Png,Penang,14000,1
1385.4957931938573,Kuala Lumpur,Kuala Lumpur,59100,0
178.35416609431874,Puchong,Selangor,47100,1
957.0289889009564,Klang,Selangor,41150,0
1334.1062968261356,Johor Bahru,Johor,81100,0
1889.867604145254,Kuala Lumpur,Kuala Lumpur,56000,0
1052.6051777443822,Kajang,Selangor,43000,0
2099.7233256857185,Petaling Jaya,Selangor,47301,0
2271.8430498261982,Ipoh,Perak,31650,0
1693.6943004903883,Kajang,Selangor,43000,0
0.0,Johor Bahru,Johor,81100,1
2135.335382895287,Johor Bahru,Johor,81100,0
419.7053985208255,Kuala Lumpur,Kuala Lumpur,54100,1
181.9424066769301,Kuala Lumpur,Kuala Lumpur,59100,1
959.9813549521746,Klang,Selangor,53300,0
1131.3612010661636,Kuala Lumpur,Kuala Lumpur,53300,0
1486.659659688362,Kuala Lumpur,Kuala Lumpur,50050,0
536.3580033582659,Petaling Jaya,Selangor,46100,0
1507.4320914799623,Kuala Lumpur,Kuala Lumpur,57100,0
253.78519109282223,Kuala Lumpur,Kuala Lumpur,56100,1
0.0,Kuala Lumpur,Kuala Lumpur,50350,1
691.9888896308671,Alor Setar,Kedah,5250,0
561.3701533901839,Kuala Lumpur,Kuala Lumpur,55100,0
1844.9375088508525,Petaling Jaya,Selangor,47300,0
2594.517018373306,Kuala Lumpur,Kuala Lumpur,50490,0
594.1581582267407,Johor Bahru,Johor,80000,0
244.79901220623225,Johor Bahru,Johor,80000,1
2348.3842030833785,Sandakan,Sabah,90702,0
761.4182899022537,Ipoh,Perak,30020,0
554.2940858159517,Johor Bahru,Johor,80250,0
1418.7327066586756,Ipoh,Perak,31650,0
557.1354083189798,Klang,Selangor,53100,0
2271.8430498261982,Ipoh,Perak,31650,0
440.0343489216392,Johor Bahru,Johor,80000,1
554.591562261695,Alor Setar,Kedah,5150,0
2146.620913428364,Kuala Lumpur,Kuala Lumpur,55200,0
230.48732942811927,Kuala Lumpur,Kuala Lumpur,53000,1
212.3669256067957,Kuching,Sarawak,93200,1
254.2029587038489,Klang,Selangor,41200,1
1676.3683665559586,Petaling Jaya,Selangor,47301,0
262.86652721780973,Kuala Lumpur,Kuala Lumpur,55100,1
133.68544831678645,Johor Bahru,Johor,81200,1
144.8746672343061,Miri,Sarawak,98000,1
586.9574313314689,Bukit Mertajam,Penang,14000,0
331.3123455282798,Kuala Lumpur,Kuala Lumpur,51200,1
1419.6085011521452,Kuala Lumpur,Kuala Lumpur,57000,0
489.52782904380206,Kuala Lumpur,Kuala Lumpur,68100,1
331.3123455282798,Kuala Lumpur,Kuala Lumpur,51200,1
427.660659279302,Kuantan,Pahang,25200,1
417.863387912305,Mlk,Melaka,75000,1
709.7379672993625,Johor Bahru,Johor,81100,0
1815.9759346077071,Kuala Lumpur,Kuala Lumpur,50480,0
1288.2645492642766,Johor Bahru,Johor,81200,0
4129.52779049296,Johor Bahru,Johor,81707,0
796.7250248653133,Kuala Lumpur,Kuala Lumpur,50450,0
1071.9470376513782,Kuala Lumpur,Kuala Lumpur,56000,0
762.9759509650384,Ipoh,Perak,30300,0
146.0023168099149,Petaling Jaya,Selangor,46200,1
1413.4581568555786,Seremban,Negeri Sembilan,70100,0
1163.258707598288,Johor Bahru,Johor,81100,0
1489.8951024695546,Kuala Lumpur,Kuala Lumpur,56100,0
1021.7453555322114,Petaling Jaya,Selangor,46000,0
2175.925446882059,Ipoh,Perak,30000,0
307.6414850794648,Kuala Lumpur,Kuala Lumpur,50480,1
230.48732942811927,Kuala Lumpur,Kuala Lumpur,53000,1
826.3519249610115,Kuala Lumpur,Kuala Lumpur,50470,0
481.1845300382557,Kuala Lumpur,Kuala Lumpur,56100,1
0.0,Seremban,Negeri Sembilan,70000,1
526.5671839019901,Johor Bahru,Johor,81200,0
1294.7633385885752,Subang Jaya,Selangor,47500,0
0.0,Melaka,Melaka,75000,1
1267.2715581684524,Johor Bahru,Johor,80400,0
721.3751451956108,Ipoh,Perak,30250,0
809.0152968402828,Kuala Lumpur,Kuala Lumpur,55000,0
1754.9345658695788,Petaling Jaya,Selangor,47500,0
1105.735854113134,Puchong,Selangor,47100,0
329.0563403649896,Kuala Lumpur,Kuala Lumpur,50200,1
380.0452399789853,Ipoh,Perak,31650,1
245.7478057775737,Kuala Lumpur,Kuala Lumpur,50100,1
2739.61952728339,Shah Alam,Selangor,40100,0
1580.210008789113,Kuala Lumpur,Kuala Lumpur,58200,0
1025.5664961783689,Kuala Lumpur,Kuala Lumpur,50470,0
553.6834157496247,Kuala Lumpur,Kuala Lumpur,53200,0
473.6809029261922,Kota Kinabalu,Sabah,88100,1
850.5431159508483,Batu Caves,Selangor,68100,0
923.374722287803,Kuala Lumpur,Kuala Lumpur,60000,0
1056.8502844811728,Kuala Lumpur,Kuala Lumpur,58100,0
243.1252308721263,Petaling Jaya,Selangor,47301,1
2674.9624431666853,Subang Jaya,Selangor,47620,0
582.4766650253305,Seremban,Negeri Sembilan,70000,0
1079.6759281669044,Kuala Lumpur,Kuala Lumpur,56000,0
3758.65527631896,Johor Bahru,Johor,81300,0
986.8224836560386,Kuala Lumpur,Kuala Lumpur,53300,0
1775.691230541271,Petaling Jaya,Selangor,46150,0
243.06988338816723,Johor Bahru,Johor,81100,1
1087.8851062109368,Shah Alam,Selangor,40000,0
520.7712440562105,Kota Kinabalu,Sabah,89500,0
719.8899602426878,Johor Bahru,Johor,81100,0
525.3255789875024,Kuala Lumpur,Kuala Lumpur,58100,0
230.48732942811927,Kuala Lumpur,Kuala Lumpur,53000,1
366.8102816574833,Kuala Lumpur,Kuala Lumpur,50470,1
405.97537965832765,Petaling Jaya,Selangor,47500,1
1613.7501070776443,Subang Jaya,Selangor,47500,0
1452.0924085608094,Kuala Lumpur,Kuala Lumpur,58200,0
1210.145731605589,Kuala Lumpur,Kuala Lumpur,53000,0
1177.6198482207003,Kuala Lumpur,Kuala Lumpur,52000,0
868.6328451717046,Johor Bahru,Johor,81100,0
409.4743496497727,Johor Bahru,Johor,80000,1
1193.9806139729933,Klang,Selangor,42000,0
2404.107881622997,Kuala Lumpur,Kuala Lumpur,57100,0
1092.0663793117703,Johor Bahru,Johor,80250,0
2395.031401559701,Ipoh,Perak,30000,0
2153.1006724150075,Kuala Lumpur,Kuala Lumpur,57100,0
433.1103526047584,Kuala Lumpur,Kuala Lumpur,50000,1
1215.9190704985083,Puchong,Selangor,47100,0
294.19873880157013,Kuching,Sarawak,93400,1
366.8102816574833,Kuala Lumpur,Kuala Lumpur,50470,1
3601.781467429147,Lumut,Perak,32200,0
1043.3518843918982,Petaling Jaya,Selangor,1935,0
1330.7459269931912,Johor Bahru,Johor,80100,0
427.4126777860662,Kuala Lumpur,Kuala Lumpur,55000,1
435.7577724017706,Klang,Selangor,45800,1
494.5343676364404,Kuala Lumpur,Kuala Lumpur,52000,1
1100.6859536234722,Kuala Lumpur,Kuala Lumpur,53300,0
1373.7035683334243,Johor Bahru,Johor,81100,0
500.2032218763907,Johor Bahru,Johor,80000,0
1656.6849474179385,Petaling Jaya,Selangor,46300,0
953.3151390981462,Sungai Petani,Kedah,8000,0
1701.7123499684533,Johor Bahru,Johor,81200,0
51.84620759249928,Petaling Jaya,Selangor,46200,1
409.4743496497727,Johor Bahru,Johor,80000,1
389.20008837948126,Klang,Selangor,41200,1
1230.7920856114454,Johor Bahru,Johor,80400,0
2146.620913428364,Kuala Lumpur,Kuala Lumpur,55200,0
1291.775390971621,Petaling Jaya,Selangor,47301,0
427.4126777860662,Kuala Lumpur,Kuala Lumpur,55000,1
594.1581582267407,Johor Bahru,Johor,80000,0
2315.909295758198,Petaling Jaya,Selangor,47810,0
267.69606144165925,Johor Bahru,Johor,81100,1
1776.0882057986755,Kota Kinabalu,Sabah,88000,0
1008.4830009307708,Puchong,Selangor,47100,0
1858.318174126885,Kajang,Selangor,43000,0
1025.5664961783689,Kuala Lumpur,Kuala Lumpur,50706,0
796.7250248653133,Kuala Lumpur,Kuala Lumpur,50450,0
985.6323343105242,Ipoh,Perak,31400,0
288.2715665599914,Johor Bahru,Johor,81200,1
1683.7018074962195,Kuala Lumpur,Kuala Lumpur,50480,0
476.8594678042225,Petaling Jaya,Selangor,47301,1
1510.4808674577944,Petaling Jaya,Selangor,46100,0
1242.77423401303,Petaling Jaya,Selangor,46150,0
934.0256843110648,Klang,Selangor,42000,0
292.3218772978137,Johor Bahru,Johor,81100,1
587.3831688997113,Johor Bahru,Johor,81100,0
2271.8430498261982,Ipoh,Perak,31650,0
1070.9763953162364,Petaling Jaya,Selangor,46300,0
929.5081432166982,Kuala Lumpur,Kuala Lumpur,56000,0
1969.970068446505,Kuala Lumpur,Kuala Lumpur,58200,0
283.32596680307745,Kuala Lumpur,Kuala Lumpur,56000,1
2596.3187364592263,Ipoh,Perak,31400,0
1324.4533975337706,Ipoh,Perak,30100,0
0.0,Kuala Lumpur,Kuala Lumpur,50200,1
445.6966212968391,Puchong,Selangor,47100,1
903.0996611597178,Kuala Lumpur,Kuala Lumpur,51000,0
796.7250248653133,Kuala Lumpur,Kuala Lumpur,50450,0
589.0245663977263,Ipoh,Perak,30000,0
1193.9806139729933,Klang,Selangor,42000,0
929.3135897282092,Kuala Lumpur,Kuala Lumpur,51200,0
1486.659659688362,Kuala Lumpur,Kuala Lumpur,50050,0
1163.258707598288,Johor Bahru,Johor,81100,0
3118.882861061083,Seremban,Negeri Sembilan,70200,0
536.4489662016782,Klang,Selangor,41000,0
814.7820722732241,Kuala Terengganu,Terengganu,20100,0
133.68544831678645,Johor Bahru,Johor,81200,1
1051.72159291027,Kuala Lumpur,Kuala Lumpur,56000,0
293.0725575175868,Sungai Petani,Kedah,8000,1
1061.4102109197047,Petaling Jaya,Selangor,46050,0
1440.73319064136,Kuala Lumpur,Kuala Lumpur,57100,0
781.8857315596131,Kuala Lumpur,Kuala Lumpur,51200,0
411.92697749302783,Kuching,Sarawak,93250,1
1373.7035683334243,Johor Bahru,Johor,81100,0
455.9100332294836,Kuching,Sarawak,93400,1
389.20008837948126,Klang,Selangor,41200,1
858.7727099845516,Klang,Selangor,53100,0
770.3457998508039,Ipoh,Perak,30100,0
1642.916799961872,Johor Bahru,Johor,81100,0
810.2734976620067,Johor Bahru,Johor,81100,0
721.7021309674363,Petaling Jaya,Selangor,46150,0
1530.8840232955752,Ipoh,Perak,31400,0
245.64813367470765,Ampang,Selangor,68000,1
324.74589722771003,Kuala Lumpur,Kuala Lumpur,50400,1
861.167223851514,Kuala Lumpur,Kuala Lumpur,60000,0
1831.8543354198384,Ipoh,Perak,31400,0
8144.211167819015,Labis,Johor,85300,0
254.8611369302442,Seremban,Negeri Sembilan,70000,1
795.5644321629972,Bukit Mertajam,Penang,14000,0
957.0289889009564,Klang,Selangor,41150,0
1025.5664961783689,Kuala Lumpur,Kuala Lumpur,50470,0
371.1080271650324,Kuching,Sarawak,93100,1
430.751081259945,Johor Bahru,Johor,81200,1
676.3575269406309,Kuala Lumpur,Kuala Lumpur,50460,0
653.002814001152,Kuala Lumpur,Kuala Lumpur,51200,0
535.7973660770499,Kuala Lumpur,Kuala Lumpur,50400,0
1340.2920789991151,Kuala Lumpur,Kuala Lumpur,53300,0
753.1209759556434,Seri Kembangan,Selangor,43300,0
227.600820860966,Kuala Lumpur,Kuala Lumpur,54000,1
685.8539715736259,Klang,Selangor,53100,0
902.644010630184,Kuala Lumpur,Kuala Lumpur,55100,0
336.99759351307864,Kuching,Sarawak,93100,1
1477.0834942692652,Petaling Jaya,Selangor,47400,0
1479.145341409729,Pangkor,Perak,32300,0
593.9947171583016,Kuala Lumpur,Kuala Lumpur,55100,0
2123.74396442008,Petaling Jaya,Selangor,47300,0
557.265386388723,Johor Bahru,Johor,80350,0
2444.63622428152,Ipoh,Perak,31650,0
0.0,Alor Setar,Kedah,5100,1
580.2334440378208,Kuching,Sarawak,93450,0
869.3088007332138,Kuala Lipis,Pahang,27200,0
1581.161503249491,Ipoh,Perak,31400,0
762.9759509650384,Ipoh,Perak,31400,0
1363.3107753251254,Ipoh,Perak,31400,0
451.9461882652306,Petaling Jaya,Selangor,46200,1
1525.8280038682217,Kuala Lumpur,Kuala Lumpur,52100,0
0.0,Kluang,Johor,86000,1
216.49888930514192,Wilayah Persekutuan,Kuala Lumpur,50350,1
475.0756338099444,Port Dickson,Negeri Sembilan,71050,1
413.62416162364735,Klang,Selangor,68100,1
1642.916799961872,Johor Bahru,Johor,81100,0
714.1112346350324,Kuala Lumpur,Kuala Lumpur,60000,0
794.610897807136,Beaufort,Sabah,89800,0
163.63390952034285,Kuala Lumpur,Kuala Lumpur,55100,1
1020.8517067287996,Sungai Petani,Kedah,8000,0
1406.5646746347147,Johor Bahru,Johor,81200,0
1035.8881152271313,Kuala Lumpur,Kuala Lumpur,53300,0
1566.8650499786274,Petaling Jaya,Selangor,46000,0
792.1777925153848,Petaling Jaya,Selangor,46000,0
440.0343489216392,Johor Bahru,Johor,80000,1
463.8372896538496,Kuala Lumpur,Kuala Lumpur,50300,1
879.2535210449965,Petaling Jaya,Selangor,46300,0
1413.4581568555786,Seremban,Negeri Sembilan,70100,0
277.2882158528839,Kuching,Sarawak,93150,1
1267.2715581684524,Johor Bahru,Johor,80400,0
120.28652523726572,Petaling Jaya,Selangor,46200,1
51.84620759249928,Petaling Jaya,Selangor,46200,1
1347.0050076070322,Petaling Jaya,Selangor,47301,0
1239.418658788585,Ipoh,Perak,30300,0
1286.1941835258026,Kuala Lumpur,Kuala Lumpur,55200,0
0.0,Kuala Lumpur,Kuala Lumpur,50200,1
10378.619808062098,Segamat,Johor,85000,0
2044.5383481344784,Ipoh,Perak,30020,0
517.7948921616479,Johor Bahru,Johor,80250,0
1534.1676690252973,Petaling Jaya,Selangor,46050,0
752.8053021224262,Johor Bahru,Johor,81100,0
245.7478057775737,Kuala Lumpur,Kuala Lumpur,50100,1
1542.092028227808,Johor Bahru,Johor,81300,0
2271.8430498261982,Ipoh,Perak,31650,0
1312.8177591655976,Kemaman,Terengganu,11083,0
55.86183326866704,Petaling Jaya,Selangor,46200,1
134.20093231324856,Kuantan,Pahang,25300,1
360.14808293160075,Melaka,Melaka,75200,1
806.2662081902865,Petaling Jaya,Selangor,47301,0
822.343390305979,Shah Alam,Selangor,40100,0
641.7100833792032,Johor Bahru,Johor,80300,0
661.7514189445758,Johor Bahru,Johor,81200,0
1224.279956649568,Petaling Jaya,Selangor,46000,0
1120.8420799325484,Seremban,Negeri Sembilan,70300,0
594.1581582267407,Johor Bahru,Johor,80000,0
371.1080271650324,Kuching,Sarawak,93100,1
2024.265618856409,Kuala Lumpur,Kuala Lumpur,57100,0
1832.050007428545,Kuala Lumpur,Kuala Lumpur,53200,0
118.31867704343465,Johor Bahru,Johor,81100,1
359.2243754965057,Kuching,Sarawak,93000,1
2080.2808551027592,Kuala Lumpur,Kuala Lumpur,56000,0
314.4368090444956,Seremban,Negeri Sembilan,70300,1
182.406319042514,Johor Bahru,Johor,81100,1
134.516720505778,Kuala Lumpur,Kuala Lumpur,56100,1
389.20008837948126,Klang,Selangor,41200,1
1918.79882339422,Johor Bahru,Johor,81100,0
170.4442522409658,Kuala Lumpur,Kuala Lumpur,59100,1
528.7219852144613,Kuala Lumpur,Kuala Lumpur,51200,0
886.3346642438673,Petaling Jaya,Selangor,46000,0
2287.3833050037824,Ipoh,Perak,31650,0
1832.050007428545,Kuala Lumpur,Kuala Lumpur,52100,0
1562.467148242425,Ipoh,Perak,30020,0
995.8670708011648,Petaling Jaya,Selangor,47410,0
929.0281094738668,Johor Bahru,Johor,80300,0
1347.0050076070322,Petaling Jaya,Selangor,47301,0
2028.5873472085725,Kuala Lumpur,Kuala Lumpur,50460,0
610.9508205839813,Klang,Selangor,41400,0
2269.3189228705696,Cukai,Terengganu,24000,0
0.0,Kuala Lumpur,Kuala Lumpur,50350,1
0.0,Kuala Lumpur,Kuala Lumpur,50350,1
1100.6859536234722,Kuala Lumpur,Kuala Lumpur,53300,0
2191.547238336823,Johor Bahru,Johor,81200,0
76.975933198951,Kuala Lumpur,Kuala Lumpur,50400,1
48.66134684295177,Kuala Lumpur,Kuala Lumpur,50450,1
429.2728453395478,Kajang,Selangor,43000,1
1087.8851062109368,Shah Alam,Selangor,40000,0
826.623204231156,Kuala Lumpur,Kuala Lumpur,50480,0
503.8113962553187,Kuala Lumpur,Kuala Lumpur,50300,0
1055.8993739233272,Ipoh,Perak,31350,0
1406.5646746347147,Johor Bahru,Johor,81200,0
0.0,Kuala Lumpur,Kuala Lumpur,50250,1
1683.6119852929903,Kuala Lumpur,Kuala Lumpur,50608,0
517.4076267493163,Johor Bahru,Johor,80000,0
536.4489662016782,Klang,Selangor,41000,0
1468.1541097902766,Kuala Lumpur,Kuala Lumpur,52100,0
815.0710813180709,Kuala Lumpur,Kuala Lumpur,51000,0
812.2410709545194,Klang,Selangor,41150,0
973.4079632620646,Kuala Lumpur,Kuala Lumpur,50480,0
469.9327498230274,Kuala Lumpur,Kuala Lumpur,51200,1
1286.1941835258026,Kuala Lumpur,Kuala Lumpur,55200,0
970.6781378436484,Kuala Lumpur,Kuala Lumpur,52000,0
220.0025699832104,Kuala Lumpur,Kuala Lumpur,50300,1
857.1071013935042,Ulu Tiram,Johor,81800,0
597.9353704769909,Kuala Lumpur,Kuala Lumpur,51200,0
254.8611369302442,Seremban,Negeri Sembilan,70000,1
582.4766650253305,Seremban,Negeri Sembilan,70000,0
105.73526474319884,Kuching,Sarawak,93200,1
576.2520801880875,Johor Bahru,Johor,80400,0
1593.2362507683013,Kuching,Sarawak,93450,0
653.002814001152,Kuala Lumpur,Kuala Lumpur,51200,0
1530.8840232955752,Ipoh,Perak,31400,0
2506.2011701066426,Puchong,Selangor,47100,0
864.8633991655428,Seremban,Negeri Sembilan,70100,0
957.7957685193932,Subang Jaya,Selangor,46150,0
2237.9151215813777,Ipoh,Perak,30250,0
1373.8812542274543,Seri Kembangan,Selangor,43300,0
1233.3264368078155,Klang,Selangor,42000,0
2153.1006724150075,Kuala Lumpur,Kuala Lumpur,57100,0
1635.5206419542938,Petaling Jaya,Selangor,46300,0
246.1778857651032,Kuala Lumpur,Kuala Lumpur,51200,1
36.47027317201651,Kuala Lumpur,Kuala Lumpur,50470,1
1274.5081042893185,Petaling Jaya,Selangor,46050,0
758.5800745265306,Kuala Lumpur,Kuala Lumpur,50350,0
701.8940820568491,Johor Bahru,Johor,81100,0
1023.9893308387288,Johor Bahru,Johor,81300,0
0.0,Alor Setar,Kedah,5100,1
1449.774885552744,Klang,Selangor,41050,0
2182.4906417850634,Kulim,Kedah,9000,0
1346.2423721971743,Ipoh,Perak,30100,0
902.644010630184,Kuala Lumpur,Kuala Lumpur,55100,0
366.306881404956,Kuala Lumpur,Kuala Lumpur,50250,1
1183.0715141481946,Ipoh,Perak,30780,0
262.86652721780973,Kuala Lumpur,Kuala Lumpur,55100,1
864.8633991655428,Seremban,Negeri Sembilan,70100,0
76.975933198951,Kuala Lumpur,Kuala Lumpur,50400,1
1477.0676076917175,Kuala Lumpur,Kuala Lumpur,53300,0
426.9687591035421,Kuala Lumpur,Kuala Lumpur,50480,1
1093.356924496362,Subang Jaya,Selangor,47500,0
422.6122308855057,Kuala Lumpur,Kuala Lumpur,50768,1
237.1280104671045,Georgetown,Penang,10050,1
1296.9237837234004,Johor Bahru,Johor,80400,0
764.6763072828312,Kuala Lumpur,Kuala Lumpur,55100,0
243.1252308721263,Petaling Jaya,Selangor,47301,1
1754.741418147309,Johor Bahru,Johor,81100,0
500.2032218763907,Johor Bahru,Johor,80000,0
2294.96990758879,Ipoh,Perak,30000,0
1424.9798270718904,Johor Bahru,Johor,81100,0
1453.5335551848295,Kuantan,Pahang,26080,0
2228.8724166041484,Kuala Lumpur,Kuala Lumpur,52100,0
1952.8062081826552,Skudai,Johor,81300,0
550.5576491477036,Kuala Lumpur,Kuala Lumpur,50200,0
2175.925446882059,Ipoh,Perak,30000,0
1486.659659688362,Kuala Lumpur,Kuala Lumpur,50050,0
455.9100332294836,Kuching,Sarawak,93400,1
1502.8394453963042,Ampang,Selangor,68000,0
1166.296154547523,Johor Bahru,Johor,81200,0
978.8812774588924,Kajang,Selangor,43000,0
2614.573447821856,Johor Bahru,Johor,81100,0
580.2334440378208,Kuching,Sarawak,93450,0
451.9461882652306,Petaling Jaya,Selangor,46200,1
1917.8921790091165,Kuala Lumpur,Kuala Lumpur,50480,0
985.6323343105242,Ipoh,Perak,31400,0
895.8515329230152,Taiping,Perak,34000,0
1503.1521261001812,Ipoh,Perak,30100,0
801.9708085718015,Kuala Lumpur,Kuala Lumpur,53000,0
457.9132938955091,Bentong,Pahang,28700,1
841.748026453851,Petaling Jaya,Selangor,47810,0
366.8102816574833,Kuala Lumpur,Kuala Lumpur,50470,1
472.9614846291733,Melaka,Melaka,75250,1
1503.2922327152526,Ipoh,Perak,31400,0
814.0248129406934,Shah Alam,Selangor,40400,0
1978.37686077232,Kuala Lumpur,Kuala Lumpur,50490,0
2376.071689314359,Johor Bahru,Johor,81100,0
254.2029587038489,Klang,Selangor,41200,1
1510.4808674577944,Petaling Jaya,Selangor,46100,0
1048.1873055780636,Kuala Lumpur,Kuala Lumpur,50460,0
895.8515329230152,Taiping,Perak,34000,0
300.89568602001043,Kuala Lumpur,Kuala Lumpur,50000,1
636.7318262358519,Kuala Lumpur,Kuala Lumpur,56100,0
117.92240755354575,Klang,Selangor,41000,1
2395.031401559701,Ipoh,Perak,30000,0
481.820637520017,Kuching,Sarawak,93300,1
361.9309006993951,Bandar Melaka,Melaka,75000,1
189.02156207826303,Limbang,Sarawak,98700,1
267.0529812116571,Petaling Jaya,Selangor,46200,1
285.44632069055257,Petaling Jaya,Selangor,47400,1
76.975933198951,Kuala Lumpur,Kuala Lumpur,50400,1
0.0,Kuala Lumpur,Kuala Lumpur,53200,1
1579.7570851509367,Ipoh,Perak,30010,0
1855.987492810887,Johor Bahru,Johor,81300,0
587.3831688997113,Johor Bahru,Johor,81100,0
405.97537965832765,Subang Jaya,Selangor,47500,1
1929.898272463844,Ipoh,Perak,30000,0
0.0,Alor Setar,Kedah,5100,1
1420.1797410522695,Johor Bahru,Johor,81100,0
201.35029964489863,Sepang,Selangor,43900,1
2564.513564022031,Subang Jaya,Selangor,47620,0
1175.7453823911617,Klang,Selangor,53100,0
1008.4830009307708,Puchong,Selangor,47100,0
803.3207688587047,Ipoh,Perak,31350,0
1611.3331515927073,Kuala Lumpur,Kuala Lumpur,50626,0
1056.8502844811728,Kuala Lumpur,Kuala Lumpur,58100,0
585.8782971288452,Johor Bahru,Johor,81200,0
1573.4081704342966,Kuala Lumpur,Kuala Lumpur,58200,0
2067.1804306648646,Petaling Jaya,Selangor,47630,0
740.530103504359,Klang,Selangor,41100,0
1413.8617981182672,Johor Bahru,Johor,81100,0
347.14396717002006,Kuala Lumpur,Kuala Lumpur,56100,1
165.28848604530538,Perai,Penang,13700,1
1316.5596907349775,Petaling Jaya,Selangor,47301,0
294.19873880157013,Kuching,Sarawak,93400,1
429.51784535977714,Kuala Lumpur,Kuala Lumpur,50000,1
966.4560896268872,Johor Bahru,Johor,80250,0
189.02156207826303,Limbang,Sarawak,98700,1
426.31869633375305,Kuala Lumpur,Kuala Lumpur,50200,1
886.3346642438673,Petaling Jaya,Selangor,46000,0
318.595225803697,Melaka,Melaka,75250,1
930.190501449354,Kuala Lumpur,Kuala Lumpur,53300,0
966.4560896268872,Johor Bahru,Johor,80250,0
312.2928793873002,Seremban,Negeri Sembilan,70000,1
1984.5878552318463,Kuala Lumpur,Kuala Lumpur,50480,0
1768.5444450545538,Kuala Lumpur,Kuala Lumpur,56100,0
2271.8430498261982,Ipoh,Perak,31650,0
2236.067428130655,Petaling Jaya,Selangor,47300,0
1704.968771253764,Ipoh,Perak,30000,0
661.7514189445758,Johor Bahru,Johor,81200,0
1029.6760273736577,Ampang,Selangor,68000,0
2413.711500090749,Petaling Jaya,Selangor,47810,0
557.1354083189798,Klang,Selangor,53100,0
2182.4906417850634,Kulim,Kedah,9000,0
227.600820860966,Kuala Lumpur,Kuala Lumpur,54000,1
576.2520801880875,Johor Bahru,Johor,80400,0
606.5613745987719,Johor Bahru,Johor,81100,0
1242.77423401303,Petaling Jaya,Selangor,46150,0
1013.7082558789876,Ipoh,Perak,31650,0
681.8647114122302,Kuala Lumpur,Kuala Lumpur,55100,0
2237.9151215813777,Ipoh,Perak,30250,0
1471.2346962417855,Subang Jaya,Selangor,47620,0
639.2611925065598,Kuala Lumpur,Kuala Lumpur,50470,0
1963.576968869051,Ipoh,Perak,31400,0
976.1671826967214,Klang,Selangor,42000,0
898.0101917746686,Shah Alam,Selangor,40100,0
168.0382352306272,Taiping,Perak,34000,1
1330.7459269931912,Johor Bahru,Johor,80100,0
1628.5297965215063,Kuala Lumpur,Kuala Lumpur,52100,0
1739.7430205789271,Kuala Lumpur,Kuala Lumpur,55200,0
406.7291900937384,Ampang,Selangor,68000,1
511.92479162132,Johor Bahru,Johor,81100,0
2141.288745820399,Petaling Jaya,Selangor,46150,0
48.66134684295177,Kuala Lumpur,Kuala Lumpur,50450,1
476.6855727377467,Jalan Kuching,Kuala Lumpur,98000,1
1525.8280038682217,Kuala Lumpur,Kuala Lumpur,52200,0
1602.345372317933,Petaling Jaya,Selangor,46150,0
0.0,Bukit Mertajam,Penang,14000,1
1796.5139213847458,Johor Bahru,Johor,81200,0
2175.925446882059,Ipoh,Perak,30000,0
538.3192765076564,Bayan Lepas,Penang,11900,0
2704.103597551352,Petaling Jaya,Selangor,47810,0
1701.7123499684533,Johor Bahru,Johor,81200,0
744.4382277640826,Kuala Lumpur,Kuala Lumpur,55000,0
444.3280045996256,Kuala Lumpur,Kuala Lumpur,55100,1
245.7478057775737,Kuala Lumpur,Kuala Lumpur,50100,1
930.190501449354,Kuala Lumpur,Kuala Lumpur,53300,0
1056.8502844811728,Kuala Lumpur,Kuala Lumpur,58100,0
134.516720505778,Kuala Lumpur,Kuala Lumpur,56100,1
1105.4076700921703,Kuala Lumpur,Kuala Lumpur,53200,0
1503.1521261001812,Ipoh,Perak,30100,0
966.4560896268872,Johor Bahru,Johor,80250,0
742.3117549987995,Johor Bahru,Johor,81100,0
3054.660682286288,Subang Jaya,Selangor,47600,0
970.6781378436484,Kuala Lumpur,Kuala Lumpur,52000,0
1406.9559766331392,Klang,Selangor,42450,0
587.8381838589501,Alor Setar,Kedah,5100,0
1679.4132569542464,Kuala Lumpur,Kuala Lumpur,56100,0
576.2520801880875,Johor Bahru,Johor,80400,0
1050.6079165175315,Kuala Lumpur,Kuala Lumpur,57000,0
429.51784535977714,Kuala Lumpur,Kuala Lumpur,50000,1
0.0,Kuala Lumpur,Kuala Lumpur,50350,1
866.8794127175058,Johor Bahru,Johor,81200,0
2099.768073119577,Ipoh,Perak,31400,0
1960.97773034784,Kuala Lumpur,Kuala Lumpur,56000,0
292.3218772978137,Johor Bahru,Johor,81100,1
982.6403280082832,Kuantan,Pahang,25200,0
504.9834180412899,Taiping,Perak,34000,0
781.8857315596131,Kuala Lumpur,Kuala Lumpur,51200,0
983.8659088954388,Klang,Selangor,41400,0
548.6792429489658,Puchong,Selangor,47100,0
1033.339567412629,Kuala Lumpur,Kuala Lumpur,68100,0
693.2269141417353,Seremban,Negeri Sembilan,70000,0
866.8794127175058,Johor Bahru,Johor,81200,0
934.0256843110648,Klang,Selangor,42000,0
1027.8713395260263,Kuala Lumpur,Kuala Lumpur,59200,0
355.43854651246994,Puchong,Selangor,47100,1
51.84620759249928,Petaling Jaya,Selangor,46200,1
2739.61952728339,Shah Alam,Selangor,40100,0
2346.467324257427,Johor Bahru,Johor,81100,0
681.8647114122302,Kuala Lumpur,Kuala Lumpur,55100,0
1061.4102109197047,Petaling Jaya,Selangor,46050,0
1810.4264120577952,Kota Bharu,Kelantan,15000,0
945.4356233774364,Ipoh,Perak,31400,0
18.1963589598036,Kuching,Sarawak,93450,1
244.79901220623225,Johor Bahru,Johor,80000,1
411.2593244191908,Petaling Jaya,Selangor,46100,1
500.2032218763907,Johor Bahru,Johor,80000,0
630.1812723235054,Seremban,Negeri Sembilan,70000,0
570.9333589424227,Johor Bahru,Johor,81100,0
429.51784535977714,Kuala Lumpur,Kuala Lumpur,50000,1
455.9100332294836,Kuching,Sarawak,93400,1
2502.063987880895,Petaling Jaya,Selangor,47610,0
768.9099244798673,Johor Bahru,Johor,80250,0
975.8199763990012,Kuala Lumpur,Kuala Lumpur,59200,0
409.4743496497727,Johor Bahru,Johor,80000,1
876.3376078024353,Melaka,Melaka,75400,0
649.2165006708433,Johor Bahru,Johor,80000,0
516.3299206121807,Kuala Lumpur,Kuala Lumpur,50470,0
429.2728453395478,Kajang,Selangor,43000,1
1030.3970520357336,Petaling Jaya,Selangor,47301,0
1632.6496723770504,Johor Bahru,Johor,81100,0
134.24518102853577,Kuala Lumpur,Kuala Lumpur,59000,1
854.8619793137735,Johor Bahru,Johor,81200,0
953.44334055546,Kuala Lumpur,Kuala Lumpur,59100,0
430.751081259945,Johor Bahru,Johor,81200,1
1591.0815265310569,Kuala Lumpur,Kuala Lumpur,53100,0
0.0,Png,Penang,14000,1
452.7703610490562,Johor Bahru,Johor,80000,1
1038.4423212379345,Kuala Lumpur,Kuala Lumpur,59000,0
155.8016072500899,Petaling Jaya,Selangor,46200,1
528.7219852144613,Kuala Lumpur,Kuala Lumpur,51200,0
1218.2954743320167,Kota Kinabalu,Sabah,88000,0
472.225079995876,Seri Kembangan,Selangor,43300,1
181.9424066769301,Kuala Lumpur,Kuala Lumpur,59100,1
1493.657032089639,Ipoh,Perak,31400,0
1315.8244778259418,Kuala Lumpur,Kuala Lumpur,52100,0
700.5027199922471,Ipoh,Perak,30300,0
949.917608891886,Johor Bahru,Johor,81300,0
1649.963964073752,Petaling Jaya,Selangor,46050,0
1573.4081704342966,Kuala Lumpur,Kuala Lumpur,58200,0
499.10778604388526,Johor Bahru,Johor,80300,1
442.40241308058586,Johor Bahru,Johor,81100,1
294.19873880157013,Kuching,Sarawak,93400,1
2230.1428722354576,Johor Bahru,Johor,81100,0
945.1363648548546,Kuala Lumpur,Kuala Lumpur,68100,0
353.8226759655297,Kuala Lumpur,Kuala Lumpur,50300,1
0.0047299098223447,Puchong,Selangor,47100,1
914.1726417005264,Klang,Selangor,58000,0
614.1805597749723,Kuala Lumpur,Kuala Lumpur,55100,0
144.8746672343061,Miri,Sarawak,98000,1
1854.4723870625503,Kuala Lumpur,Kuala Lumpur,57100,0
902.644010630184,Kuala Lumpur,Kuala Lumpur,55100,0
1071.9470376513782,Kuala Lumpur,Kuala Lumpur,56000,0
1507.4320914799623,Kuala Lumpur,Kuala Lumpur,57100,0
1067.3638007681527,Subang Jaya,Selangor,47500,0
2264.8707680506886,Shah Alam,Selangor,40000,0
652.620034329257,Petaling Jaya,Selangor,47400,0
251.3640020510482,Kuching,Sarawak,93100,1
221.2810998045408,Kajang,Selangor,43000,1
134.516720505778,Kuala Lumpur,Kuala Lumpur,56100,1
611.5219663637872,Seremban,Negeri Sembilan,70000,0
392.1327513635824,Georgetown,Penang,10400,1
285.44632069055257,Petaling Jaya,Selangor,47400,1
1193.9806139729933,Klang,Selangor,42000,0
2237.9151215813777,Ipoh,Perak,30250,0
892.5214060733889,Kuala Terengganu,Terengganu,21854,0
299.64351656314085,Jalan Selat,Penang,12000,1
587.3831688997113,Johor Bahru,Johor,81100,0
685.8539715736259,Klang,Selangor,53100,0
2020.686398640669,Ipoh,Perak,30000,0
856.7562666224756,Bayan Lepas,Penang,11900,0
1193.9845942651827,Petaling Jaya,Selangor,47500,0
1184.6564082666098,Ipoh,Perak,30450,0
1297.014110230882,Petaling Jaya,Selangor,46400,0
1875.0592177985088,Johor Bahru,Johor,81300,0
752.0985035217852,Ipoh,Perak,30100,0
1230.7920856114454,Johor Bahru,Johor,80400,0
1012.021156158895,Ipoh,Perak,30450,0
380.0452399789853,Ipoh,Perak,31650,1
181.9424066769301,Kuala Lumpur,Kuala Lumpur,59100,1
51.84620759249928,Petaling Jaya,Selangor,46200,1
1999.0257567217536,Ipoh,Perak,31350,0
379.2079148787194,Johor Bahru,Johor,81100,1
2444.63622428152,Ipoh,Perak,31650,0
414.3377617529546,Shah Alam,Selangor,40000,1
902.644010630184,Kuala Lumpur,Kuala Lumpur,55100,0
715.4084438657386,Petaling Jaya,Selangor,46000,0
165.5855329325019,Johor Bahru,Johor,81300,1
1382.4900255524346,Johor Bahru,Johor,81200,0
371.1080271650324,Kuching,Sarawak,93100,1
416.7691423890475,Kuala Lumpur,Kuala Lumpur,50400,1
692.6253917337787,Kuala Lumpur,Kuala Lumpur,60000,0
297.1871726961101,Miri,Sarawak,98000,1
2269.793684859035,Johor Bahru,Johor,81100,0
1888.3241458689467,Kuala Lumpur,Kuala Lumpur,58200,0
907.6580161052426,Kuala Lumpur,Kuala Lumpur,60000,0
914.1726417005264,Klang,Selangor,41200,0
0.0,Kuching,Sarawak,93400,1
1754.741418147309,Johor Bahru,Johor,81100,0
3054.660682286288,Petaling Jaya,Selangor,47301,0
527.0644286823451,Kuala Lumpur,Kuala Lumpur,55100,0
976.1671826967214,Klang,Selangor,41100,0
1210.145731605589,Kuala Lumpur,Kuala Lumpur,53000,0
1713.3774354892405,Ampang,Kuala Lumpur,57100,0
293.61606751862735,Kuala Lumpur,Kuala Lumpur,55000,1
575.1615802614447,Kuala Lumpur,Kuala Lumpur,50200,0
1668.7131465663413,Johor Bahru,Johor,81100,0
304.5606312711479,Seremban,Negeri Sembilan,70000,1
946.9698015828872,Petaling Jaya,Selangor,46050,0
389.74255372768334,Parit Buntar,Perak,34200,1
2028.5873472085725,Kuala Lumpur,Kuala Lumpur,50460,0
2269.3189228705696,Cukai,Terengganu,24000,0
1580.210008789113,Kuala Lumpur,Kuala Lumpur,58200,0
1230.7920856114454,Johor Bahru,Johor,80400,0
18.1963589598036,Kuching,Sarawak,93450,1
550.7742638283371,Klang,Selangor,41000,0
2287.5676304028248,Kota Bharu,Kelantan,15050,0
2182.4906417850634,Kulim,Kedah,9000,0
580.9432639140765,Kuala Lumpur,Kuala Lumpur,55100,0
2237.9151215813777,Ipoh,Perak,30250,0
2444.63622428152,Ipoh,Perak,31650,0
1588.9008119474006,Kuala Lumpur,Kuala Lumpur,58200,0
417.863387912305,Mlk,Melaka,75000,1
1487.6221912669012,Petaling Jaya,Selangor,47400,0
888.7079120891303,Johor Bahru,Johor,80400,0
1183.5566781059442,Ipoh,Perak,31350,0
700.5027199922471,Ipoh,Perak,30300,0
1376.822540808015,Kuala Lumpur,Kuala Lumpur,59200,0
412.6432894928871,Klang,Selangor,41100,1
973.4079632620646,Kuala Lumpur,Kuala Lumpur,50480,0
1050.6079165175315,Wilayah Persekutuan,Kuala Lumpur,57000,0
1957.7326928908903,Ipoh,Perak,31400,0
1376.822540808015,Kuala Lumpur,Kuala Lumpur,59200,0
108.00932113400992,Kuala Lumpur,Kuala Lumpur,50350,1
1638.9394192267578,Kuala Lumpur,Kuala Lumpur,59000,0
903.0996611597178,Kuala Lumpur,Kuala Lumpur,51000,0
245.7478057775737,Kuala Lumpur,Kuala Lumpur,50100,1
2287.3833050037824,Ipoh,Perak,31650,0
213.9483351861749,Kuala Lumpur,Kuala Lumpur,51100,1
183.0709543983345,Medan Mutiara,Penang,11900,1
1739.9039691016594,Ipoh,Perak,31200,0
900.1552663438848,Klang,Selangor,42000,0
1471.1944332711062,Kuala Lumpur,Kuala Lumpur,53100,0
366.8102816574833,Kuala Lumpur,Kuala Lumpur,50470,1
324.74589722771003,Kuala Lumpur,Kuala Lumpur,50400,1
902.0069515202772,Johor Bahru,Johor,81100,0
1175.7453823911617,Klang,Selangor,53100,0
1771.826681597467,Kuala Lumpur,Kuala Lumpur,57100,0
1109.6640613421926,Johor Bahru,Johor,81200,0
945.4356233774364,Ipoh,Perak,31400,0
688.2494885407008,Kuala Lumpur,Kuala Lumpur,60000,0
1582.2105451756886,Miri,Sarawak,98000,0
1219.177254146043,Petaling Jaya,Selangor,47301,0
653.0650030729864,Kuala Lumpur,Kuala Lumpur,54100,0
2099.768073119577,Ipoh,Perak,31400,0
188.518202849338,Petaling Jaya,Selangor,46200,1
587.3831688997113,Johor Bahru,Johor,81100,0
471.0847948254288,Perai,Penang,13600,1
435.4454973171786,Klang,Selangor,41200,1
536.3580033582659,Petaling Jaya,Selangor,46100,0
486.0048405079849,Petaling Jaya,Selangor,46100,1
2109.193194120573,Johor Bahru,Johor,81300,0
0.0,Kuala Lumpur,Kuala Lumpur,54200,1
125.01341452845902,Georgetown,Penang,10200,1
2609.2786942210605,Kuantan,Pahang,26080,0
419.1470016045229,Kuala Lumpur,Kuala Lumpur,50400,1
1069.0213303858857,Kuala Lumpur,Kuala Lumpur,55100,0
244.337505567552,Kota Kinabalu,Sabah,88450,1
1691.515387724192,Bayan Lepas,Penang,11900,0
1418.7327066586756,Ipoh,Perak,31650,0
879.2535210449965,Petaling Jaya,Selangor,46300,0
661.7514189445758,Johor Bahru,Johor,81200,0
496.1349482659063,Petaling Jaya,Selangor,47301,1
36.47027317201651,Kuala Lumpur,Kuala Lumpur,50470,1
649.2165006708433,Johor Bahru,Johor,80000,0
1580.210008789113,Kuala Lumpur,Kuala Lumpur,58200,0
1069.0213303858857,Kuala Lumpur,Kuala Lumpur,55100,0
192.47462481368024,Bukit Mertajam,Penang,14000,1
1947.476449379006,Puchong,Selangor,47100,0
441.22068665070657,Kuching,Sarawak,93350,1
1021.7453555322114,Petaling Jaya,Selangor,46000,0
0.0,Kajang,Selangor,43000,1
1813.1023583451768,Johor Bahru,Johor,81100,0
1056.8502844811728,Kuala Lumpur,Kuala Lumpur,58100,0
595.9282840420882,Petaling Jaya,Selangor,46000,0
2041.0409635712315,Johor Bahru,Johor,81300,0
1398.6238716060834,Kuala Lumpur,Kuala Lumpur,50614,0
1588.356778871688,Johor Bahru,Johor,81300,0
1704.968771253764,Ipoh,Perak,30000,0
1095.1588069081106,Penang,Penang,11200,0
741.9857985765088,Kuala Lumpur,Kuala Lumpur,50470,0
580.2334440378208,Kuching,Sarawak,93450,0
1492.0795011876326,Petaling Jaya,Selangor,46050,0
258.8976783832824,Kuala Lumpur,Kuala Lumpur,50200,1
217.2811556893505,Kuala Lumpur,Kuala Lumpur,50150,1
692.6253917337787,Kuala Lumpur,Kuala Lumpur,60000,0
1295.0270182635522,Petaling Jaya,Selangor,47500,0
536.4489662016782,Klang,Selangor,41000,0
612.8824073664229,Kuala Lumpur,Kuala Lumpur,51200,0
0.0,Kuala Lumpur,Kuala Lumpur,50050,1
158.46581979960632,Melaka,Melaka,75200,1
685.8539715736259,Klang,Selangor,53100,0
764.6763072828312,Kuala Lumpur,Kuala Lumpur,55100,0
216.49888930514192,Wilayah Persekutuan,Kuala Lumpur,50350,1
1681.2853125804631,Ipoh,Perak,31450,0
1275.184772664409,Kuala Lumpur,Kuala Lumpur,52200,0
135.1606867596895,Kuala Lumpur,Kuala Lumpur,50000,1
1613.7501070776443,Subang Jaya,Selangor,47600,0
261.9632001057625,Kuala Lumpur,Kuala Lumpur,57100,1
1530.8840232955752,Ipoh,Perak,31400,0
663.5743822911919,Klang,Selangor,41200,0
1542.630532120466,Johor Bahru,Johor,81200,0
472.225079995876,Seri Kembangan,Selangor,43300,1
246.12276269759164,Kuantan,Pahang,25000,1
2237.9151215813777,Ipoh,Perak,30250,0
858.7727099845516,Klang,Selangor,53100,0
1646.3210937129602,Ipoh,Perak,30300,0
2002.7897354995305,Johor Bahru,Johor,81200,0
212.26748760521068,Kuala Lumpur,Kuala Lumpur,50450,1
372.38007416634616,Klang,Selangor,41400,1
489.52782904380206,Kuala Lumpur,Kuala Lumpur,68100,1
700.5027199922471,Ipoh,Perak,30300,0
514.2095094022494,Johor Bahru,Johor,81100,0
2813.0967720509343,Subang Jaya,Selangor,47620,0
659.6744043215559,Kuala Lumpur,Kuala Lumpur,50100,0
55.86183326866704,Petaling Jaya,Selangor,46200,1
869.3088007332138,Kuala Lipis,Pahang,27200,0
2002.7897354995305,Johor Bahru,Johor,81200,0
1855.987492810887,Johor Bahru,Johor,81300,0
2500.262956495799,Johor Bahru,Johor,81100,0
592.9854091791019,Selayang Baru,Selangor,68100,0
0.0,Kuala Lumpur,Kuala Lumpur,50200,1
550.7742638283371,Klang,Selangor,41000,0
1594.2292953664191,Kuala Lumpur,Kuala Lumpur,50460,0
0.0,Kuala Terengganu,Terengganu,20100,1
398.44963073851983,Petaling Jaya,Selangor,46200,1
1681.7319901717815,Petaling Jaya,Selangor,46350,0
1180.92378554066,Kuala Lumpur,Kuala Lumpur,58200,0
2534.363558648512,Johor Bahru,Johor,81300,0
1487.6221912669012,Petaling Jaya,Selangor,47400,0
2269.3604344374603,Kuala Lumpur,Kuala Lumpur,50490,0
1804.206110533774,Johor Bahru,Johor,81200,0
514.2095094022494,Johor Bahru,Johor,81100,0
1321.470381714257,Kuala Lumpur,Kuala Lumpur,50490,0
909.5589289345124,Klang,Selangor,41050,0
356.26791671903413,Kuantan,Pahang,25000,1
1193.9845942651827,Petaling Jaya,Selangor,47500,0
0.0,Kuala Lumpur,Kuala Lumpur,50000,1
693.2269141417353,Seremban,Negeri Sembilan,70000,0
429.51784535977714,Kuala Lumpur,Kuala Lumpur,50000,1
2931.9194536271875,Subang Jaya,Selangor,47620,0
1586.6756699072191,Kuala Lumpur,Kuala Lumpur,57100,0
1021.7453555322114,Petaling Jaya,Selangor,46000,0
934.0256843110648,Klang,Selangor,42000,0
1175.7453823911617,Klang,Selangor,53100,0
909.5589289345124,Klang,Selangor,41050,0
516.6040615741356,Kuching,Sarawak,93250,0
1664.7173533597374,Puchong,Selangor,47100,0
1768.5575834282386,Johor Bahru,Johor,81200,0
1210.145731605589,Kuala Lumpur,Kuala Lumpur,53000,0
10378.619808062098,Segamat,Johor,85000,0
2224.6578547827994,Johor Bahru,Johor,81200,0
238.31361002581264,Johor Bahru,Johor,80150,1
206.7955522161364,Seremban,Negeri Sembilan,70000,1
1100.6859536234722,Kuala Lumpur,Kuala Lumpur,53300,0
1051.72159291027,Kuala Lumpur,Kuala Lumpur,56000,0
245.7478057775737,Kuala Lumpur,Kuala Lumpur,50100,1
1978.37686077232,Kuala Lumpur,Kuala Lumpur,50490,0
670.9852645247355,Klang,Selangor,41000,0
1135.023236402687,Kuala Lumpur,Kuala Lumpur,53300,0
3118.882861061083,Seremban,Negeri Sembilan,70200,0
983.8661419721848,Klang,Selangor,41100,0
1394.5632633956882,Kajang,Selangor,43000,0
244.79901220623225,Johor Bahru,Johor,80000,1
1171.4298022125536,Ipoh,Perak,31350,0
940.4223892674148,Tapah,Perak,35000,0
1534.1676690252973,Petaling Jaya,Selangor,46050,0
1040.3597307549633,Kuala Kangsar,Perak,30300,0
356.0248439150968,Kuala Lumpur,Kuala Lumpur,50470,1
1119.6163446749042,Petaling Jaya,Selangor,46300,0
303.05280966181573,Kuantan,Pahang,25100,1
371.1080271650324,Kuching,Sarawak,93100,1
836.2235219947916,Johor Bahru,Johor,81100,0
777.5846042418432,Johor Bahru,Johor,81100,0
1977.2745732644785,Petaling Jaya,Selangor,46300,0
909.0729327942132,Petaling Jaya,Selangor,56050,0
826.3519249610115,Kuala Lumpur,Kuala Lumpur,50470,0
146.0023168099149,Petaling Jaya,Selangor,46200,1
3054.660682286288,Petaling Jaya,Selangor,47301,0
507.9231946362368,Ampang,Selangor,68000,0
184.2018324644136,Petaling Jaya,Selangor,46200,1
1587.380451530987,Kuala Lumpur,Kuala Lumpur,56100,0
603.959668835672,Kluang,Johor,86000,0
666.8317160073539,Klang,Selangor,42000,0
2028.5873472085725,Kuala Lumpur,Kuala Lumpur,50460,0
1210.145731605589,Kuala Lumpur,Kuala Lumpur,53000,0
1052.6051777443822,Kajang,Selangor,43000,0
1704.968771253764,Ipoh,Perak,30000,0
864.8633991655428,Seremban,Negeri Sembilan,70100,0
158.46581979960632,Melaka,Melaka,75200,1
1025.5664961783689,Kuala Lumpur,Kuala Lumpur,50706,0
1390.3711834752305,Kuala Lumpur,Kuala Lumpur,57100,0
897.9690555512867,Kuala Lumpur,Kuala Lumpur,50450,0
540.8055748992125,Kuala Lumpur,Kuala Lumpur,50300,0
2294.96990758879,Ipoh,Perak,30000,0
429.51784535977714,Kuala Lumpur,Kuala Lumpur,50000,1
0.0,Kuching,Sarawak,93150,1
1100.6859536234722,Kuala Lumpur,Kuala Lumpur,53300,0
435.94954585548015,Kuching,Sarawak,93400,1
1418.7327066586756,Ipoh,Perak,31650,0
946.9698015828872,Petaling Jaya,Selangor,46050,0
328.154688402874,Klang,Selangor,41150,1
926.2462288424769,Johor Bahru,Johor,81100,0
1479.145341409729,Pangkor,Perak,32300,0
1416.1076374752147,Johor Bahru,Johor,81200,0
106.54828418089885,Sibu,Sarawak,96000,1
721.7021309674363,Petaling Jaya,Selangor,46150,0
1286.1941835258026,Kuala Lumpur,Kuala Lumpur,55200,0
196.0090258542604,Kuala Lumpur,Kuala Lumpur,51200,1
752.8053021224262,Johor Bahru,Johor,81100,0
1109.6640613421926,Johor Bahru,Johor,81200,0
419.7053985208255,Kuala Lumpur,Kuala Lumpur,54100,1
859.2584308124233,Klang,Selangor,42100,0
1588.9008119474006,Kuala Lumpur,Kuala Lumpur,58200,0
2564.513564022031,Subang Jaya,Selangor,47620,0
2066.1369605182103,Seremban,Negeri Sembilan,70300,0
1157.0081817342948,Ipoh,Perak,30300,0
371.1080271650324,Kuching,Sarawak,93100,1
165.28848604530538,Perai,Penang,13700,1
606.5613745987719,Johor Bahru,Johor,81100,0
405.97537965832765,Petaling Jaya,Selangor,47500,1
254.2029587038489,Klang,Selangor,41200,1
0.0,Kuala Lumpur,Kuala Lumpur,50250,1
212.26748760521068,Kuala Lumpur,Kuala Lumpur,50450,1
1588.9008119474006,Kuala Lumpur,Kuala Lumpur,58200,0
514.2095094022494,Johor Bahru,Johor,81100,0
474.2029485408802,Ipoh,Perak,31350,1
555.715133906137,Klang,Selangor,41200,0
359.2243754965057,Kuching,Sarawak,93000,1
589.0245663977263,Ipoh,Perak,30000,0
1387.702045475558,Seremban,Negeri Sembilan,70100,0
859.9256716568227,Ampang,Selangor,68000,0
0.0,Kuala Lumpur,Kuala Lumpur,50200,1
1519.5035350224505,Petaling Jaya,Selangor,46000,0
1084.1055977230258,Puchong,Selangor,47100,0
366.8102816574833,Kuala Lumpur,Kuala Lumpur,50470,1
2271.8430498261982,Ipoh,Perak,31650,0
810.2734976620067,Johor Bahru,Johor,81100,0
2444.63622428152,Ipoh,Perak,31650,0
727.6978619761528,Klang,Selangor,42000,0
452.7703610490562,Johor Bahru,Johor,80000,1
508.15993484000165,Johor Bahru,Johor,80250,0
293.0725575175868,Sungai Petani,Kedah,8000,1
839.2026190932758,Kuala Lumpur,Kuala Lumpur,51200,0
251.3640020510482,Kuching,Sarawak,93100,1
382.8047038179376,Alor Setar,Kedah,5050,1
1434.8039738028615,Kuala Lumpur,Kuala Lumpur,52100,0
230.48732942811927,Kuala Lumpur,Kuala Lumpur,53000,1
120.28652523726572,Petaling Jaya,Selangor,46200,1
244.97442964239104,Shah Alam,Selangor,40470,1
2202.8091226605243,Petaling Jaya,Selangor,46100,0
245.7478057775737,Kuala Lumpur,Kuala Lumpur,50100,1
2419.9734615424245,Johor Bahru,Johor,81100,0
1343.0176012124189,Kuala Lumpur,Kuala Lumpur,53300,0
567.4543550863525,Kuala Lumpur,Kuala Lumpur,55100,0
2444.63622428152,Ipoh,Perak,31650,0
1124.203862134909,Johor Bahru,Johor,81300,0
1631.4180778452771,Kuala Lumpur,Kuala Lumpur,52100,0
453.8492087560995,Penang,Penang,10000,1
2228.8724166041484,Kuala Lumpur,Kuala Lumpur,52100,0
2739.61952728339,Shah Alam,Selangor,40100,0
0.0,Kuala Lumpur,Kuala Lumpur,56100,1
1071.9470376513782,Kuala Lumpur,Kuala Lumpur,56000,0
1242.77423401303,Petaling Jaya,Selangor,46150,0
1566.8650499786274,Petaling Jaya,Selangor,46000,0
337.86067330454455,Sungai Buloh,Selangor,47000,1
809.0152968402828,Kuala Lumpur,Kuala Lumpur,55000,0
1021.7453555322114,Petaling Jaya,Selangor,46000,0
507.9231946362368,Ampang,Selangor,68000,0
1277.0587127660872,Kuala Lumpur,Kuala Lumpur,56100,0
1043.398679697329,Kuala Lumpur,Kuala Lumpur,50470,0
436.8113096218048,Bentong,Pahang,28700,1
555.715133906137,Klang,Selangor,41200,0
347.36776233225896,W,Labuan,87000,1
328.154688402874,Klang,Selangor,41150,1
27.43666230093184,Seri Kembangan,Selangor,43300,1
1335.4873029935916,Petaling Jaya,Selangor,47301,0
1100.6859536234722,Kuala Lumpur,Kuala Lumpur,53300,0
158.46581979960632,Melaka,Melaka,75200,1
573.4899540955265,Kuala Lumpur,Kuala Lumpur,56100,0
1286.1941835258026,Kuala Lumpur,Kuala Lumpur,55200,0
814.7820722732241,Kuala Terengganu,Terengganu,20100,0
339.9637754155882,Kuching,Sarawak,93300,1
202.40316370719287,Ipoh,Perak,30010,1
215.05032573504863,Kuala Lumpur,Kuala Lumpur,50100,1
226.49946877408803,Johor Bahru,Johor,81100,1
753.1209759556434,Seri Kembangan,Selangor,43300,0
294.19873880157013,Kuching,Sarawak,93400,1
983.7162818032964,Kajang,Selangor,43000,0
366.8102816574833,Kuala Lumpur,Kuala Lumpur,50470,1
898.0101917746686,Shah Alam,Selangor,40100,0
289.6989330952846,Kuala Lumpur,Kuala Lumpur,56000,1
1791.152487715352,Shah Alam,Selangor,40460,0
765.6809017187577,Kuching,Sarawak,93150,0
181.9424066769301,Kuala Lumpur,Kuala Lumpur,59100,1
369.36169356431634,Kuala Lumpur,Kuala Lumpur,50450,1
2264.8707680506886,Shah Alam,Selangor,40000,0
2514.7214044794714,Johor Bahru,Johor,81100,0
0.0,Petaling Jaya,Selangor,46100,1
1215.9190704985083,Puchong,Selangor,47100,0
1575.100725952009,Cheras,Selangor,43200,0
709.7379672993625,Johor Bahru,Johor,81100,0
1567.7604697744002,Ipoh,Perak,30010,0
2101.809134946018,Johor Bahru,Johor,81100,0
1406.5646746347147,Johor Bahru,Johor,81200,0
1025.5664961783689,Kuala Lumpur,Kuala Lumpur,50470,0
1184.6564082666098,Ipoh,Perak,30450,0
500.25921012097416,Klang,Selangor,41050,0
243.1252308721263,Petaling Jaya,Selangor,47301,1
196.0090258542604,Kuala Lumpur,Kuala Lumpur,51200,1
1562.5215512549812,Kota Tinggi,Johor,81900,0
2593.708315186581,Petaling Jaya,Selangor,47610,0
0.0,Kuala Lumpur,Kuala Lumpur,50200,1
2353.4913575377423,Johor Bahru,Johor,81100,0
267.0529812116571,Petaling Jaya,Selangor,46200,1
364.973607196321,Seremban,Negeri Sembilan,70000,1
847.0424040027273,Perai,Penang,13600,0
903.0996611597178,Kuala Lumpur,Kuala Lumpur,51000,0
1432.637445854913,Kuala Lumpur,Kuala Lumpur,55100,0
962.4817628442404,Johor Bahru,Johor,81100,0
899.4307208420399,Kuala Lumpur,Kuala Lumpur,51200,0
714.1112346350324,Kuala Lumpur,Kuala Lumpur,60000,0
1441.781714124392,Klang,Selangor,42100,0
382.8047038179376,Alor Setar,Kedah,5050,1
116.84002264724946,Georgetown,Penang,10350,1
328.154688402874,Klang,Selangor,41150,1
184.1022122219544,Kuala Lumpur,Kuala Lumpur,50300,1
429.51784535977714,Kuala Lumpur,Kuala Lumpur,50000,1
976.1671826967214,Klang,Selangor,41100,0
1270.5416673780117,Kuala Lumpur,Kuala Lumpur,52100,0
3054.660682286288,Petaling Jaya,Selangor,47301,0
366.8102816574833,Kuala Lumpur,Kuala Lumpur,50470,1
1389.4445400906404,Johor Bahru,Johor,81200,0
1664.7173533597374,Puchong,Selangor,47100,0
1868.0507067386388,Ipoh,Perak,30010,0
189.02156207826303,Limbang,Sarawak,98700,1
584.1903968626548,Taiping,Perak,34000,0
1796.5139213847458,Johor Bahru,Johor,80350,0
1646.3210937129602,Ipoh,Perak,30300,0
812.2410709545194,Klang,Selangor,41150,0
1165.9596620217906,Subang Jaya,Selangor,46150,0
506.9126923605896,Ipoh,Perak,31400,0
53.34292337813133,Kuala Terengganu,Terengganu,20200,1
214.5774264975726,Kuala Lumpur,Kuala Lumpur,50350,1
170.4442522409658,Kuala Lumpur,Kuala Lumpur,59100,1
1204.0734001228589,Kuala Lumpur,Kuala Lumpur,51200,0
262.86652721780973,Kuala Lumpur,Kuala Lumpur,55100,1
1762.836171750431,Kuala Lumpur,Kuala Lumpur,53300,0
793.0393506438462,Petaling Jaya,Selangor,46000,0
466.51517377770153,Kuala Lumpur,Kuala Lumpur,55000,1
1567.7604697744002,Ipoh,Perak,30010,0
2674.9624431666853,Subang Jaya,Selangor,47620,0
520.1424264210393,Kuala Lumpur,Kuala Lumpur,50470,0
146.0023168099149,Petaling Jaya,Selangor,46200,1
705.8052346827783,Seremban,Negeri Sembilan,70400,0
1656.6849474179385,Petaling Jaya,Selangor,46300,0
762.9759509650384,Ipoh,Perak,31400,0
245.7478057775737,Kuala Lumpur,Kuala Lumpur,50100,1
854.046994406732,Johor Bahru,Johor,80350,0
721.0823227866802,Kuala Lumpur,Kuala Lumpur,60000,0
1090.092056348359,Petaling Jaya,Selangor,47301,0
1865.588406204937,Temerloh,Pahang,28000,0
213.68657658880937,Kuala Lumpur,Kuala Lumpur,50200,1
0.0,Petaling Jaya,Selangor,47500,1
1233.737424183613,Klang,Selangor,41400,0
379.6955239701808,Kuala Lumpur,Kuala Lumpur,56000,1
217.2811556893505,Kuala Lumpur,Kuala Lumpur,50150,1
201.35029964489863,Sepang,Selangor,43900,1
455.9100332294836,Kuching,Sarawak,93400,1
371.1080271650324,Kuching,Sarawak,93100,1
2215.437999360196,Kajang,Selangor,43000,0
0.0,Kuching,Sarawak,93150,1
1926.2860475697607,Ipoh,Perak,30300,0
22182.962824051472,Kota Tinggi,Johor,81900,0
2786.7642297814937,Subang Jaya,Selangor,47620,0
1485.2473853703727,Petaling Jaya,Selangor,46150,0
419.7053985208255,Kuala Lumpur,Kuala Lumpur,54100,1
55.86183326866704,Petaling Jaya,Selangor,46200,1
1439.4789151973257,Kuala Lumpur,Kuala Lumpur,55100,0
1414.142391103936,Kuala Lumpur,Kuala Lumpur,52200,0
2719.304432747624,Subang Jaya,Selangor,47620,0
105.73526474319884,Kuching,Sarawak,93200,1
639.2611925065598,Kuala Lumpur,Kuala Lumpur,50470,0
553.3586919682855,Kuala Lumpur,Kuala Lumpur,56000,0
232.38117917043647,Kuala Lumpur,Kuala Lumpur,50350,1
353.8226759655297,Kuala Lumpur,Kuala Lumpur,50300,1
1573.2427068524137,Kota Kinabalu,Sabah,88000,0
580.2334440378208,Kuching,Sarawak,93450,0
483.4037480222692,Kuala Lumpur,Kuala Lumpur,50150,1
419.7053985208255,Kuala Lumpur,Kuala Lumpur,54100,1
441.22068665070657,Kuching,Sarawak,93350,1
1259.8645100402491,Kuala Lumpur,Kuala Lumpur,53300,0
656.8220045181135,Klang,Selangor,41000,0
983.8659088954388,Klang,Selangor,41400,0
406.1056181058304,Kuala Lumpur,Kuala Lumpur,53200,1
148.68839226742645,Sibu,Sarawak,96000,1
686.7677951481849,Ipoh,Perak,30010,0
356.26791671903413,Kuantan,Pahang,25000,1
1610.742508843396,Johor Bahru,Johor,81100,0
1027.1896648360832,Johor Bahru,Johor,80250,0
2041.0409635712315,Johor Bahru,Johor,81300,0
267.69606144165925,Johor Bahru,Johor,81100,1
922.90108666016,Perai,Penang,13700,0
681.8647114122302,Kuala Lumpur,Kuala Lumpur,55100,0
440.0343489216392,Johor Bahru,Johor,80000,1
1765.158455702555,Kuala Lumpur,Kuala Lumpur,58200,0
1286.1941835258026,Kuala Lumpur,Kuala Lumpur,55200,0
2923.770108664987,Ipoh,Perak,31400,0
1440.73319064136,Kuala Lumpur,Kuala Lumpur,57100,0
1061.4102109197047,Petaling Jaya,Selangor,46050,0
1649.963964073752,Petaling Jaya,Selangor,46050,0
1208.187727990078,Johor Bahru,Johor,81100,0
184.30266972968136,Seri Kembangan,Selangor,43300,1
489.52782904380206,Kuala Lumpur,Kuala Lumpur,68100,1
190.4260550404546,Miri,Sarawak,98000,1
383.4670809616673,Miri,Sarawak,98000,1
169.71773939701802,Johor Bahru,Johor,81100,1
1267.2715581684524,Johor Bahru,Johor,80400,0
461.888953712645,Kuantan,Pahang,25100,1
403.4235534951816,Ipoh,Perak,31400,1
1210.145731605589,Kuala Lumpur,Kuala Lumpur,53000,0
1040.968496411468,Kajang,Selangor,43000,0
1358.5164234094811,Kuala Lumpur,Kuala Lumpur,55200,0
1008.4830009307708,Puchong,Selangor,47100,0
1799.4722811475715,Petaling Jaya,Selangor,47301,0
1811.3571903304544,Kuala Lumpur,Kuala Lumpur,56100,0
721.0487117023271,Melaka,Melaka,75300,0
1277.0587127660872,Kuala Lumpur,Kuala Lumpur,56100,0
606.5613745987719,Johor Bahru,Johor,81100,0
1806.261806295322,Kuala Lumpur,Kuala Lumpur,50480,0
62.30420789066097,Perai,Penang,13700,1
380.0452399789853,Ipoh,Perak,31650,1
76.975933198951,Kuala Lumpur,Kuala Lumpur,50400,1
2403.675487043851,Kota Bharu,Kelantan,15000,0
1188.2894237087316,Mlk,Melaka,76400,0
237.96035625897147,Klang,Selangor,41300,1
1353.236763844776,Johor Bahru,Johor,81200,0
1413.4581568555786,Seremban,Negeri Sembilan,70100,0
1519.5035350224505,Petaling Jaya,Selangor,46000,0
991.9236799696164,Petaling Jaya,Selangor,46400,0
486.0048405079849,Petaling Jaya,Selangor,46100,1
1683.7018074962195,Kuala Lumpur,Kuala Lumpur,50480,0
126.13764229814872,Kuala Lumpur,Kuala Lumpur,50100,1
289.6989330952846,Kuala Lumpur,Kuala Lumpur,56000,1
1498.3896231255908,Kota Kinabalu,Sabah,88000,0
1277.0587127660872,Kuala Lumpur,Kuala Lumpur,56100,0
1275.184772664409,Kuala Lumpur,Kuala Lumpur,52200,0
2926.1276386488043,Petaling Jaya,Selangor,47620,0
2237.9151215813777,Ipoh,Perak,30250,0
886.3346642438673,Petaling Jaya,Selangor,46000,0
1469.1387566206754,Kuala Lumpur,Kuala Lumpur,58200,0
1587.380451530987,Kuala Lumpur,Kuala Lumpur,56100,0
267.69606144165925,Johor Bahru,Johor,81100,1
1286.1941835258026,Kuala Lumpur,Kuala Lumpur,55200,0
1382.4900255524346,Johor Bahru,Johor,81200,0
656.8220045181135,Klang,Selangor,41000,0
548.6792429489658,Puchong,Selangor,47100,0
507.9330042548892,Perai,Penang,13700,0
902.644010630184,Kuala Lumpur,Kuala Lumpur,55100,0
542.3738343578876,Johor Bahru,Johor,80000,0
1413.4581568555786,Seremban,Negeri Sembilan,70100,0
411.92697749302783,Kuching,Sarawak,93250,1
700.5027199922471,Ipoh,Perak,30300,0
586.7080585313931,Johor Bahru,Johor,80000,0
366.8102816574833,Kuala Lumpur,Kuala Lumpur,50470,1
2839.333308404411,Petaling Jaya,Selangor,47810,0
1051.72159291027,Kuala Lumpur,Kuala Lumpur,56000,0
196.0090258542604,Kuala Lumpur,Kuala Lumpur,51200,1
184.1022122219544,Kuala Lumpur,Kuala Lumpur,50300,1
0.0,Kuala Lumpur,Kuala Lumpur,50350,1
1580.210008789113,Kuala Lumpur,Kuala Lumpur,58200,0
954.2148781534412,Ipoh,Perak,31350,0
556.8152491282215,Kuala Lumpur,Kuala Lumpur,60000,0
635.1258468502831,Ipoh,Perak,31400,0
685.8539715736259,Klang,Selangor,53100,0
587.8381838589501,Alor Setar,Kedah,5100,0
1044.9202232117902,Klang,Selangor,41200,0
1040.6627171562725,Kuala Lumpur,Kuala Lumpur,52100,0
2739.61952728339,Shah Alam,Selangor,40100,0
1567.7604697744002,Ipoh,Perak,30010,0
469.8327658103372,Kajang,Selangor,43000,1
1712.181766676886,Subang Jaya,Selangor,47610,0
371.1080271650324,Kuching,Sarawak,93100,1
954.2148781534412,Ipoh,Perak,31350,0
514.2095094022494,Johor Bahru,Johor,81100,0
1085.8152681682798,Johor Bahru,Johor,81300,0
641.7100833792032,Johor Bahru,Johor,80300,0
267.69606144165925,Johor Bahru,Johor,81100,1
984.7463479752944,Johor Bahru,Johor,81200,0
1320.631566312862,Johor Bahru,Johor,81200,0
292.7719378312854,Petaling Jaya,Selangor,47400,1
2109.193194120573,Johor Bahru,Johor,81300,0
55.86183326866704,Petaling Jaya,Selangor,46200,1
2281.363924080816,Subang Jaya,Selangor,47610,0
170.4239650204186,Petaling Jaya,Selangor,46040,1
1382.4900255524346,Johor Bahru,Johor,81200,0
616.1709267885323,Klang,Selangor,42000,0
1520.144092396916,Seremban,Negeri Sembilan,70450,0
953.3151390981462,Sungai Petani,Kedah,8000,0
309.51398726772027,Johor Bahru,Johor,81100,1
1260.9722445253724,Ipoh,Perak,30020,0
2135.7066833992085,Kajang,Selangor,43000,0
1027.1896648360832,Johor Bahru,Johor,80250,0
429.51784535977714,Kuala Lumpur,Kuala Lumpur,50000,1
542.3738343578876,Johor Bahru,Johor,80000,0
538.3192765076564,Bayan Lepas,Penang,11900,0
1487.6221912669012,Petaling Jaya,Selangor,47400,0
4423.923694798833,Johor Bahru,Johor,81750,0
146.0023168099149,Petaling Jaya,Selangor,46200,1
269.5687422766618,Kuala Lumpur,Kuala Lumpur,51200,1
2002.7897354995305,Johor Bahru,Johor,81200,0
476.8594678042225,Petaling Jaya,Selangor,47301,1
120.28652523726572,Petaling Jaya,Selangor,46200,1
2600.511506052681,Johor Bahru,Johor,81100,0
1383.884098863428,Petaling Jaya,Selangor,46400,0
1520.144092396916,Seremban,Negeri Sembilan,70450,0
225.29687248115343,Teluk Intan,Perak,36000,1
1486.659659688362,Kuala Lumpur,Kuala Lumpur,50050,0
503.8113962553187,Kuala Lumpur,Kuala Lumpur,50300,0
1188.2894237087316,Mlk,Melaka,76400,0
850.5431159508483,Batu Caves,Selangor,68100,0
76.975933198951,Kuala Lumpur,Kuala Lumpur,50050,1
141.58843851901574,Lintang Angsana,Selangor,11500,1
751.2935338803175,Kuala Lumpur,Kuala Lumpur,51200,0
1044.9202232117902,Klang,Selangor,41200,0
1198.1650279523053,Petaling Jaya,Selangor,47800,0
1286.1941835258026,Kuala Lumpur,Kuala Lumpur,55200,0
1596.4099514572176,Ipoh,Perak,30300,0
579.0804869627192,Klang,Selangor,41000,0
429.51784535977714,Kuala Lumpur,Kuala Lumpur,50000,1
1358.9953546300392,Klang,Selangor,42100,0
562.6227983744477,Johor Bahru,Johor,80000,0
440.0343489216392,Johor Bahru,Johor,80000,1
370.4202521978357,Ipoh,Perak,31300,1
0.0,Kuching,Sarawak,93400,1
1270.623669479205,Kuala Lumpur,Kuala Lumpur,53300,0
611.5219663637872,Seremban,Negeri Sembilan,70000,0
1163.258707598288,Johor Bahru,Johor,81100,0
1030.8121552970847,Seremban,Negeri Sembilan,70100,0
1618.9113021167427,Johor Bahru,Johor,81100,0
254.8611369302442,Seremban,Negeri Sembilan,70000,1
1286.1941835258026,Kuala Lumpur,Kuala Lumpur,55200,0
796.7250248653133,Kuala Lumpur,Kuala Lumpur,50450,0
2414.958039458644,Kota Bharu,Kelantan,15000,0
1599.6033742970726,Johor Bahru,Johor,81100,0
914.1726417005264,Klang,Selangor,41300,0
722.0630500993951,Kuala Lumpur,Kuala Lumpur,55200,0
339.9637754155882,Kuching,Sarawak,93300,1
134.516720505778,Kuala Lumpur,Kuala Lumpur,56100,1
1806.261806295322,Kuala Lumpur,Kuala Lumpur,50480,0
1530.909623599421,Johor Bahru,Johor,81100,0
489.02594466653954,Klang,Selangor,41000,1
553.6834157496247,Kuala Lumpur,Kuala Lumpur,53200,0
104.5039822611221,Petaling Jaya,Selangor,47400,1
129.3995550545443,Perai,Penang,13700,1
419.7053985208255,Kuala Lumpur,Kuala Lumpur,54100,1
1286.1941835258026,Kuala Lumpur,Kuala Lumpur,55200,0
1246.5859049598023,Kuala Lumpur,Kuala Lumpur,55100,0
904.6570925100868,Johor Bahru,Johor,80200,0
1264.5998344985055,Kuala Lumpur,Kuala Lumpur,52100,0
806.2662081902865,Petaling Jaya,Selangor,47301,0
549.5052903257679,Kuala Lumpur,Kuala Lumpur,50480,0
2002.7897354995305,Johor Bahru,Johor,81200,0
1105.4076700921703,Kuala Lumpur,Kuala Lumpur,53200,0
933.251596632496,Kuala Lumpur,Kuala Lumpur,58000,0
3272.5507280116776,Johor Bahru,Johor,79100,0
366.8102816574833,Kuala Lumpur,Kuala Lumpur,50470,1
566.589730171668,Melaka,Melaka,75050,0
181.9424066769301,Kuala Lumpur,Kuala Lumpur,59100,1
801.6487625979476,Klang,Selangor,42000,0
1771.826681597467,Kuala Lumpur,Kuala Lumpur,57100,0
1039.1512037528116,Batu Caves,Selangor,68100,0
925.1118909006344,Klang,Selangor,41100,0
4083.785250948831,Subang Jaya,Selangor,47500,0
379.2079148787194,Johor Bahru,Johor,81100,1
563.9804100254437,Seremban,Negeri Sembilan,70000,0
1387.702045475558,Seremban,Negeri Sembilan,70100,0
1120.8420799325484,Seremban,Negeri Sembilan,70300,0
366.8102816574833,Kuala Lumpur,Kuala Lumpur,50470,1
766.5373588864868,Ipoh,Perak,30200,0
621.7996107212005,Kajang,Selangor,43000,0
929.3135897282092,Kuala Lumpur,Kuala Lumpur,51200,0
1445.3567259053473,Ipoh,Perak,30200,0
427.4126777860662,Kuala Lumpur,Kuala Lumpur,55000,1
3002.4431336919333,Klang,Selangor,42000,0
2442.681179125068,Johor Bahru,Johor,81100,0
594.1581582267407,Johor Bahru,Johor,80000,0
419.7053985208255,Kuala Lumpur,Kuala Lumpur,54100,1
580.2334440378208,Kuching,Sarawak,93450,0
1567.7604697744002,Ipoh,Perak,30010,0
500.2032218763907,Johor Bahru,Johor,80000,0
5271.423633083766,Lumut,Perak,32000,0
462.6763073614719,Johor Bahru,Johor,80250,1
182.406319042514,Johor Bahru,Johor,81100,1
371.1080271650324,Kuching,Sarawak,93100,1
553.3586919682855,Kuala Lumpur,Kuala Lumpur,56000,0
1025.5664961783689,Kuala Lumpur,Kuala Lumpur,50470,0
133.68544831678645,Johor Bahru,Johor,81200,1
337.86067330454455,Sungai Buloh,Selangor,47000,1
1371.103593424558,Petaling Jaya,Selangor,46300,0
288.2715665599914,Johor Bahru,Johor,81200,1
1095.1588069081106,Penang,Penang,11200,0
866.2852887260792,Klang,Selangor,53300,0
1363.3107753251254,Ipoh,Perak,31400,0
27.00001650848456,Kajang,Selangor,43000,1
1413.4581568555786,Seremban,Negeri Sembilan,70100,0
472.8268220665131,Klang,Selangor,41400,1
741.9857985765088,Kuala Lumpur,Kuala Lumpur,50470,0
355.43854651246994,Puchong,Selangor,47100,1
1101.375412120486,Klang,Selangor,53300,0
587.3831688997113,Johor Bahru,Johor,81100,0
687.4356808466003,Kuala Lumpur,Kuala Lumpur,51200,0
1599.6033742970726,Johor Bahru,Johor,81100,0
246.1778857651032,Kuala Lumpur,Kuala Lumpur,51200,1
942.650138749408,Johor Bahru,Johor,81200,0
459.4404158035969,Petaling Jaya,Selangor,47800,1
494.5343676364404,Kuala Lumpur,Kuala Lumpur,52000,1
1947.476449379006,Puchong,Selangor,47100,0
341.64906103121893,Ampang,Selangor,68000,1
369.36169356431634,Kuala Lumpur,Kuala Lumpur,50450,1
1610.742508843396,Johor Bahru,Johor,81100,0
338.04896339802326,Kuala Lumpur,Kuala Lumpur,51000,1
198.0764685437857,Kuala Lumpur,Kuala Lumpur,50100,1
1679.4132569542464,Kuala Lumpur,Kuala Lumpur,56100,0
433.1103526047584,Kuala Lumpur,Kuala Lumpur,50000,1
371.1080271650324,Kuching,Sarawak,93100,1
2182.4906417850634,Kulim,Kedah,9000,0
451.6162608806201,Jalan Hang Tuah,Melaka,75300,1
2506.2011701066426,Puchong,Selangor,47100,0
779.1063670495237,Kuala Lumpur,Kuala Lumpur,53200,0
1505.5949262973925,Kubang Semang,Penang,14400,0
1183.5566781059442,Ipoh,Perak,31350,0
1054.2088451452005,Petaling Jaya,Selangor,47301,0
48.66134684295177,Kuala Lumpur,Kuala Lumpur,50450,1
0.0,Kuching,Sarawak,93400,1
472.2845247703142,Kuala Lumpur,Kuala Lumpur,50000,1
49.68736995483607,Kuala Lumpur,Kuala Lumpur,51200,1
2501.965009638709,Johor Bahru,Johor,81300,0
684.6606506169089,Ipoh,Perak,30100,0
697.4619863639105,Klang,Selangor,53100,0
1762.836171750431,Kuala Lumpur,Kuala Lumpur,53300,0
1124.9453748460148,Johor Bahru,Johor,80400,0
336.8877244031253,Kuala Lumpur,Kuala Lumpur,50400,1
1194.906233097366,Johor Bahru,Johor,81200,0
1580.210008789113,Kuala Lumpur,Kuala Lumpur,58200,0
2032.8173053790613,Kuala Lumpur,Kuala Lumpur,56000,0
133.68544831678645,Johor Bahru,Johor,81200,1
335.78908918052474,Kuala Lumpur,Kuala Lumpur,54200,1
2146.620913428364,Kuala Lumpur,Kuala Lumpur,55200,0
246.1778857651032,Kuala Lumpur,Kuala Lumpur,51200,1
1033.339567412629,Kuala Lumpur,Kuala Lumpur,68100,0
1534.1676690252973,Petaling Jaya,Selangor,46050,0
451.9461882652306,Petaling Jaya,Selangor,46200,1
1657.9725394402749,Ipoh,Perak,30010,0
146.0023168099149,Petaling Jaya,Selangor,46200,1
661.7514189445758,Johor Bahru,Johor,81200,0
105.7631105997586,Kuala Lumpur,Kuala Lumpur,51200,1
2926.1276386488043,Petaling Jaya,Selangor,47620,0
267.69606144165925,Johor Bahru,Johor,81100,1
587.3831688997113,Johor Bahru,Johor,81100,0
1628.5297965215063,Kuala Lumpur,Kuala Lumpur,52100,0
514.2095094022494,Johor Bahru,Johor,81100,0
1294.7633385885752,Petaling Jaya,Selangor,47500,0
1184.6564082666098,Ipoh,Perak,30450,0
715.4084438657386,Petaling Jaya,Selangor,46000,0
217.5114873030641,Kuala Lumpur,Kuala Lumpur,50400,1
142.15736043470045,Johor Bahru,Johor,81100,1
685.8539715736259,Klang,Selangor,53100,0
1679.4132569542464,Kuala Lumpur,Kuala Lumpur,56100,0
243.06988338816723,Johor Bahru,Johor,81100,1
292.3218772978137,Johor Bahru,Johor,81100,1
1210.145731605589,Kuala Lumpur,Kuala Lumpur,53000,0
1403.0173836457975,Kuala Lumpur,Kuala Lumpur,58200,0
500.25921012097416,Klang,Selangor,41050,0
781.8857315596131,Kuala Lumpur,Kuala Lumpur,51200,0
1864.2500493576565,Kota Kinabalu,Sabah,88813,0
810.544325658241,Johor Bahru,Johor,81300,0
451.6162608806201,Jalan Hang Tuah,Melaka,75300,1
2269.3189228705696,Cukai,Terengganu,24000,0
0.0,Kuching,Sarawak,93150,1
2281.363924080816,Subang Jaya,Selangor,47610,0
469.8327658103372,Kajang,Selangor,43000,1
1075.4541354225355,Kajang,Selangor,43000,0
933.9226719588694,Johor Bahru,Johor,81200,0
347.36776233225896,W,Labuan,87000,1
1591.0815265310569,Kuala Lumpur,Kuala Lumpur,53100,0
532.1752754617546,Johor Bahru,Johor,80350,0
800.985990948334,Kuala Lumpur,Kuala Lumpur,60000,0
2923.770108664987,Ipoh,Perak,31400,0
783.4687246646863,Jalan Pauh Indah,Penang,13500,0
682.8820505186666,Johor Bahru,Johor,81100,0
356.98366437816173,Sungai Buloh,Selangor,47000,1
389.20008837948126,Klang,Selangor,41200,1
1741.1372916630569,Shah Alam,Selangor,40460,0
486.0048405079849,Petaling Jaya,Selangor,46100,1
0.0,Johor Bahru,Johor,81100,1
957.7957685193932,Subang Jaya,Selangor,46150,0
413.62416162364735,Klang,Selangor,68100,1
1745.0028730431186,Ipoh,Perak,31400,0
2002.7897354995305,Johor Bahru,Johor,81200,0
356.0248439150968,Kuala Lumpur,Kuala Lumpur,50470,1
903.0996611597178,Kuala Lumpur,Kuala Lumpur,51000,0
227.86334758520871,Kuala Lumpur,Kuala Lumpur,50350,1
273.8041817761845,Kepala Batas,Penang,13200,1
245.7478057775737,Kuala Lumpur,Kuala Lumpur,50100,1
966.4560896268872,Johor Bahru,Johor,80250,0
1771.826681597467,Kuala Lumpur,Kuala Lumpur,50910,0
4423.923694798833,Johor Bahru,Johor,81750,0
1175.7453823911617,Klang,Selangor,53100,0
1933.6919880687983,Johor Bahru,Johor,81100,0
1069.0213303858857,Kuala Lumpur,Kuala Lumpur,55100,0
433.3894575772429,Ampang,Selangor,68000,1
1926.2860475697607,Ipoh,Perak,30300,0
2888.7862271530435,Johor Bahru,Johor,80000,0
969.3821353992486,Kuala Lumpur,Kuala Lumpur,50400,0
1599.6033742970726,Johor Bahru,Johor,81100,0
435.7577724017706,Klang,Selangor,45800,1
826.3519249610115,Kuala Lumpur,Kuala Lumpur,50470,0
4083.785250948831,Petaling Jaya,Selangor,47500,0
18.1963589598036,Kuching,Sarawak,93450,1
850.5431159508483,Batu Caves,Selangor,68100,0
419.7053985208255,Kuala Lumpur,Kuala Lumpur,54100,1
1315.8244778259418,Kuala Lumpur,Kuala Lumpur,52200,0
230.48732942811927,Kuala Lumpur,Kuala Lumpur,53000,1
796.6004745722207,Kuala Lumpur,Kuala Lumpur,55100,0
500.25921012097416,Klang,Selangor,41200,0
624.4239987616259,Kuala Lumpur,Kuala Lumpur,51200,0
245.7478057775737,Kuala Lumpur,Kuala Lumpur,50100,1
1055.8993739233272,Ipoh,Perak,31350,0
544.9338463555501,Kuala Lumpur,Kuala Lumpur,51200,0
1477.0676076917175,Kuala Lumpur,Kuala Lumpur,53300,0
321.00282928354727,Kota Kinabalu,Sabah,88450,1
1591.1057060302574,Kuala Lumpur,Kuala Lumpur,50628,0
339.48591618566724,Kuala Lumpur,Kuala Lumpur,59100,1
313.6615223250307,Kuching,Sarawak,93150,1
290.98845467129485,Ampang,Selangor,68000,1
471.0847948254288,Perai,Penang,13600,1
622.3794509324474,Ipoh,Perak,31400,0
1679.4132569542464,Kuala Lumpur,Kuala Lumpur,56100,0
590.6441138064156,Kuala Lumpur,Kuala Lumpur,50480,0
297.1871726961101,Miri,Sarawak,98000,1
1259.8645100402491,Kuala Lumpur,Kuala Lumpur,53300,0
850.5431159508483,Batu Caves,Selangor,68100,0
2520.5596988077928,Johor Bahru,Johor,81100,0
0.0,Kuala Lumpur,Kuala Lumpur,50200,1
441.22068665070657,Kuching,Sarawak,93350,1
56.4483736353325,Kuala Lumpur,Kuala Lumpur,50100,1
209.9615344119497,Kuala Lumpur,Kuala Lumpur,59100,1
514.2095094022494,Johor Bahru,Johor,81100,0
1444.548376761719,Kuala Terengganu,Terengganu,21100,0
240.64981153376505,Kuching,Sarawak,93100,1
244.97442964239104,Klang,Selangor,42450,1
666.8317160073539,Klang,Selangor,42000,0
353.75034788856067,Kuching,Sarawak,93100,1
246.12276269759164,Kuantan,Pahang,25000,1
288.2715665599914,Johor Bahru,Johor,81200,1
1151.6540746754365,Batu Caves,Selangor,68100,0
1373.7035683334243,Johor Bahru,Johor,81100,0
1182.5131134661644,Klang,Selangor,41150,0
639.9451320714994,Ipoh,Perak,31400,0
232.07479256713992,Kuching,Sarawak,93250,1
389.20008837948126,Klang,Selangor,41200,1
320.88936231123654,Seremban,Negeri Sembilan,70200,1
292.7719378312854,Petaling Jaya,Selangor,47400,1
2192.1910644115083,Petaling Jaya,Selangor,46050,0
1432.637445854913,Kuala Lumpur,Kuala Lumpur,55100,0
0.0,Kuala Lumpur,Kuala Lumpur,50200,1
1525.8280038682217,Kuala Lumpur,Kuala Lumpur,52200,0
611.5219663637872,Seremban,Negeri Sembilan,70000,0
0.0,Kuala Lumpur,Kuala Lumpur,50000,1
285.302801341441,Kuala Lumpur,Kuala Lumpur,58100,1
427.3367914687687,Ipoh,Perak,30450,1
238.31361002581264,Johor Bahru,Johor,80150,1
1947.476449379006,Puchong,Selangor,47100,0
1210.145731605589,Kuala Lumpur,Kuala Lumpur,53000,0
366.8102816574833,Kuala Lumpur,Kuala Lumpur,50470,1
3467.472095427708,Kuala Terengganu,Terengganu,21080,0
1267.2715581684524,Johor Bahru,Johor,80400,0
1319.7749457935276,Ipoh,Perak,31350,0
489.52782904380206,Kuala Lumpur,Kuala Lumpur,68100,1
220.45091551894905,Kajang,Selangor,43000,1
0.0,Kajang,Selangor,43000,1
1731.245840792204,Petaling Jaya,Selangor,47810,0
1056.8502844811728,Kuala Lumpur,Kuala Lumpur,58100,0
165.06704511696157,Kuala Lumpur,Kuala Lumpur,56100,1
1242.77423401303,Petaling Jaya,Selangor,46150,0
134.24518102853577,Kuala Lumpur,Kuala Lumpur,59000,1
973.4079632620646,Kuala Lumpur,Kuala Lumpur,50480,0
1999.0257567217536,Ipoh,Perak,31350,0
2564.513564022031,Subang Jaya,Selangor,47620,0
406.4296194387432,Kota Kinabalu,Sabah,88300,1
98.61528815791574,Kajang,Selangor,43000,1
170.4442522409658,Kuala Lumpur,Kuala Lumpur,59100,1
575.3737094320943,Seremban,Negeri Sembilan,70000,0
1676.8943806213815,Ipoh,Perak,31400,0
735.0207873710056,Kuala Lumpur,Kuala Lumpur,55100,0
775.2805332131976,Puchong,Selangor,47100,0
2594.517018373306,Kuala Lumpur,Kuala Lumpur,50490,0
715.4084438657386,Petaling Jaya,Selangor,46000,0
2024.4419030647728,Ipoh,Perak,31400,0
750.8164045641539,Puchong,Selangor,47100,0
815.2366849804567,Kuala Lumpur,Kuala Lumpur,50470,0
1461.048824261493,Bandar Baru Bangi,Selangor,43650,0
361.9309006993951,Bandar Melaka,Melaka,75000,1
356.13975639766795,Ipoh,Perak,31400,1
692.6253917337787,Kuala Lumpur,Kuala Lumpur,60000,0
193.4999649275373,Kuala Lumpur,Kuala Lumpur,57000,1
588.2984500268119,Kuala Lumpur,Kuala Lumpur,59100,0
1449.774885552744,Klang,Selangor,26326,0
133.68544831678645,Johor Bahru,Johor,81200,1
580.2334440378208,Kuching,Sarawak,93450,0
417.863387912305,Mlk,Melaka,75000,1
793.0393506438462,Petaling Jaya,Selangor,46000,0
1701.7123499684533,Johor Bahru,Johor,81200,0
1294.7633385885752,Subang Jaya,Selangor,47500,0
93.52453384451417,Cheras,Selangor,43200,1
0.0,Petaling Jaya,Selangor,47300,1
773.4567679986224,Johor Bahru,Johor,81200,0
453.8492087560995,Penang,Penang,10000,1
356.13975639766795,Ipoh,Perak,31400,1
1769.6773989594635,Seremban,Negeri Sembilan,70200,0
857.1071013935042,Ulu Tiram,Johor,81800,0
328.37671813693134,Johor Bahru,Johor,81100,1
2080.2808551027592,Kuala Lumpur,Kuala Lumpur,56000,0
814.7820722732241,Kuala Terengganu,Terengganu,20100,0
1562.467148242425,Ipoh,Perak,30020,0
409.0531384649654,Seremban,Negeri Sembilan,70200,1
190.4260550404546,Miri,Sarawak,98000,1
902.644010630184,Kuala Lumpur,Kuala Lumpur,55100,0
536.3580033582659,Petaling Jaya,Selangor,46100,0
988.9103564323824,Petaling Jaya,Selangor,46000,0
1520.144092396916,Seremban,Negeri Sembilan,70450,0
905.1244428571264,Petaling Jaya,Selangor,46400,0
1414.142391103936,Kuala Lumpur,Kuala Lumpur,52200,0
247.63336529860345,Kuala Lumpur,Kuala Lumpur,53100,1
294.19873880157013,Kuching,Sarawak,93400,1
1294.7633385885752,Subang Jaya,Selangor,47500,0
1926.2860475697607,Ipoh,Perak,30300,0
833.0596779315887,Klang,Selangor,41200,0
1051.72159291027,Kuala Lumpur,Kuala Lumpur,56000,0
1363.3107753251254,Ipoh,Perak,31400,0
1784.168778604862,Kuala Lumpur,Kuala Lumpur,53000,0
366.306881404956,Kuala Lumpur,Kuala Lumpur,50250,1
1319.2871092413338,Kota Tinggi,Johor,81960,0
1865.588406204937,Temerloh,Pahang,28000,0
170.4442522409658,Kuala Lumpur,Kuala Lumpur,59100,1
1301.0456297463463,Ipoh,Perak,30010,0
1440.6030517291838,Petaling Jaya,Selangor,47301,0
1477.0676076917175,Kuala Lumpur,Kuala Lumpur,53300,0
439.43667585876005,Johor Bahru,Johor,80350,1
1376.822540808015,Kuala Lumpur,Kuala Lumpur,59200,0
1347.0050076070322,Petaling Jaya,Selangor,47301,0
1525.8280038682217,Kuala Lumpur,Kuala Lumpur,52200,0
98.60292139945184,Kuala Lumpur,Kuala Lumpur,50100,1
1406.5646746347147,Johor Bahru,Johor,81200,0
2786.7642297814937,Subang Jaya,Selangor,47620,0
603.4897451303733,Kuala Lumpur,Kuala Lumpur,56000,0
472.9614846291733,Melaka,Melaka,75250,1
366.7237662494566,Klang,Selangor,41000,1
1101.255010050078,Ipoh,Perak,30450,0
277.299668080657,Ipoh,Perak,31400,1
1268.2188009433291,Seri Kembangan,Selangor,43300,0
447.30951076830223,Kuala Lumpur,Kuala Lumpur,51200,1
535.7973660770499,Kuala Lumpur,Kuala Lumpur,50400,0
1701.7123499684533,Johor Bahru,Johor,81200,0
406.7291900937384,Ampang,Selangor,68000,1
661.7514189445758,Johor Bahru,Johor,81200,0
0.0,Kajang,Selangor,43000,1
1492.0795011876326,Petaling Jaya,Selangor,46050,0
451.2095744488619,Kuala Lumpur,Kuala Lumpur,50100,1
1599.6033742970726,Johor Bahru,Johor,81100,0
1286.1941835258026,Kuala Lumpur,Kuala Lumpur,55200,0
0.0,Kuala Lumpur,Kuala Lumpur,50050,1
929.7462686272914,Butterworth,Penang,12000,0
762.9759509650384,Ipoh,Perak,30300,0
1562.467148242425,Ipoh,Perak,30020,0
939.3108037737188,Seremban,Negeri Sembilan,70100,0
689.9984596842116,Klang,Selangor,53100,0
957.7957685193932,Subang Jaya,Selangor,46150,0
2719.304432747624,Subang Jaya,Selangor,47620,0
1057.838042098332,Subang Jaya,Selangor,47650,0
2110.2572330728835,Petaling Jaya,Selangor,47630,0
2342.1180259656235,Johor Bahru,Johor,81100,0
1061.4102109197047,Petaling Jaya,Selangor,46050,0
361.9309006993951,Bandar Melaka,Melaka,75000,1
840.8252718783107,Kuala Lumpur,Kuala Lumpur,53000,0
741.5577915057971,Johor Bahru,Johor,80150,0
635.1258468502831,Ipoh,Perak,31400,0
953.3151390981462,Sungai Petani,Kedah,8000,0
1010.9245581890818,Klang,Selangor,41200,0
1301.0456297463463,Ipoh,Perak,30010,0
1472.5393081696782,Kuala Lumpur,Kuala Lumpur,56000,0
621.4494666446312,Ipoh,Perak,31350,0
1586.6756699072191,Kuala Lumpur,Kuala Lumpur,57100,0
593.9947171583016,Kuala Lumpur,Kuala Lumpur,55100,0
1382.4900255524346,Johor Bahru,Johor,81200,0
537.969173088999,Kuala Lumpur,Kuala Lumpur,53300,0
806.2662081902865,Petaling Jaya,Selangor,47301,0
879.8098740692258,Bayan Lepas,Penang,11900,0
1109.3962538615974,Petaling Jaya,Selangor,46150,0
947.4391817343547,Kuala Lumpur,Kuala Lumpur,56000,0
1413.4581568555786,Seremban,Negeri Sembilan,70100,0
764.6763072828312,Kuala Lumpur,Kuala Lumpur,55100,0
803.3207688587047,Ipoh,Perak,31350,0
4083.785250948831,Petaling Jaya,Selangor,47500,0
1586.6756699072191,Kuala Lumpur,Kuala Lumpur,57100,0
429.51784535977714,Kuala Lumpur,Kuala Lumpur,50000,1
356.13975639766795,Ipoh,Perak,31400,1
2564.513564022031,Subang Jaya,Selangor,47620,0
966.4560896268872,Johor Bahru,Johor,80250,0
536.6328418408759,Petaling Jaya,Selangor,47301,0
1277.1332446530917,Shah Alam,Selangor,40300,0
903.0996611597178,Kuala Lumpur,Kuala Lumpur,51000,0
953.44334055546,Kuala Lumpur,Kuala Lumpur,59100,0
1414.142391103936,Kuala Lumpur,Kuala Lumpur,52200,0
722.0630500993951,Kuala Lumpur,Kuala Lumpur,55200,0
294.19873880157013,Kuching,Sarawak,93400,1
905.1244428571264,Petaling Jaya,Selangor,46400,0
3399.724929850972,Seremban,Negeri Sembilan,70450,0
1067.3638007681527,Subang Jaya,Selangor,47500,0
27.00001650848456,Kajang,Selangor,43000,1
146.0023168099149,Petaling Jaya,Selangor,46200,1
170.4239650204186,Petaling Jaya,Selangor,47430,1
1642.916799961872,Johor Bahru,Johor,81100,0
556.8152491282215,Kuala Lumpur,Kuala Lumpur,60000,0
2271.8430498261982,Ipoh,Perak,31650,0
1520.084193994515,Ipoh,Perak,31350,0
294.19873880157013,Kuching,Sarawak,93400,1
1489.8951024695546,Kuala Lumpur,Kuala Lumpur,56100,0
0.0,Kuala Lumpur,Kuala Lumpur,50350,1
2002.7897354995305,Johor Bahru,Johor,81200,0
670.9852645247355,Klang,Selangor,41000,0
3480.515309806715,Johor Bahru,Johor,81300,0
748.6406468669137,Kuching,Sarawak,93400,0
183.0709543983345,Medan Mutiara,Penang,11900,1
2237.9151215813777,Ipoh,Perak,30250,0
1492.0795011876326,Petaling Jaya,Selangor,46050,0
548.6792429489658,Puchong,Selangor,47100,0
1146.155762149665,Kuala Lumpur,Kuala Lumpur,52000,0
818.1701786212016,Johor Bahru,Johor,80000,0
822.7984886673111,Kuala Lumpur,Kuala Lumpur,60000,0
635.1258468502831,Ipoh,Perak,31400,0
1286.1941835258026,Kuala Lumpur,Kuala Lumpur,55200,0
1784.168778604862,Kuala Lumpur,Kuala Lumpur,53300,0
612.8824073664229,Kuala Lumpur,Kuala Lumpur,51200,0
2444.63622428152,Ipoh,Perak,31650,0
2592.133253681664,Petaling Jaya,Selangor,47600,0
244.79901220623225,Johor Bahru,Johor,80000,1
406.1056181058304,Kuala Lumpur,Kuala Lumpur,53200,1
279.10958493986163,Kuala Lumpur,Kuala Lumpur,50480,1
1413.4581568555786,Seremban,Negeri Sembilan,70100,0
1458.242432873098,Petaling Jaya,Selangor,47400,0
1754.741418147309,Johor Bahru,Johor,81100,0
469.9327498230274,Kuala Lumpur,Kuala Lumpur,51200,1
1415.9278280456513,Johor Bahru,Johor,80350,0
1791.152487715352,Shah Alam,Selangor,40460,0
1487.6221912669012,Petaling Jaya,Selangor,47400,0
1432.637445854913,Kuala Lumpur,Kuala Lumpur,55100,0
112.65082221539744,Kuala Lumpur,Kuala Lumpur,51000,1
929.4873793621178,Kuala Lumpur,Kuala Lumpur,51200,0
2921.2869497032184,Klang,Selangor,41050,0
536.6328418408759,Petaling Jaya,Selangor,47301,0
1510.4808674577944,Petaling Jaya,Selangor,46100,0
1219.177254146043,Petaling Jaya,Selangor,47301,0
1291.775390971621,Petaling Jaya,Selangor,47301,0
3092.325544486725,Subang Jaya,Selangor,47630,0
294.94640413742405,Kuala Lumpur,Kuala Lumpur,54000,1
307.6414850794648,Kuala Lumpur,Kuala Lumpur,50480,1
761.4182899022537,Ipoh,Perak,30020,0
483.4037480222692,Kuala Lumpur,Kuala Lumpur,50150,1
1193.9845942651827,Petaling Jaya,Selangor,47500,0
1432.7925409233076,Johor Bahru,Johor,81100,0
352.19910538910824,Kajang,Selangor,43000,1
954.2148781534412,Ipoh,Perak,31350,0
1283.9678967763457,Cukai,Terengganu,24000,0
1580.210008789113,Kuala Lumpur,Kuala Lumpur,58200,0
523.3942213347145,Kuala Lumpur,Kuala Lumpur,55100,0
1123.6756046097034,Seremban,Negeri Sembilan,70300,0
1810.4264120577952,Kota Bharu,Kelantan,15000,0
899.0506862774344,Kuala Lumpur,Kuala Lumpur,53300,0
412.6432894928871,Klang,Selangor,41100,1
500.25921012097416,Klang,Selangor,41050,0
1587.380451530987,Kuala Lumpur,Kuala Lumpur,56100,0
886.3346642438673,Petaling Jaya,Selangor,46000,0
822.7984886673111,Kuala Lumpur,Kuala Lumpur,60000,0
1676.3683665559586,Petaling Jaya,Selangor,47301,0
1286.1941835258026,Kuala Lumpur,Kuala Lumpur,55200,0
0.0,Kuching,Sarawak,93400,1
858.7727099845516,Klang,Selangor,53100,0
253.9293444743852,Pahang,Pahang,25200,1
4520.027596633644,Ulu Tiram,Johor,17518,0
581.5508849917069,Klang,Selangor,41100,0
624.0211367686649,Kuala Lumpur,Kuala Lumpur,58100,0
888.7079120891303,Johor Bahru,Johor,80400,0
1101.375412120486,Klang,Selangor,53300,0
2397.9877567170483,Johor Bahru,Johor,81100,0
1414.142391103936,Kuala Lumpur,Kuala Lumpur,52200,0
366.8102816574833,Kuala Lumpur,Kuala Lumpur,50470,1
312.2928793873002,Seremban,Negeri Sembilan,70000,1
1391.05275387528,Perai,Penang,13600,0
0.0,Kuala Lumpur,Kuala Lumpur,50200,1
923.4426254589732,Johor Bahru,Johor,80300,0
686.7677951481849,Ipoh,Perak,30010,0
1414.142391103936,Kuala Lumpur,Kuala Lumpur,52200,0
959.8245429020304,Ipoh,Perak,31400,0
752.0985035217852,Ipoh,Perak,30100,0
2237.9151215813777,Ipoh,Perak,30250,0
1157.0081817342948,Ipoh,Perak,30300,0
1366.1229968190555,Klang,Selangor,41200,0
1210.145731605589,Kuala Lumpur,Kuala Lumpur,53000,0
888.7079120891303,Johor Bahru,Johor,80400,0
1131.3612010661636,Kuala Lumpur,Kuala Lumpur,53300,0
1259.5293430870424,Ipoh,Perak,30020,0
983.7162818032964,Kajang,Selangor,43000,0
2123.74396442008,Petaling Jaya,Selangor,47300,0
934.0256843110648,Klang,Selangor,42000,0
781.8857315596131,Kuala Lumpur,Kuala Lumpur,51200,0
573.4899540955265,Kuala Lumpur,Kuala Lumpur,56100,0
1259.8645100402491,Kuala Lumpur,Kuala Lumpur,53300,0
933.251596632496,Kuala Lumpur,Kuala Lumpur,58000,0
2237.9151215813777,Ipoh,Perak,30250,0
277.299668080657,Ipoh,Perak,31400,1
216.49888930514192,Wilayah Persekutuan,Kuala Lumpur,50350,1
606.5613745987719,Johor Bahru,Johor,81100,0
76.975933198951,Kuala Lumpur,Kuala Lumpur,50400,1
1832.050007428545,Kuala Lumpur,Kuala Lumpur,52100,0
826.623204231156,Kuala Lumpur,Kuala Lumpur,50480,0
769.8259320044115,Kuala Lumpur,Kuala Lumpur,55200,0
121.51236776304762,Kuala Lumpur,Kuala Lumpur,53300,1
1542.630532120466,Johor Bahru,Johor,81200,0
1239.418658788585,Ipoh,Perak,30300,0
107.6663766404764,Kuching,Sarawak,93400,1
652.1729674252011,Kuala Lumpur,Kuala Lumpur,55100,0
496.1340315582063,Kuala Lumpur,Kuala Lumpur,56000,1
119.32312836366916,Seremban,Negeri Sembilan,70000,1
1628.1902353943126,Kuala Lumpur,Kuala Lumpur,53300,0
1362.990397931442,Ipoh,Perak,30300,0
225.29687248115343,Teluk Intan,Perak,36000,1
0.0,Kuala Lumpur,Kuala Lumpur,50000,1
1294.7633385885752,Petaling Jaya,Selangor,47500,0
530.6843032623306,Klang,Selangor,42100,0
1591.0815265310569,Kuala Lumpur,Kuala Lumpur,53100,0
1530.7410425636408,Kuala Lumpur,Kuala Lumpur,50490,0
330.67134133564434,Shah Alam,Selangor,40300,1
1153.1155359242523,Ampang,Selangor,68000,0
556.1474400139821,Petaling Jaya,Selangor,47301,0
902.644010630184,Kuala Lumpur,Kuala Lumpur,55100,0
2066.1369605182103,Seremban,Negeri Sembilan,70300,0
2813.0967720509343,Subang Jaya,Selangor,47620,0
868.6328451717046,Johor Bahru,Johor,81100,0
363.4030248516559,Kota Kinabalu,Sabah,88300,1
563.9804100254437,Seremban,Negeri Sembilan,70200,0
1069.0213303858857,Kuala Lumpur,Kuala Lumpur,55100,0
1101.255010050078,Ipoh,Perak,30450,0
1969.970068446505,Kuala Lumpur,Kuala Lumpur,58200,0
722.0630500993951,Kuala Lumpur,Kuala Lumpur,55200,0
0.0,Kuala Lumpur,Kuala Lumpur,56100,1
1579.7570851509367,Ipoh,Perak,30010,0
485.45417168535664,Kuala Lumpur,Kuala Lumpur,51200,1
1573.2427068524137,Kota Kinabalu,Sabah,88000,0
485.45417168535664,Kuala Lumpur,Kuala Lumpur,51200,1
1330.7459269931912,Johor Bahru,Johor,80100,0
1999.0257567217536,Ipoh,Perak,31350,0
668.7988382341459,Johor Bahru,Johor,80200,0
198.0764685437857,Kuala Lumpur,Kuala Lumpur,50100,1
542.3738343578876,Johor Bahru,Johor,80000,0
580.8973038347436,Johor Bahru,Johor,80050,0
405.97537965832765,Subang Jaya,Selangor,47510,1
781.8600321723643,Petaling Jaya,Selangor,46000,0
134.516720505778,Kuala Lumpur,Kuala Lumpur,56100,1
291.8007828085732,Georgetown,Penang,10050,1
1272.852923823114,Klang,Selangor,40772,0
2237.9151215813777,Ipoh,Perak,30250,0
250.93815627326228,Kuala Lumpur,Kuala Lumpur,50350,1
1043.398679697329,Kuala Lumpur,Kuala Lumpur,50470,0
773.4567679986224,Johor Bahru,Johor,81200,0
1052.6051777443822,Kajang,Selangor,43000,0
1984.5878552318463,Kuala Lumpur,Kuala Lumpur,50480,0
313.6615223250307,Kuching,Sarawak,93150,1
516.3299206121807,Kuala Lumpur,Kuala Lumpur,50470,0
2269.3189228705696,Cukai,Terengganu,24000,0
405.97537965832765,Subang Jaya,Selangor,47500,1
898.4563859868401,Puchong,Selangor,47100,0
643.4585964295866,Kuala Lumpur,Kuala Lumpur,50450,0
471.3421347044776,Johor Bahru,Johor,81200,1
1069.0213303858857,Kuala Lumpur,Kuala Lumpur,55100,0
416.7691423890475,Kuala Lumpur,Kuala Lumpur,50400,1
562.6227983744477,Johor Bahru,Johor,80000,0
2032.8173053790613,Kuala Lumpur,Kuala Lumpur,56000,0
1406.5646746347147,Johor Bahru,Johor,81200,0
1598.5813467134817,Petaling Jaya,Selangor,46050,0
864.8633991655428,Seremban,Negeri Sembilan,70100,0
489.52782904380206,Kuala Lumpur,Kuala Lumpur,68100,1
947.4678203270298,Klang,Selangor,41200,0
833.0596779315887,Klang,Selangor,41200,0
516.3299206121807,Kuala Lumpur,Kuala Lumpur,50470,0
1562.7795702405472,Petaling Jaya,Selangor,46150,0
2146.620913428364,Kuala Lumpur,Kuala Lumpur,55200,0
267.69606144165925,Johor Bahru,Johor,81100,1
933.251596632496,Kuala Lumpur,Kuala Lumpur,58000,0
306.19523227893524,Ampang,Selangor,68000,1
1784.168778604862,Kuala Lumpur,Kuala Lumpur,53300,0
453.8492087560995,Penang,Penang,10000,1
291.42018842564454,Klang,Selangor,42100,1
1870.3413348064728,Ipoh,Perak,30250,0
576.2520801880875,Johor Bahru,Johor,80400,0
2739.61952728339,Shah Alam,Selangor,40100,0
561.3701533901839,Kuala Lumpur,Kuala Lumpur,55100,0
2183.6190285352814,Puchong,Selangor,47100,0
925.1118909006344,Klang,Selangor,41100,0
1759.6627456060182,Ipoh,Perak,31400,0
158.77788618323152,Persiaran Janggus,Penang,14000,1
3399.724929850972,Seremban,Negeri Sembilan,70450,0
3042.5806471515093,Puchong,Selangor,47100,0
840.8252718783107,Kuala Lumpur,Kuala Lumpur,53000,0
202.40316370719287,Ipoh,Perak,30010,1
735.0207873710056,Kuala Lumpur,Kuala Lumpur,55100,0
649.2165006708433,Johor Bahru,Johor,80000,0
794.505579518071,Langkawi,Kedah,7000,0
1739.7430205789271,Kuala Lumpur,Kuala Lumpur,55200,0
1319.7749457935276,Ipoh,Perak,31350,0
1391.05275387528,Perai,Penang,13600,0
785.0880893583748,Johor Bahru,Johor,42965,0
0.0,Kuala Lumpur,Kuala Lumpur,50200,1
1134.322207256042,Petaling Jaya,Selangor,46400,0
721.0487117023271,Melaka,Melaka,75300,0
659.9235910106893,Batu Caves,Selangor,18026,0
1154.6771261715205,Subang Jaya,Selangor,47620,0
866.2852887260792,Klang,Selangor,53300,0
98.61528815791574,Kajang,Selangor,43000,1
356.98366437816173,Sungai Buloh,Selangor,47000,1
1657.2934613593447,Ipoh,Perak,30300,0
1510.4808674577944,Petaling Jaya,Selangor,46100,0
2259.5628199806165,Petaling Jaya,Selangor,46150,0
700.5027199922471,Ipoh,Perak,30300,0
0.0,Kuching,Sarawak,93150,1
1683.6119852929903,Kuala Lumpur,Kuala Lumpur,50608,0
550.5370173014386,Kubang Semang,Penang,14000,0
1580.210008789113,Kuala Lumpur,Kuala Lumpur,58200,0
1868.0507067386388,Ipoh,Perak,30010,0
746.4244849656367,Kuala Lumpur,Kuala Lumpur,52100,0
1061.4102109197047,Petaling Jaya,Selangor,46050,0
364.973607196321,Seremban,Negeri Sembilan,70000,1
975.8199763990012,Kuala Lumpur,Kuala Lumpur,59200,0
1577.5952238336492,Ipoh,Perak,31350,0
1969.030082990435,Kuala Lumpur,Kuala Lumpur,56000,0
520.1424264210393,Kuala Lumpur,Kuala Lumpur,50470,0
180.04180885414365,Johor Bahru,Johor,81200,1
1193.9806139729933,Klang,Selangor,42000,0
616.1709267885323,Klang,Selangor,42000,0
1414.142391103936,Kuala Lumpur,Kuala Lumpur,52200,0
489.52782904380206,Kuala Lumpur,Kuala Lumpur,68100,1
56.4483736353325,Kuala Lumpur,Kuala Lumpur,50100,1
165.5855329325019,Johor Bahru,Johor,81300,1
858.7727099845516,Klang,Selangor,53100,0
528.7647100271383,Ipoh,Perak,31400,0
243.1252308721263,Petaling Jaya,Selangor,47301,1
517.4076267493163,Johor Bahru,Johor,80000,0
632.06398185235,Kuala Lumpur,Kuala Lumpur,50200,0
1635.8818330179108,Shah Alam,Selangor,40170,0
773.4567679986224,Johor Bahru,Johor,81200,0
843.740720191661,Petaling Jaya,Selangor,47630,0
536.3580033582659,Petaling Jaya,Selangor,46100,0
3601.781467429147,Lumut,Perak,32200,0
1416.1076374752147,Johor Bahru,Johor,81200,0
196.0090258542604,Kuala Lumpur,Kuala Lumpur,51200,1
616.1709267885323,Klang,Selangor,42000,0
261.9632001057625,Kuala Lumpur,Kuala Lumpur,57100,1
715.4084438657386,Petaling Jaya,Selangor,46000,0
2926.1276386488043,Petaling Jaya,Selangor,47620,0
552.9648299416691,Johor Bahru,Johor,81200,0
134.24518102853577,Kuala Lumpur,Kuala Lumpur,59000,1
1784.168778604862,Kuala Lumpur,Kuala Lumpur,53000,0
108.21386872941964,Kuching,Sarawak,93400,1
1461.048824261493,Bandar Baru Bangi,Selangor,43650,0
5271.423633083766,Lumut,Perak,32000,0
720.3910241759089,Taiping,Perak,34000,0
294.19873880157013,Kuching,Sarawak,93400,1
1329.9289452232294,Bukit Mertajam,Penang,14000,0
0.0042802300304174,Kuching,Sarawak,93100,1
1413.8617981182672,Johor Bahru,Johor,81100,0
414.3377617529546,Shah Alam,Selangor,40000,1
481.820637520017,Kuching,Sarawak,93300,1
675.9044355322058,Johor Bahru,Johor,80000,0
1051.72159291027,Kuala Lumpur,Kuala Lumpur,56000,0
1021.7453555322114,Petaling Jaya,Selangor,46000,0
744.4382277640826,Kuala Lumpur,Kuala Lumpur,55000,0
494.4768458510591,Johor Bahru,Johor,81200,1
379.2079148787194,Johor Bahru,Johor,81100,1
1136.0994034952787,Ipoh,Perak,31400,0
2509.3500704471685,Malaysia,Johor,81200,0
453.8492087560995,Penang,Penang,10000,1
164.97354271924766,Kuala Lumpur,Kuala Lumpur,55100,1
170.4442522409658,Kuala Lumpur,Kuala Lumpur,59100,1
485.3820661984651,Johor Bahru,Johor,81100,1
2109.193194120573,Johor Bahru,Johor,81300,0
969.3821353992486,Kuala Lumpur,Kuala Lumpur,50400,0
500.25921012097416,Klang,Selangor,41000,0
0.0042802300304174,Kuching,Sarawak,93100,1
1784.168778604862,Kuala Lumpur,Kuala Lumpur,53300,0
1175.7453823911617,Klang,Selangor,53100,0
105.7631105997586,Kuala Lumpur,Kuala Lumpur,51200,1
1571.926866584262,Kuala Lumpur,Kuala Lumpur,57100,0
652.1729674252011,Kuala Lumpur,Kuala Lumpur,55100,0
2099.7233256857185,Petaling Jaya,Selangor,47301,0
579.770562513975,Petaling Jaya,Selangor,46200,0
350.80170584052973,Ampang,Selangor,68000,1
429.51784535977714,Kuala Lumpur,Kuala Lumpur,50000,1
1149.1028336767222,Johor Bahru,Johor,81200,0
806.2662081902865,Petaling Jaya,Selangor,47301,0
353.8226759655297,Kuala Lumpur,Kuala Lumpur,50300,1
1215.7157081763366,Papar,Sabah,89600,0
952.6563935600668,Klang,Selangor,41200,0
371.1080271650324,Kuching,Sarawak,93100,1
1086.109974165865,Butterworth,Penang,12200,0
514.2095094022494,Johor Bahru,Johor,81100,0
1151.530849595727,Johor Bahru,Johor,81100,0
935.3514087257056,Klang,Selangor,41200,0
0.0,Johor Bahru,Johor,80000,1
646.9440740319023,Kuala Lumpur,Kuala Lumpur,50470,0
473.08314446564935,Kuala Lumpur,Kuala Lumpur,52000,1
796.7250248653133,Kuala Lumpur,Kuala Lumpur,50450,0
440.0343489216392,Johor Bahru,Johor,80000,1
1109.6640613421926,Johor Bahru,Johor,81200,0
245.7478057775737,Kuala Lumpur,Kuala Lumpur,50100,1
1525.8280038682217,Kuala Lumpur,Kuala Lumpur,52100,0
966.4560896268872,Johor Bahru,Johor,80250,0
18.1963589598036,Kuching,Sarawak,93450,1
366.8102816574833,Kuala Lumpur,Kuala Lumpur,50470,1
435.94954585548015,Kuching,Sarawak,93400,1
1057.7637285393644,Subang Jaya,Selangor,47500,0
316.8026337579756,Kajang,Selangor,43000,1
1679.4132569542464,Kuala Lumpur,Kuala Lumpur,56100,0
2364.617973163643,Petaling Jaya,Selangor,47500,0
1013.7082558789876,Ipoh,Perak,31650,0
899.4307208420399,Kuala Lumpur,Kuala Lumpur,51200,0
1119.6163446749042,Petaling Jaya,Selangor,46300,0
1492.0795011876326,Petaling Jaya,Selangor,46050,0
1030.3970520357336,Petaling Jaya,Selangor,47301,0
306.19523227893524,Ampang,Selangor,68000,1
142.15736043470045,Johor Bahru,Johor,81100,1
913.2582890508796,Kuala Lumpur,Kuala Lumpur,50450,0
557.1354083189798,Klang,Selangor,53100,0
386.9095586313307,Kuala Lumpur,Kuala Lumpur,52100,1
238.31361002581264,Johor Bahru,Johor,80150,1
533.1472100479065,Butterworth,Penang,13000,0
2215.437999360196,Kajang,Selangor,43000,0
27.00001650848456,Kajang,Selangor,43000,1
337.86067330454455,Sungai Buloh,Selangor,47000,1
196.0090258542604,Kuala Lumpur,Kuala Lumpur,51200,1
699.4918771940427,Petaling Jaya,Selangor,46300,0
170.4239650204186,Petaling Jaya,Selangor,47430,1
1713.3774354892405,Ampang,Kuala Lumpur,57100,0
293.4512647393605,Kuala Lumpur,Kuala Lumpur,55100,1
1855.987492810887,Johor Bahru,Johor,81300,0
1326.9227013931868,Kuala Lumpur,Kuala Lumpur,59000,0
1194.495263444891,Klang,Selangor,41200,0
2271.8430498261982,Ipoh,Perak,31650,0
786.8437595698729,Kuala Lumpur,Kuala Lumpur,55100,0
652.1729674252011,Kuala Lumpur,Kuala Lumpur,55100,0
67.94561855313955,Kota Bharu,Kelantan,15100,1
506.9126923605896,Ipoh,Perak,31000,0
516.3299206121807,Kuala Lumpur,Kuala Lumpur,50470,0
342.5029397473475,Kuala Lumpur,Kuala Lumpur,56100,1
0.0,Kuching,Sarawak,93150,1
1309.5716240850568,Subang Jaya,Selangor,47500,0
526.5671839019901,Johor Bahru,Johor,81200,0
929.5081432166982,Kuala Lumpur,Kuala Lumpur,56000,0
2444.63622428152,Ipoh,Perak,31650,0
945.1363648548546,Kuala Lumpur,Kuala Lumpur,68100,0
1423.9848616207155,Kuala Lumpur,Kuala Lumpur,51200,0
1841.4179342182656,Petaling Jaya,Selangor,47500,0
2401.801163277896,Kuala Lumpur,Kuala Lumpur,50490,0
2335.471986543317,Kuala Lumpur,Kuala Lumpur,57000,0
1056.8502844811728,Kuala Lumpur,Kuala Lumpur,58100,0
1347.0050076070322,Petaling Jaya,Selangor,47301,0
2205.740721423421,Ipoh,Perak,31400,0
0.0,Kajang,Selangor,43000,1
563.9804100254437,Seremban,Negeri Sembilan,70200,0
2237.9151215813777,Ipoh,Perak,30250,0
1175.7453823911617,Klang,Selangor,53100,0
496.1340315582063,Kuala Lumpur,Kuala Lumpur,56000,1
658.0546798655431,Puchong,Selangor,47100,0
945.1353475059364,Klang,Selangor,53300,0
383.1827543009321,Kuching,Sarawak,93100,1
76.975933198951,Kuala Lumpur,Kuala Lumpur,50400,1
1239.418658788585,Ipoh,Perak,30300,0
354.5736382599584,Kuala Lumpur,Kuala Lumpur,54000,1
1413.4581568555786,Seremban,Negeri Sembilan,70100,0
659.6744043215559,Kuala Lumpur,Kuala Lumpur,50100,0
436.372646928369,Kuala Lumpur,Kuala Lumpur,53000,1
608.7523949461288,Kuala Lumpur,Kuala Lumpur,50300,0
515.665644977856,Johor Bahru,Johor,81100,0
888.7079120891303,Johor Bahru,Johor,80400,0
826.1405442856186,Kuala Lumpur,Kuala Lumpur,51200,0
1520.144092396916,Seremban,Negeri Sembilan,70450,0
292.3218772978137,Johor Bahru,Johor,81100,1
336.99759351307864,Kuching,Sarawak,93100,1
976.1671826967214,Klang,Selangor,41100,0
530.6843032623306,Klang,Selangor,42100,0
630.1812723235054,Seremban,Negeri Sembilan,70000,0
294.19873880157013,Kuching,Sarawak,93400,1
1129.8587491243295,Kuala Lumpur,Kuala Lumpur,46400,0
1021.0406816066044,Klang,Selangor,68000,0
1203.1577319253056,Kajang,Selangor,43000,0
621.4494666446312,Ipoh,Perak,31350,0
610.9508205839813,Klang,Selangor,41400,0
1800.7086716424465,Petaling Jaya,Selangor,47300,0
1008.360510460202,Petaling Jaya,Selangor,46150,0
1291.775390971621,Petaling Jaya,Selangor,47301,0
212.05224716764224,Bukit Mertajam,Penang,14000,1
483.6826068413882,Kuala Lumpur,Kuala Lumpur,58100,1
302.6923377451032,Melaka,Melaka,75250,1
1021.6659520021076,Kuala Lumpur,Kuala Lumpur,52100,0
2506.2011701066426,Puchong,Selangor,47100,0
506.9126923605896,Ipoh,Perak,31400,0
51.73829195237303,Georgetown,Penang,10050,1
655.0213204518755,Kuala Lumpur,Kuala Lumpur,55100,0
964.9151517072056,Petaling Jaya,Selangor,46100,0
0.0,Johor Bahru,Johor,81100,1
1868.0507067386388,Ipoh,Perak,30010,0
1394.5632633956882,Kajang,Selangor,43000,0
1043.398679697329,Kuala Lumpur,Kuala Lumpur,50470,0
181.9424066769301,Kuala Lumpur,Kuala Lumpur,59100,1
49.68736995483607,Kuala Lumpur,Kuala Lumpur,51200,1
1400.8520452644757,Kuala Lumpur,Kuala Lumpur,53300,0
407.3490566657117,Kuala Lumpur,Kuala Lumpur,50050,1
859.2584308124233,Klang,Selangor,42100,0
1701.7123499684533,Johor Bahru,Johor,81200,0
1068.3700467467263,Ipoh,Perak,31350,0
485.45417168535664,Kuala Lumpur,Kuala Lumpur,51200,1
697.4619863639105,Klang,Selangor,53100,0
771.3465286443346,Petaling Jaya,Selangor,46350,0
1695.228744703223,Kota Kinabalu,Sabah,88000,0
427.660659279302,Kuantan,Pahang,25200,1
516.3299206121807,Kuala Lumpur,Kuala Lumpur,50470,0
500.25921012097416,Klang,Selangor,41000,0
1952.8062081826552,Skudai,Johor,81300,0
2389.460774519868,Tasek Gelugor,Penang,13300,0
833.8494543241502,Ipoh,Perak,31400,0
1626.180142209082,Kuantan,Pahang,25200,0
590.6441138064156,Kuala Lumpur,Kuala Lumpur,50480,0
1286.1941835258026,Kuala Lumpur,Kuala Lumpur,55200,0
166.50602700903724,Kuala Lumpur,Kuala Lumpur,50000,1
1246.5859049598023,Kuala Lumpur,Kuala Lumpur,55100,0
2476.102625263715,Puchong,Selangor,47100,0
213.9483351861749,Kuala Lumpur,Kuala Lumpur,51100,1
744.4382277640826,Kuala Lumpur,Kuala Lumpur,55000,0
814.7042496751233,Petaling Jaya,Selangor,46000,0
334.00412773097503,Shah Alam,Selangor,40000,1
1027.8713395260263,Kuala Lumpur,Kuala Lumpur,59200,0
2002.7897354995305,Johor Bahru,Johor,81200,0
347.14396717002006,Kuala Lumpur,Kuala Lumpur,56100,1
945.1353475059364,Klang,Selangor,53300,0
2264.8707680506886,Shah Alam,Selangor,40000,0
489.2303609213265,Kuala Lumpur,Kuala Lumpur,51200,1
8456.09658170289,Kerteh,Terengganu,24300,0
269.5687422766618,Kuala Lumpur,Kuala Lumpur,51200,1
840.8252718783107,Kuala Lumpur,Kuala Lumpur,53000,0
267.28011481392696,Alor Setar,Kedah,5150,1
1503.2922327152526,Ipoh,Perak,31400,0
1530.399126484434,Petaling Jaya,Selangor,46000,0
1804.206110533774,Johor Bahru,Johor,81200,0
1419.6085011521452,Kuala Lumpur,Kuala Lumpur,57000,0
822.343390305979,Shah Alam,Selangor,40100,0
1406.9559766331392,Klang,Selangor,42450,0
217.2811556893505,Kuala Lumpur,Kuala Lumpur,50150,1
966.4560896268872,Johor Bahru,Johor,80250,0
528.7647100271383,Ipoh,Perak,31400,0
1035.8881152271313,Kuala Lumpur,Kuala Lumpur,53300,0
869.9275155993201,Puchong,Selangor,47100,0
700.5027199922471,Ipoh,Perak,30300,0
212.3669256067957,Kuching,Sarawak,93200,1
1124.9453748460148,Johor Bahru,Johor,80400,0
933.9226719588694,Johor Bahru,Johor,81200,0
523.9288007525221,Kuala Lumpur,Kuala Lumpur,52100,0
934.0256843110648,Klang,Selangor,42000,0
213.68657658880937,Kuala Lumpur,Kuala Lumpur,50200,1
406.1056181058304,Kuala Lumpur,Kuala Lumpur,53200,1
954.4289682535606,Petaling Jaya,Selangor,47301,0
1048.1873055780636,Kuala Lumpur,Kuala Lumpur,50460,0
259.06886723432507,Kuala Lumpur,Kuala Lumpur,53100,1
1952.8062081826552,Skudai,Johor,81300,0
2710.1569889520465,Ipoh,Perak,31400,0
314.4368090444956,Seremban,Negeri Sembilan,70300,1
540.8055748992125,Kuala Lumpur,Kuala Lumpur,50300,0
314.4368090444956,Seremban,Negeri Sembilan,70300,1
1273.8453186056142,Petaling Jaya,Selangor,46150,0
312.2928793873002,Seremban,Negeri Sembilan,70000,1
903.0996611597178,Kuala Lumpur,Kuala Lumpur,51000,0
1815.9759346077071,Kuala Lumpur,Kuala Lumpur,50480,0
1707.0029640799198,Petaling Jaya,Selangor,46000,0
700.5027199922471,Ipoh,Perak,30300,0
166.25390502383172,Ipoh,Perak,30010,1
1120.8420799325484,Seremban,Negeri Sembilan,70300,0
0.0,Klang,Selangor,41200,1
1618.9113021167427,Johor Bahru,Johor,81100,0
406.7291900937384,Ampang,Selangor,68000,1
2603.14190354264,Johor Bahru,Johor,81100,0
580.9432639140765,Kuala Lumpur,Kuala Lumpur,55100,0
1274.5081042893185,Petaling Jaya,Selangor,46050,0
1599.6033742970726,Johor Bahru,Johor,81100,0
73.87169112232736,Jitra,Kedah,6000,1
2776.427320831612,Petaling Jaya,Selangor,47810,0
2839.333308404411,Petaling Jaya,Selangor,47810,0
1346.2423721971743,Ipoh,Perak,30100,0
1371.103593424558,Petaling Jaya,Selangor,46300,0
352.6988494559589,Johor Bahru,Johor,81100,1
2376.071689314359,Johor Bahru,Johor,81100,0
1580.210008789113,Kuala Lumpur,Kuala Lumpur,58200,0
202.40316370719287,Ipoh,Perak,30010,1
5123.278502053919,Kota Bharu,Kelantan,15400,0
611.5219663637872,Seremban,Negeri Sembilan,70000,0
957.7957685193932,Subang Jaya,Selangor,46150,0
426.31869633375305,Kuala Lumpur,Kuala Lumpur,50200,1
1520.084193994515,Ipoh,Perak,31350,0
1032.199585562723,Kuala Lumpur,Kuala Lumpur,59000,0
561.3701533901839,Kuala Lumpur,Kuala Lumpur,55100,0
1519.5035350224505,Petaling Jaya,Selangor,46000,0
1567.680147427547,Mentakab,Pahang,28400,0
312.2928793873002,Seremban,Negeri Sembilan,70000,1
879.2535210449965,Petaling Jaya,Selangor,46300,0
297.1871726961101,Miri,Sarawak,98000,1
1469.1387566206754,Kuala Lumpur,Kuala Lumpur,58200,0
279.50759495995163,Johor Bahru,Johor,80000,1
646.3754580629684,Kota Kinabalu,Sabah,88450,0
51.84620759249928,Petaling Jaya,Selangor,46200,1
592.9854091791019,Selayang Baru,Selangor,68100,0
969.219257049122,Ipoh,Perak,30300,0
1069.0213303858857,Kuala Lumpur,Kuala Lumpur,55100,0
1413.4581568555786,Seremban,Negeri Sembilan,70100,0
429.51784535977714,Kuala Lumpur,Kuala Lumpur,50000,1
516.3299206121807,Kuala Lumpur,Kuala Lumpur,50470,0
2444.63622428152,Ipoh,Perak,31650,0
1452.0924085608094,Kuala Lumpur,Kuala Lumpur,58200,0
969.219257049122,Ipoh,Perak,30300,0
0.0,Kuala Lumpur,Kuala Lumpur,50050,1
409.4743496497727,Johor Bahru,Johor,80000,1
152.60827960313446,Kuala Lumpur,Kuala Lumpur,55100,1
245.7478057775737,Kuala Lumpur,Kuala Lumpur,50100,1
2921.2869497032184,Klang,Selangor,41050,0
678.0012096771754,Batu Caves,Selangor,68100,0
255.10434229593827,Kuala Lumpur,Kuala Lumpur,59100,1
2444.63622428152,Ipoh,Perak,31650,0
947.4391817343547,Kuala Lumpur,Kuala Lumpur,56000,0
386.9711854162616,Kuala Lumpur,Kuala Lumpur,51000,1
1109.3962538615974,Petaling Jaya,Selangor,46150,0
888.7079120891303,Johor Bahru,Johor,80400,0
451.9461882652306,Petaling Jaya,Selangor,46200,1
675.9044355322058,Johor Bahru,Johor,80000,0
452.7703610490562,Johor Bahru,Johor,80000,1
264.6492438569643,Kuala Lumpur,Kuala Lumpur,50556,1
1095.1814774880438,Kuala Lumpur,Kuala Lumpur,52000,0
573.4899540955265,Kuala Lumpur,Kuala Lumpur,56100,0
441.9915316802007,Ipoh,Perak,30010,1
227.23148913749492,Petaling Jaya,Selangor,47400,1
292.90998725091737,Johor Bahru,Johor,81100,1
1420.1797410522695,Johor Bahru,Johor,81100,0
1596.4099514572176,Ipoh,Perak,30300,0
189.02156207826303,Limbang,Sarawak,98700,1
1350.050508624938,Batu Caves,Selangor,68100,0
389.20008837948126,Klang,Selangor,41200,1
413.62416162364735,Klang,Selangor,68100,1
1219.177254146043,Petaling Jaya,Selangor,47301,0
863.1049664544503,Kuala Lumpur,Kuala Lumpur,50480,0
1275.184772664409,Kuala Lumpur,Kuala Lumpur,52200,0
212.26748760521068,Kuala Lumpur,Kuala Lumpur,50450,1
1591.0815265310569,Kuala Lumpur,Kuala Lumpur,53100,0
705.8052346827783,Seremban,Negeri Sembilan,70400,0
1068.3700467467263,Ipoh,Perak,31350,0
312.2928793873002,Seremban,Negeri Sembilan,70000,1
89.82684765124498,Johor Bahru,Johor,81200,1
341.64906103121893,Ampang,Selangor,68000,1
1297.014110230882,Petaling Jaya,Selangor,46400,0
1273.1372014177418,Ipoh,Perak,30100,0
198.0764685437857,Kuala Lumpur,Kuala Lumpur,50100,1
152.60827960313446,Kuala Lumpur,Kuala Lumpur,55100,1
101.06308278460884,Sungai Buloh,Selangor,47000,1
983.8661419721848,Klang,Selangor,41100,0
403.4235534951816,Ipoh,Perak,31400,1
676.3575269406309,Kuala Lumpur,Kuala Lumpur,50460,0
1562.5215512549812,Kota Tinggi,Johor,81900,0
1571.3541239303954,Kuala Lumpur,Kuala Lumpur,57100,0
360.3314503616358,Johor Bahru,Johor,81100,1
124.30890312188536,Batu Caves,Selangor,68100,1
866.8794127175058,Johor Bahru,Johor,81200,0
1175.7453823911617,Klang,Selangor,53100,0
1683.7018074962195,Kuala Lumpur,Kuala Lumpur,50480,0
407.3490566657117,Kuala Lumpur,Kuala Lumpur,50050,1
404.2645577948194,Jalan Bandar Hilir,Melaka,75000,1
1033.339567412629,Kuala Lumpur,Kuala Lumpur,68100,0
641.65241519972,Petaling Jaya,Selangor,47400,0
256.83014834179096,Kuala Lumpur,Kuala Lumpur,51100,1
934.0256843110648,Klang,Selangor,42000,0
952.165367509971,Batu Caves,Selangor,68100,0
261.9632001057625,Kuala Lumpur,Kuala Lumpur,57100,1
775.9857119457212,Petaling Jaya,Selangor,46300,0
1455.916668955085,Kuala Lumpur,Kuala Lumpur,60000,0
1326.9227013931868,Kuala Lumpur,Kuala Lumpur,59000,0
581.5508849917069,Klang,Selangor,41100,0
516.3299206121807,Kuala Lumpur,Kuala Lumpur,50470,0
1233.737424183613,Klang,Selangor,41400,0
0.0,Kluang,Johor,86000,1
2424.9154440151337,Johor Bahru,Johor,81100,0
1858.318174126885,Kajang,Selangor,43000,0
386.9095586313307,Kuala Lumpur,Kuala Lumpur,52100,1
294.19873880157013,Kuching,Sarawak,93400,1
947.4391817343547,Kuala Lumpur,Kuala Lumpur,56000,0
1144.0482965104995,Subang Jaya,Selangor,47600,0
1239.418658788585,Ipoh,Perak,30300,0
245.7478057775737,Kuala Lumpur,Kuala Lumpur,50100,1
293.4512647393605,Kuala Lumpur,Kuala Lumpur,55100,1
1126.907196531286,Kuala Lumpur,Kuala Lumpur,53300,0
581.5508849917069,Klang,Selangor,41100,0
2271.8430498261982,Ipoh,Perak,31650,0
1315.6789612367998,Kuala Lumpur,Kuala Lumpur,52100,0
977.214496099304,Kota Bharu,Kelantan,15150,0
1100.6859536234722,Kuala Lumpur,Kuala Lumpur,53300,0
3467.472095427708,Kuala Terengganu,Terengganu,21080,0
611.5219663637872,Seremban,Negeri Sembilan,70000,0
2419.9734615424245,Johor Bahru,Johor,81100,0
2444.63622428152,Ipoh,Perak,31650,0
1664.7173533597374,Puchong,Selangor,47100,0
1420.1797410522695,Johor Bahru,Johor,81100,0
306.19523227893524,Ampang,Selangor,68000,1
1027.8713395260263,Kuala Lumpur,Kuala Lumpur,59200,0
905.1244428571264,Petaling Jaya,Selangor,46400,0
1596.4099514572176,Ipoh,Perak,30300,0
53.34292337813133,Kuala Terengganu,Terengganu,21200,1
471.0847948254288,Perai,Penang,13600,1
1033.339567412629,Kuala Lumpur,Kuala Lumpur,68100,0
475.0756338099444,Port Dickson,Negeri Sembilan,71050,1
2704.103597551352,Petaling Jaya,Selangor,47810,0
489.02594466653954,Klang,Selangor,41000,1
1263.4198198062377,Seremban,Negeri Sembilan,70450,0
472.8268220665131,Klang,Selangor,41400,1
915.5016226621918,Georgetown,Penang,10250,0
435.4454973171786,Klang,Selangor,41200,1
400.0807957665262,Kuala Lumpur,Kuala Lumpur,52100,1
1069.0213303858857,Kuala Lumpur,Kuala Lumpur,55100,0
1286.1941835258026,Kuala Lumpur,Kuala Lumpur,55200,0
507.9231946362368,Ampang,Selangor,68000,0
1334.1062968261356,Johor Bahru,Johor,81100,0
868.6328451717046,Johor Bahru,Johor,81100,0
1416.1076374752147,Johor Bahru,Johor,81200,0
1188.2894237087316,Mlk,Melaka,76400,0
1571.3541239303954,Kuala Lumpur,Kuala Lumpur,57100,0
1376.822540808015,Kuala Lumpur,Kuala Lumpur,59200,0
507.9231946362368,Ampang,Selangor,68000,0
483.4037480222692,Kuala Lumpur,Kuala Lumpur,50150,1
1688.4501024315189,Johor Bahru,Johor,81100,0
1414.142391103936,Kuala Lumpur,Kuala Lumpur,52100,0
1279.879924479058,Butterworth,Penang,12200,0
0.0,Kuala Lumpur,Kuala Lumpur,53200,1
209.9615344119497,Kuala Lumpur,Kuala Lumpur,59100,1
1608.7021386920908,Johor Bahru,Johor,81200,0
1158.982542241802,Petaling Jaya,Selangor,46150,0
49.68736995483607,Kuala Lumpur,Kuala Lumpur,51200,1
954.2698717991284,Kuala Lumpur,Kuala Lumpur,50480,0
1008.360510460202,Petaling Jaya,Selangor,46150,0
1244.9466437848018,Kuala Lumpur,Kuala Lumpur,50200,0
530.6843032623306,Klang,Selangor,42100,0
890.2277495499701,Petaling Jaya,Selangor,47301,0
801.0198730163448,Kuala Lumpur,Kuala Lumpur,52000,0
2704.103597551352,Petaling Jaya,Selangor,47810,0
598.0821945729941,Kuala Lumpur,Kuala Lumpur,53000,0
472.8268220665131,Klang,Selangor,41400,1
2146.620913428364,Kuala Lumpur,Kuala Lumpur,55200,0
366.8102816574833,Kuala Lumpur,Kuala Lumpur,50470,1
1234.7416966383837,Kuala Lumpur,Kuala Lumpur,57100,0
721.7021309674363,Petaling Jaya,Selangor,46150,0
2227.836966921264,Senai,Johor,81400,0
295.0060888978964,Batu Caves,Selangor,68100,1
1047.262394249006,Klang,Selangor,42100,0
1069.0213303858857,Kuala Lumpur,Kuala Lumpur,55100,0
1613.7501070776443,Subang Jaya,Selangor,47500,0
1580.210008789113,Kuala Lumpur,Kuala Lumpur,58200,0
1693.6943004903883,Kajang,Selangor,43000,0
64.33249225259236,Johor Bahru,Johor,81100,1
326.1002257587411,Kampung Valdor,Penang,14200,1
1171.6579205248097,Mentakab,Pahang,28400,0
468.4218899025262,Johor Bahru,Johor,81100,1
1591.0815265310569,Kuala Lumpur,Kuala Lumpur,53100,0
422.6122308855057,Kuala Lumpur,Kuala Lumpur,50768,1
2264.8707680506886,Shah Alam,Selangor,40400,0
700.5027199922471,Ipoh,Perak,30300,0
190.4260550404546,Miri,Sarawak,98000,1
1423.9848616207155,Kuala Lumpur,Kuala Lumpur,51200,0
134.20093231324856,Kuantan,Pahang,25300,1
1659.7952905062562,Kuala Lumpur,Kuala Lumpur,52100,0
1315.750041204159,Shah Alam,Selangor,40675,0
888.7079120891303,Johor Bahru,Johor,80400,0
1679.8880831589622,Shah Alam,Selangor,40000,0
254.2029587038489,Klang,Selangor,41200,1
1832.6686558900265,Ipoh,Perak,30250,0
1715.1440035231044,Johor Bahru,Johor,81200,0
466.51517377770153,Kuala Lumpur,Kuala Lumpur,55000,1
1182.7766576578392,Johor Bahru,Johor,80350,0
1055.8993739233272,Ipoh,Perak,31350,0
108.00932113400992,Kuala Lumpur,Kuala Lumpur,50350,1
923.4426254589732,Johor Bahru,Johor,80300,0
1124.9453748460148,Johor Bahru,Johor,80400,0
1947.476449379006,Puchong,Selangor,47100,0
858.2456430592781,Kuala Lumpur,Kuala Lumpur,56000,0
51.84620759249928,Petaling Jaya,Selangor,46200,1
2175.925446882059,Ipoh,Perak,30000,0
448.1594807286549,Kuala Lumpur,Kuala Lumpur,50150,1
1608.7021386920908,Johor Bahru,Johor,81200,0
119.1725505726996,Kuching,Sarawak,93000,1
1455.0564092109398,Petaling Jaya,Selangor,47820,0
1202.9320471577646,Petaling Jaya,Selangor,46350,0
1124.9453748460148,Johor Bahru,Johor,80400,0
213.68657658880937,Kuala Lumpur,Kuala Lumpur,50200,1
554.2940858159517,Johor Bahru,Johor,80250,0
2041.0409635712315,Johor Bahru,Johor,81300,0
134.24518102853577,Kuala Lumpur,Kuala Lumpur,59000,1
227.86334758520871,Kuala Lumpur,Kuala Lumpur,50350,1
856.7562666224756,Bayan Lepas,Penang,11900,0
158.77788618323152,Persiaran Janggus,Penang,14000,1
914.1726417005264,Klang,Selangor,41300,0
580.2334440378208,Kuching,Sarawak,93450,0
779.8392930805538,Kuala Lumpur,Kuala Lumpur,50250,0
191.3876206299145,Alor Setar,Kedah,5200,1
903.0996611597178,Kuala Lumpur,Kuala Lumpur,51000,0
761.4182899022537,Ipoh,Perak,30020,0
1029.6760273736577,Ampang,Selangor,68000,0
1762.836171750431,Kuala Lumpur,Kuala Lumpur,53300,0
1458.242432873098,Petaling Jaya,Selangor,47400,0
1118.5818343534786,Kuala Lumpur,Kuala Lumpur,52000,0
1394.5632633956882,Kajang,Selangor,43000,0
764.6763072828312,Kuala Lumpur,Kuala Lumpur,55100,0
869.3088007332138,Kuala Lipis,Pahang,27200,0
1434.8039738028615,Kuala Lumpur,Kuala Lumpur,52100,0
1343.0176012124189,Kuala Lumpur,Kuala Lumpur,53300,0
610.9508205839813,Klang,Selangor,41400,0
1210.145731605589,Kuala Lumpur,Kuala Lumpur,53000,0
1868.0507067386388,Ipoh,Perak,30010,0
2135.7066833992085,Kajang,Selangor,43000,0
1816.0319528922685,Petaling Jaya,Selangor,47400,0
2324.250530541698,Kajang,Selangor,43000,0
0.0,Kuala Lumpur,Kuala Lumpur,50050,1
699.4918771940427,Petaling Jaya,Selangor,46300,0
1382.4900255524346,Johor Bahru,Johor,81200,0
146.0023168099149,Petaling Jaya,Selangor,46200,1
1402.1752935169504,Petaling Jaya,Selangor,46000,0
2444.63622428152,Ipoh,Perak,31650,0
347.14396717002006,Kuala Lumpur,Kuala Lumpur,56100,1
1575.100725952009,Cheras,Selangor,43200,0
369.36169356431634,Kuala Lumpur,Kuala Lumpur,50450,1
320.88936231123654,Seremban,Negeri Sembilan,70200,1
668.7988382341459,Johor Bahru,Johor,80200,0
1222.5641397364195,Kuala Lumpur,Kuala Lumpur,58100,0
2259.5628199806165,Petaling Jaya,Selangor,46150,0
1415.9278280456513,Johor Bahru,Johor,80350,0
1841.4179342182656,Petaling Jaya,Selangor,47500,0
459.4404158035969,Petaling Jaya,Selangor,47800,1
0.0,Kluang,Johor,86000,1
2558.576472386406,Ipoh,Perak,31650,0
3054.660682286288,Subang Jaya,Selangor,47600,0
586.4279253381422,Petaling Jaya,Selangor,46200,0
471.3421347044776,Johor Bahru,Johor,81200,1
294.19873880157013,Kuching,Sarawak,93400,1
98.60292139945184,Kuala Lumpur,Kuala Lumpur,50100,1
1267.2715581684524,Johor Bahru,Johor,80400,0
1458.242432873098,Petaling Jaya,Selangor,47400,0
89.82684765124498,Johor Bahru,Johor,81200,1
1503.2922327152526,Ipoh,Perak,31400,0
1267.2715581684524,Johor Bahru,Johor,80400,0
762.9759509650384,Ipoh,Perak,31400,0
973.4079632620646,Kuala Lumpur,Kuala Lumpur,50480,0
155.8016072500899,Petaling Jaya,Selangor,46200,1
0.0,Johor Bahru,Johor,80000,1
553.3586919682855,Kuala Lumpur,Kuala Lumpur,56000,0
2704.103597551352,Petaling Jaya,Selangor,47810,0
691.7355930412161,Taman Peringgit Jaya,Melaka,75400,0
198.0764685437857,Kuala Lumpur,Kuala Lumpur,50100,1
806.2662081902865,Petaling Jaya,Selangor,47301,0
874.4697790680455,Seri Kembangan,Selangor,43300,0
1635.5206419542938,Petaling Jaya,Selangor,46300,0
245.7478057775737,Kuala Lumpur,Kuala Lumpur,50100,1
1712.181766676886,Subang Jaya,Selangor,47610,0
407.3490566657117,Kuala Lumpur,Kuala Lumpur,50050,1
3399.724929850972,Seremban,Negeri Sembilan,70450,0
1520.084193994515,Ipoh,Perak,31350,0
2351.605448509882,Kuala Lumpur,Kuala Lumpur,50480,0
405.97537965832765,Petaling Jaya,Selangor,47500,1
1458.242432873098,Petaling Jaya,Selangor,47400,0
356.3534185602841,Kuala Lumpur,Kuala Lumpur,50000,1
764.6763072828312,Kuala Lumpur,Kuala Lumpur,55100,0
2444.63622428152,Ipoh,Perak,31650,0
503.4681482257236,Miri,Sarawak,98000,0
1067.3638007681527,Subang Jaya,Selangor,47500,0
907.6580161052426,Kuala Lumpur,Kuala Lumpur,60000,0
217.2811556893505,Kuala Lumpur,Kuala Lumpur,50150,1
212.3669256067957,Kuching,Sarawak,93200,1
76.975933198951,Kuala Lumpur,Kuala Lumpur,50400,1
0.0,Kuching,Sarawak,93400,1
473.08314446564935,Kuala Lumpur,Kuala Lumpur,52000,1
245.7478057775737,Kuala Lumpur,Kuala Lumpur,50100,1
338.04896339802326,Kuala Lumpur,Kuala Lumpur,51000,1
594.1581582267407,Johor Bahru,Johor,80000,0
639.2611925065598,Kuala Lumpur,Kuala Lumpur,50470,0
146.0023168099149,Petaling Jaya,Selangor,46200,1
606.5613745987719,Johor Bahru,Johor,81100,0
1267.2715581684524,Johor Bahru,Johor,80400,0
764.6763072828312,Kuala Lumpur,Kuala Lumpur,55100,0
1175.7453823911617,Klang,Selangor,53100,0
1271.4080951277,Petaling Jaya,Selangor,46000,0
1277.0587127660872,Kuala Lumpur,Kuala Lumpur,56100,0
152.6247166507392,Kuching,Sarawak,93100,1
1406.5646746347147,Johor Bahru,Johor,81200,0
1566.8650499786274,Petaling Jaya,Selangor,46000,0
942.650138749408,Johor Bahru,Johor,81200,0
1272.852923823114,Klang,Selangor,40772,0
294.94640413742405,Kuala Lumpur,Kuala Lumpur,54000,1
735.0207873710056,Kuala Lumpur,Kuala Lumpur,55100,0
180.5508109794376,Kuala Lumpur,Kuala Lumpur,50480,1
1286.1941835258026,Kuala Lumpur,Kuala Lumpur,55200,0
710.9849515535984,Ipoh,Perak,31400,0
402.5297072653913,Petaling Jaya,Selangor,47301,1
1230.7920856114454,Johor Bahru,Johor,80400,0
95.76179893065388,Cheras,Kuala Lumpur,56100,1
356.26791671903413,Kuantan,Pahang,25000,1
1679.4132569542464,Kuala Lumpur,Kuala Lumpur,56100,0
245.7478057775737,Kuala Lumpur,Kuala Lumpur,50100,1
486.0048405079849,Petaling Jaya,Selangor,46100,1
0.0,Kajang,Selangor,43000,1
586.7080585313931,Johor Bahru,Johor,80000,0
2523.821150950204,Petaling Jaya,Selangor,47300,0
2395.031401559701,Ipoh,Perak,30000,0
783.4687246646863,Jalan Pauh Indah,Penang,13500,0
1319.2871092413338,Kota Tinggi,Johor,81960,0
489.02594466653954,Klang,Selangor,41000,1
331.3123455282798,Kuala Lumpur,Kuala Lumpur,51200,1
520.7712440562105,Kota Kinabalu,Sabah,89500,0
1342.015999887041,Kuala Lumpur,Kuala Lumpur,59100,0
888.7079120891303,Johor Bahru,Johor,80400,0
372.38007416634616,Klang,Selangor,41400,1
528.7647100271383,Ipoh,Perak,31400,0
509.95764739442143,Seri Kembangan,Selangor,43300,0
0.0,Padang Lalang,Penang,14000,1
1343.0176012124189,Kuala Lumpur,Kuala Lumpur,53300,0
342.7861834808783,Bukit Mertajam,Penang,14000,1
2024.4419030647728,Ipoh,Perak,31400,0
1151.530849595727,Johor Bahru,Johor,81100,0
238.31361002581264,Johor Bahru,Johor,80150,1
4101.231627897108,Johor Bahru,Johor,81750,0
563.9804100254437,Seremban,Negeri Sembilan,70000,0
2287.5676304028248,Kota Bharu,Kelantan,15050,0
709.7379672993625,Johor Bahru,Johor,81100,0
526.5671839019901,Johor Bahru,Johor,81200,0
2271.8430498261982,Ipoh,Perak,31650,0
148.88639409409095,Alor Setar,Kedah,5400,1
1656.5779453363525,Kuala Lumpur,Kuala Lumpur,58200,0
543.2611447624547,Johor Bahru,Johor,81100,0
703.5915921453201,Seri Kembangan,Selangor,43300,0
2200.6227823814065,Ipoh,Perak,31650,0
1182.8809902291932,Shah Alam,Selangor,40000,0
2978.0472367275884,Subang Jaya,Selangor,47620,0
603.959668835672,Kluang,Johor,86000,0
1868.0507067386388,Ipoh,Perak,30010,0
1291.775390971621,Petaling Jaya,Selangor,47301,0
1580.210008789113,Kuala Lumpur,Kuala Lumpur,58200,0
2101.5209086646446,Kuala Lumpur,Kuala Lumpur,56000,0
366.7237662494566,Klang,Selangor,41100,1
976.1671826967214,Port Klang,Selangor,42000,0
212.05224716764224,Bukit Mertajam,Penang,14000,1
2002.7897354995305,Johor Bahru,Johor,81200,0
1073.9271392297023,Ipoh,Perak,31350,0
721.0487117023271,Melaka,Melaka,75300,0
256.83014834179096,Kuala Lumpur,Kuala Lumpur,51100,1
418.1937406654065,Kuala Lumpur,Kuala Lumpur,50518,1
2926.1276386488043,Subang Jaya,Selangor,47620,0
441.22068665070657,Kuching,Sarawak,93350,1
419.9661247113219,Klang,Selangor,41200,1
1635.5206419542938,Petaling Jaya,Selangor,46300,0
576.2520801880875,Johor Bahru,Johor,80400,0
198.0764685437857,Kuala Lumpur,Kuala Lumpur,50100,1
1811.3571903304544,Kuala Lumpur,Kuala Lumpur,56100,0
289.6989330952846,Kuala Lumpur,Kuala Lumpur,56000,1
914.1726417005264,Klang,Selangor,41300,0
207.11186698601296,Kuala Lumpur,Kuala Lumpur,55100,1
762.9759509650384,Ipoh,Perak,30020,0
587.3831688997113,Johor Bahru,Johor,81100,0
405.97537965832765,Subang Jaya,Selangor,47500,1
120.28652523726572,Petaling Jaya,Selangor,46200,1
732.956371370581,Kuala Lumpur,Kuala Lumpur,55100,0
1445.3567259053473,Ipoh,Perak,30200,0
303.36364295174377,Puchong,Selangor,47100,1
1947.476449379006,Puchong,Selangor,47100,0
212.3669256067957,Kuching,Sarawak,93200,1
1109.6640613421926,Johor Bahru,Johor,81200,0
1259.5293430870424,Ipoh,Perak,30020,0
237.1280104671045,Georgetown,Penang,10050,1
299.64351656314085,Jalan Selat,Penang,12000,1
1135.023236402687,Kuala Lumpur,Kuala Lumpur,53300,0
1230.7920856114454,Johor Bahru,Johor,80400,0
594.1581582267407,Johor Bahru,Johor,80000,0
429.51784535977714,Kuala Lumpur,Kuala Lumpur,50000,1
414.3377617529546,Shah Alam,Selangor,40000,1
429.2728453395478,Kajang,Selangor,43000,1
245.7478057775737,Kuala Lumpur,Kuala Lumpur,50100,1
339.9637754155882,Kuching,Sarawak,93300,1
1400.5860986741236,Klang,Selangor,42000,0
244.97442964239104,Shah Alam,Selangor,40470,1
923.4426254589732,Johor Bahru,Johor,80300,0
1667.1298020985914,Kuala Lumpur,Kuala Lumpur,56100,0
505.85039143961535,Kuala Lumpur,Kuala Lumpur,55200,0
660.2286474380281,Kuala Lumpur,Kuala Lumpur,55100,0
206.74334227057068,Bukit Mertajam,Penang,14000,1
418.1937406654065,Kuala Lumpur,Kuala Lumpur,50646,1
1534.1676690252973,Petaling Jaya,Selangor,46050,0
112.65082221539744,Kuala Lumpur,Kuala Lumpur,51000,1
1163.258707598288,Johor Bahru,Johor,81100,0
1858.318174126885,Kajang,Selangor,43000,0
262.86652721780973,Kuala Lumpur,Kuala Lumpur,55100,1
1449.774885552744,Klang,Selangor,22433,0
246.1778857651032,Kuala Lumpur,Kuala Lumpur,51200,1
552.9648299416691,Johor Bahru,Johor,81200,0
1095.1814774880438,Kuala Lumpur,Kuala Lumpur,52000,0
2281.363924080816,Subang Jaya,Selangor,47610,0
1039.1512037528116,Batu Caves,Selangor,68100,0
616.1709267885323,Klang,Selangor,42000,0
752.0985035217852,Ipoh,Perak,30100,0
1508.9880658888994,Kuala Lumpur,Kuala Lumpur,52100,0
2024.085238653496,Subang Jaya,Selangor,47500,0
261.9632001057625,Kuala Lumpur,Kuala Lumpur,57100,1
1625.5933115311718,Johor Bahru,Johor,81200,0
1366.1229968190555,Klang,Selangor,41200,0
1784.168778604862,Kuala Lumpur,Kuala Lumpur,53300,0
354.5736382599584,Kuala Lumpur,Kuala Lumpur,54000,1
1766.435291318462,Petaling Jaya,Selangor,47300,0
1272.852923823114,Klang,Selangor,40772,0
779.8392930805538,Kuala Lumpur,Kuala Lumpur,16940,0
310.1362346225469,Kuala Lumpur,Kuala Lumpur,55100,1
1273.8453186056142,Petaling Jaya,Selangor,46150,0
691.7355930412161,Taman Peringgit Jaya,Melaka,75400,0
1735.9951533833246,Petaling Jaya,Selangor,46300,0
362.2030719856931,Ipoh,Perak,30010,1
868.6328451717046,Johor Bahru,Johor,81100,0
1801.8711147413685,Petaling Jaya,Selangor,46300,0
469.9327498230274,Kuala Lumpur,Kuala Lumpur,51200,1
2603.14190354264,Johor Bahru,Johor,81100,0
449.4111685298536,Limbang,Sarawak,98700,1
1870.3413348064728,Ipoh,Perak,30250,0
0.0,Kuantan,Pahang,25000,1
1157.0081817342948,Ipoh,Perak,30300,0
1596.4099514572176,Ipoh,Perak,30300,0
248.32210637404583,Johor Bahru,Johor,81100,1
809.0152968402828,Kuala Lumpur,Kuala Lumpur,55000,0
710.9849515535984,Ipoh,Perak,31400,0
412.3855124879051,Kuala Lumpur,Kuala Lumpur,51200,1
954.2698717991284,Kuala Lumpur,Kuala Lumpur,50480,0
2135.335382895287,Johor Bahru,Johor,81100,0
1530.7410425636408,Kuala Lumpur,Kuala Lumpur,50490,0
557.1354083189798,Klang,Selangor,53100,0
232.07479256713992,Kuching,Sarawak,93250,1
983.5207395613136,Petaling Jaya,Selangor,46150,0
154.59653173516878,Kuala Lumpur,Kuala Lumpur,55100,1
544.9338463555501,Kuala Lumpur,Kuala Lumpur,51200,0
255.29250728482592,Perai,Penang,13700,1
716.6585760666336,Wangsa Maju,Kuala Lumpur,53300,0
1682.0377737799963,Petaling Jaya,Selangor,46000,0
779.1063670495237,Kuala Lumpur,Kuala Lumpur,53200,0
379.2079148787194,Johor Bahru,Johor,81100,1
1025.5664961783689,Kuala Lumpur,Kuala Lumpur,50470,0
1520.144092396916,Seremban,Negeri Sembilan,70450,0
488.43255170863625,Kuala Lumpur,Kuala Lumpur,50300,1
2527.093559711308,Shah Alam,Selangor,40000,0
1086.109974165865,Butterworth,Penang,12200,0
0.0,Kuching,Sarawak,93400,1
666.8317160073539,Klang,Selangor,42000,0
1157.0081817342948,Ipoh,Perak,30300,0
775.9857119457212,Petaling Jaya,Selangor,46300,0
292.7719378312854,Petaling Jaya,Selangor,47400,1
864.8633991655428,Seremban,Negeri Sembilan,70100,0
411.92697749302783,Kuching,Sarawak,93200,1
500.2032218763907,Johor Bahru,Johor,80000,0
3054.660682286288,Petaling Jaya,Selangor,47301,0
2506.2011701066426,Puchong,Selangor,47100,0
2603.14190354264,Johor Bahru,Johor,81100,0
858.2456430592781,Kuala Lumpur,Kuala Lumpur,56100,0
513.792178723312,Kuala Lumpur,Kuala Lumpur,51000,0
2256.6676000460616,Johor Bahru,Johor,81300,0
1423.9848616207155,Kuala Lumpur,Kuala Lumpur,51200,0
942.650138749408,Johor Bahru,Johor,81200,0
440.0343489216392,Johor Bahru,Johor,80000,1
1493.657032089639,Ipoh,Perak,31400,0
659.9235910106893,Batu Caves,Selangor,18026,0
1363.6546187726672,Subang Jaya,Selangor,47630,0
379.2079148787194,Johor Bahru,Johor,81100,1
283.32596680307745,Kuala Lumpur,Kuala Lumpur,56000,1
126.13764229814872,Kuala Lumpur,Kuala Lumpur,50100,1
1267.2715581684524,Johor Bahru,Johor,80400,0
593.9947171583016,Kuala Lumpur,Kuala Lumpur,55100,0
1154.7149586771347,Shah Alam,Selangor,40460,0
384.5169208484643,Kuala Lumpur,Kuala Lumpur,50450,1
580.2334440378208,Kuching,Sarawak,93450,0
589.0245663977263,Ipoh,Perak,30000,0
1054.2088451452005,Petaling Jaya,Selangor,47301,0
1762.836171750431,Kuala Lumpur,Kuala Lumpur,53300,0
445.5934312406414,Ipoh,Perak,31400,1
53.34292337813133,Kuala Terengganu,Terengganu,20200,1
641.65241519972,Petaling Jaya,Selangor,47400,0
947.4678203270298,Klang,Selangor,41200,0
1775.691230541271,Petaling Jaya,Selangor,46150,0
1434.8039738028615,Kuala Lumpur,Kuala Lumpur,52100,0
451.2095744488619,Kuala Lumpur,Kuala Lumpur,50100,1
1914.7429174651456,Johor Bahru,Johor,81100,0
1296.9237837234004,Johor Bahru,Johor,80400,0
752.8053021224262,Johor Bahru,Johor,81100,0
1326.9227013931868,Kuala Lumpur,Kuala Lumpur,59000,0
902.644010630184,Kuala Lumpur,Kuala Lumpur,55100,0
631.618615682133,Sungai Petani,Kedah,8000,0
303.05280966181573,Kuantan,Pahang,25100,1
1844.9375088508525,Petaling Jaya,Selangor,47300,0
254.8611369302442,Seremban,Negeri Sembilan,70000,1
779.1063670495237,Kuala Lumpur,Kuala Lumpur,53200,0
182.406319042514,Johor Bahru,Johor,81100,1
2175.925446882059,Ipoh,Perak,30000,0
952.6563935600668,Klang,Selangor,41200,0
594.1581582267407,Johor Bahru,Johor,80000,0
261.9632001057625,Kuala Lumpur,Kuala Lumpur,57100,1
1033.339567412629,Kuala Lumpur,Kuala Lumpur,68100,0
126.13764229814872,Kuala Lumpur,Kuala Lumpur,50100,1
1038.4423212379345,Kuala Lumpur,Kuala Lumpur,59000,0
775.2805332131976,Puchong,Selangor,47100,0
254.8611369302442,Seremban,Negeri Sembilan,70000,1
595.9282840420882,Petaling Jaya,Selangor,46000,0
128.228738357371,Johor Bahru,Johor,81100,1
1792.122570536418,Kuala Lumpur,Kuala Lumpur,55200,0
2271.8430498261982,Ipoh,Perak,31650,0
409.0531384649654,Seremban,Negeri Sembilan,70200,1
134.516720505778,Kuala Lumpur,Kuala Lumpur,56100,1
888.7079120891303,Johor Bahru,Johor,80400,0
413.62416162364735,Klang,Selangor,68100,1
804.2251883563081,Subang Jaya,Selangor,47500,0
682.8820505186666,Johor Bahru,Johor,81100,0
1656.5779453363525,Kuala Lumpur,Kuala Lumpur,58200,0
400.5897603097488,Melaka,Melaka,75000,1
814.7042496751233,Petaling Jaya,Selangor,46000,0
371.1080271650324,Kuching,Sarawak,93100,1
1273.8453186056142,Petaling Jaya,Selangor,46150,0
1296.9237837234004,Johor Bahru,Johor,80400,0
152.6247166507392,Kuching,Sarawak,93100,1
2776.427320831612,Petaling Jaya,Selangor,47810,0
1326.6007337284707,Subang Jaya,Selangor,47610,0
639.9451320714994,Ipoh,Perak,31400,0
1858.318174126885,Kajang,Selangor,43000,0
1687.5491492342694,Kuala Lumpur,Kuala Lumpur,57000,0
1638.9394192267578,Kuala Lumpur,Kuala Lumpur,59000,0
537.969173088999,Kuala Lumpur,Kuala Lumpur,53300,0
405.97537965832765,Subang Jaya,Selangor,47500,1
966.4560896268872,Johor Bahru,Johor,80250,0
0.0,Kuala Lumpur,Kuala Lumpur,50200,1
243.1252308721263,Petaling Jaya,Selangor,47301,1
685.8539715736259,Klang,Selangor,53100,0
0.0,Kuala Lumpur,Kuala Lumpur,50200,1
826.3519249610115,Kuala Lumpur,Kuala Lumpur,50470,0
902.644010630184,Kuala Lumpur,Kuala Lumpur,55100,0
2099.768073119577,Ipoh,Perak,31400,0
1294.7633385885752,Petaling Jaya,Selangor,47500,0
8230.052172279198,Tawau,Sabah,60166,0
550.7742638283371,Klang,Selangor,41000,0
929.7462686272914,Butterworth,Penang,12000,0
2564.513564022031,Subang Jaya,Selangor,47620,0
1184.6564082666098,Ipoh,Perak,30450,0
294.19873880157013,Kuching,Sarawak,93400,1
1158.982542241802,Petaling Jaya,Selangor,46150,0
960.4517356056274,Klang,Selangor,42000,0
593.9947171583016,Kuala Lumpur,Kuala Lumpur,55100,0
293.4512647393605,Kuala Lumpur,Kuala Lumpur,55100,1
888.7079120891303,Johor Bahru,Johor,80400,0
1157.0081817342948,Ipoh,Perak,30300,0
302.6923377451032,Melaka,Melaka,75250,1
2271.8430498261982,Ipoh,Perak,31650,0
244.97442964239104,Shah Alam,Selangor,40470,1
769.8259320044115,Kuala Lumpur,Kuala Lumpur,55200,0
312.2928793873002,Seremban,Negeri Sembilan,70000,1
0.0,Kuantan,Pahang,25000,1
2271.8430498261982,Ipoh,Perak,31650,0
165.06704511696157,Kuala Lumpur,Kuala Lumpur,56100,1
2099.768073119577,Ipoh,Perak,31400,0
1030.3970520357336,Petaling Jaya,Selangor,47301,0
580.2334440378208,Kuching,Sarawak,93450,0
1034.182443792364,Klang,Selangor,41200,0
1432.637445854913,Kuala Lumpur,Kuala Lumpur,55100,0
238.31361002581264,Johor Bahru,Johor,80150,1
632.06398185235,Kuala Lumpur,Kuala Lumpur,50200,0
120.28652523726572,Petaling Jaya,Selangor,46200,1
2397.9877567170483,Johor Bahru,Johor,81100,0
343.66370747039684,Kajang,Selangor,43000,1
254.8611369302442,Seremban,Negeri Sembilan,70000,1
1416.1076374752147,Johor Bahru,Johor,81200,0
1171.6579205248097,Mentakab,Pahang,28400,0
1865.588406204937,Temerloh,Pahang,28000,0
1383.884098863428,Petaling Jaya,Selangor,46400,0
557.1354083189798,Klang,Selangor,53100,0
1982.4523982139915,Kuala Lumpur,Kuala Lumpur,59200,0
1712.181766676886,Subang Jaya,Selangor,47610,0
1833.656623521828,Sungai Petani,Kedah,8000,0
1182.8809902291932,Shah Alam,Selangor,40000,0
557.1354083189798,Klang,Selangor,53100,0
494.498889313933,Kajang,Selangor,43000,1
550.5576491477036,Kuala Lumpur,Kuala Lumpur,50200,0
1413.4581568555786,Seremban,Negeri Sembilan,70100,0
764.6763072828312,Kuala Lumpur,Kuala Lumpur,55100,0
1580.210008789113,Kuala Lumpur,Kuala Lumpur,58200,0
1267.2715581684524,Johor Bahru,Johor,80400,0
2146.620913428364,Kuala Lumpur,Kuala Lumpur,55200,0
582.4766650253305,Seremban,Negeri Sembilan,70000,0
1259.8645100402491,Kuala Lumpur,Kuala Lumpur,53300,0
246.12276269759164,Kuantan,Pahang,25000,1
855.5649844475721,Kuala Lumpur,Kuala Lumpur,55300,0
409.4743496497727,Johor Bahru,Johor,80000,1
269.4378430261568,Kuala Terengganu,Terengganu,20300,1
1098.3865218939889,Kuala Lumpur,Kuala Lumpur,53300,0
1151.6540746754365,Batu Caves,Selangor,68100,0
506.9126923605896,Ipoh,Perak,31400,0
277.9648937035569,Kuala Lumpur,Kuala Lumpur,50400,1
481.1845300382557,Kuala Lumpur,Kuala Lumpur,56100,1
1492.0795011876326,Petaling Jaya,Selangor,46100,0
632.030418548675,Kuala Lumpur,Kuala Lumpur,60000,0
2449.507853104594,Kuala Lumpur,Kuala Lumpur,57100,0
1357.532682548852,Ipoh,Perak,30350,0
902.644010630184,Kuala Lumpur,Kuala Lumpur,55100,0
1347.0050076070322,Petaling Jaya,Selangor,47301,0
687.7172529692123,Kajang,Selangor,43000,0
661.7514189445758,Johor Bahru,Johor,81200,0
2175.925446882059,Ipoh,Perak,30000,0
245.7478057775737,Kuala Lumpur,Kuala Lumpur,50100,1
1884.539043355538,Penaga,Penang,13100,0
1618.9113021167427,Johor Bahru,Johor,81100,0
419.1470016045229,Kuala Lumpur,Kuala Lumpur,50400,1
1366.1229968190555,Klang,Selangor,41200,0
688.2494885407008,Kuala Lumpur,Kuala Lumpur,60000,0
1832.6686558900265,Ipoh,Perak,30250,0
405.97537965832765,Subang Jaya,Selangor,47510,1
693.2269141417353,Seremban,Negeri Sembilan,70000,0
181.9424066769301,Kuala Lumpur,Kuala Lumpur,59100,1
366.8102816574833,Kuala Lumpur,Kuala Lumpur,50470,1
217.5114873030641,Kuala Lumpur,Kuala Lumpur,50400,1
361.3821772802045,Petaling Jaya,Selangor,47400,1
656.8220045181135,Klang,Selangor,41000,0
489.2303609213265,Kuala Lumpur,Kuala Lumpur,51200,1
0.0,Petaling Jaya,Selangor,47500,1
328.37671813693134,Johor Bahru,Johor,81100,1
983.8659088954388,Klang,Selangor,41400,0
1120.8420799325484,Seremban,Negeri Sembilan,70300,0
1588.9008119474006,Kuala Lumpur,Kuala Lumpur,58200,0
930.190501449354,Kuala Lumpur,Kuala Lumpur,53300,0
1542.092028227808,Johor Bahru,Johor,81300,0
1406.9559766331392,Klang,Selangor,42450,0
1391.05275387528,Perai,Penang,13600,0
254.86473079392627,Kuala Lumpur,Kuala Lumpur,51200,1
98.61528815791574,Kajang,Selangor,43000,1
1486.659659688362,Kuala Lumpur,Kuala Lumpur,50050,0
1969.030082990435,Kuala Lumpur,Kuala Lumpur,56000,0
752.8053021224262,Johor Bahru,Johor,81100,0
701.8940820568491,Johor Bahru,Johor,81100,0
1642.916799961872,Johor Bahru,Johor,81100,0
1291.775390971621,Petaling Jaya,Selangor,47301,0
2534.363558648512,Johor Bahru,Johor,81300,0
1593.2362507683013,Kuching,Sarawak,93450,0
463.8372896538496,Kuala Lumpur,Kuala Lumpur,50300,1
983.7162818032964,Kajang,Selangor,43000,0
1414.142391103936,Kuala Lumpur,Kuala Lumpur,52200,0
144.8746672343061,Miri,Sarawak,98000,1
1853.323361855278,Ipoh,Perak,31400,0
540.8055748992125,Kuala Lumpur,Kuala Lumpur,50300,0
941.494444128106,Johor Bahru,Johor,81300,0
1006.7439134920918,Johor Bahru,Johor,81100,0
1888.3241458689467,Kuala Lumpur,Kuala Lumpur,58200,0
1741.1372916630569,Shah Alam,Selangor,40460,0
8144.211167819015,Labis,Johor,85300,0
429.51784535977714,Kuala Lumpur,Kuala Lumpur,50000,1
1485.2473853703727,Petaling Jaya,Selangor,46150,0
248.32210637404583,Johor Bahru,Johor,81100,1
914.1726417005264,Klang,Selangor,41200,0
418.90632000435846,Kuala Lumpur,Kuala Lumpur,50300,1
0.0,Png,Penang,14000,1
1567.7604697744002,Ipoh,Perak,30010,0
473.1934873813869,Seremban,Negeri Sembilan,70000,1
1095.1588069081106,Penang,Penang,11200,0
227.76752987595,Kuala Lumpur,Kuala Lumpur,56100,1
359.2243754965057,Kuching,Sarawak,93000,1
1222.5641397364195,Kuala Lumpur,Kuala Lumpur,58100,0
3002.4431336919333,Klang,Selangor,42000,0
970.6781378436484,Kuala Lumpur,Kuala Lumpur,52000,0
649.2165006708433,Johor Bahru,Johor,80000,0
299.64351656314085,Jalan Selat,Penang,12000,1
722.0630500993951,Kuala Lumpur,Kuala Lumpur,55200,0
685.8539715736259,Klang,Selangor,53100,0
2110.2572330728835,Petaling Jaya,Selangor,47630,0
1999.0257567217536,Ipoh,Perak,31350,0
809.0152968402828,Kuala Lumpur,Kuala Lumpur,55000,0
500.2032218763907,Johor Bahru,Johor,80000,0
198.413851387546,Kuala Lumpur,Kuala Lumpur,50100,1
1101.375412120486,Klang,Selangor,53300,0
1238.3476321693297,Johor Bahru,Johor,81100,0
597.9353704769909,Kuala Lumpur,Kuala Lumpur,51200,0
507.9231946362368,Ampang,Selangor,68000,0
1022.5825604527156,Kuala Lumpur,Kuala Lumpur,52200,0
383.1827543009321,Kuching,Sarawak,93100,1
429.51784535977714,Kuala Lumpur,Kuala Lumpur,50000,1
1239.418658788585,Ipoh,Perak,30300,0
630.1812723235054,Seremban,Negeri Sembilan,70000,0
593.9947171583016,Kuala Lumpur,Kuala Lumpur,55100,0
1999.0257567217536,Ipoh,Perak,31350,0
391.9195366329487,Klang,Selangor,41200,1
1394.5632633956882,Kajang,Selangor,43000,0
711.1529898717315,Kuching,Sarawak,93200,0
405.97537965832765,Subang Jaya,Selangor,47500,1
2135.7066833992085,Kajang,Selangor,43000,0
523.3942213347145,Kuala Lumpur,Kuala Lumpur,55100,0
1439.4789151973257,Kuala Lumpur,Kuala Lumpur,55100,0
1110.942045436375,Petaling Jaya,Selangor,46400,0
526.5671839019901,Johor Bahru,Johor,81200,0
580.2334440378208,Kuching,Sarawak,93450,0
685.8539715736259,Klang,Selangor,53100,0
120.28652523726572,Petaling Jaya,Selangor,46200,1
983.5207395613136,Petaling Jaya,Selangor,46150,0
392.1327513635824,Georgetown,Penang,10400,1
220.0025699832104,Kuala Lumpur,Kuala Lumpur,50300,1
519.1322128043893,Bukit Mertajam,Penang,14000,0
858.7727099845516,Klang,Selangor,53100,0
646.3754580629684,Kota Kinabalu,Sabah,88450,0
812.2410709545194,Klang,Selangor,41150,0
2067.1804306648646,Petaling Jaya,Selangor,47630,0
744.4382277640826,Kuala Lumpur,Kuala Lumpur,55000,0
1177.569519073106,Kuala Lumpur,Kuala Lumpur,58100,0
384.2337664555226,Kampung Besar,Penang,14000,1
2509.3500704471685,Malaysia,Johor,81200,0
1739.9039691016594,Ipoh,Perak,31200,0
343.1582268482978,Kuala Lumpur,Kuala Lumpur,53100,1
1315.6789612367998,Kuala Lumpur,Kuala Lumpur,52100,0
1069.0213303858857,Kuala Lumpur,Kuala Lumpur,55100,0
303.05280966181573,Kuantan,Pahang,25100,1
2200.6227823814065,Ipoh,Perak,31650,0
2028.5873472085725,Kuala Lumpur,Kuala Lumpur,50460,0
427.4126777860662,Kuala Lumpur,Kuala Lumpur,55000,1
858.7727099845516,Klang,Selangor,53100,0
571.5636676443372,Kuala Lumpur,Kuala Lumpur,50300,0
220.0025699832104,Kuala Lumpur,Kuala Lumpur,50300,1
234.51438479286315,Seri Kembangan,Selangor,43300,1
1003.0456471922578,Johor Bahru,Johor,81200,0
2322.6485007797955,Johor Bahru,Johor,81100,0
2462.1374073111747,Kuala Lumpur,Kuala Lumpur,50940,0
610.9508205839813,Klang,Selangor,41400,0
740.530103504359,Klang,Selangor,41100,0
945.1363648548546,Kuala Lumpur,Kuala Lumpur,68100,0
688.2494885407008,Kuala Lumpur,Kuala Lumpur,60000,0
1079.6759281669044,Kuala Lumpur,Kuala Lumpur,56000,0
2237.9151215813777,Ipoh,Perak,30250,0
397.5204655640747,Kuala Lumpur,Kuala Lumpur,50200,1
579.0804869627192,Klang,Selangor,41000,0
2444.63622428152,Ipoh,Perak,31650,0
1394.5632633956882,Kajang,Selangor,43000,0
945.4356233774364,Ipoh,Perak,31400,0
1385.4957931938573,Kuala Lumpur,Kuala Lumpur,59100,0
120.28652523726572,Petaling Jaya,Selangor,46200,1
1013.7082558789876,Ipoh,Perak,31650,0
950.7441046093162,Kuala Lumpur,Kuala Lumpur,57100,0
1397.5614461318648,Ipoh,Perak,30250,0
1486.659659688362,Kuala Lumpur,Kuala Lumpur,50050,0
890.2277495499701,Petaling Jaya,Selangor,47301,0
914.1726417005264,Klang,Selangor,41300,0
1095.1588069081106,Penang,Penang,11200,0
1056.1831612327023,Petaling Jaya,Selangor,47410,0
292.3218772978137,Johor Bahru,Johor,81100,1
1069.0213303858857,Kuala Lumpur,Kuala Lumpur,55100,0
254.8611369302442,Seremban,Negeri Sembilan,70000,1
292.3218772978137,Johor Bahru,Johor,81100,1
51.84620759249928,Petaling Jaya,Selangor,46200,1
213.041449455206,Sibu,Sarawak,96000,1
0.0,Kuching,Sarawak,93400,1
1286.1941835258026,Kuala Lumpur,Kuala Lumpur,55200,0
1595.1809481921948,Petaling Jaya,Selangor,46000,0
0.0,Kuala Lumpur,Kuala Lumpur,53200,1
141.58843851901574,Lintang Angsana,Selangor,11500,1
152.60827960313446,Kuala Lumpur,Kuala Lumpur,55100,1
1151.6540746754365,Batu Caves,Selangor,68100,0
64.33249225259236,Johor Bahru,Johor,81100,1
1194.906233097366,Johor Bahru,Johor,81200,0
703.5915921453201,Seri Kembangan,Selangor,43300,0
892.5214060733889,Kuala Terengganu,Terengganu,21854,0
500.2032218763907,Johor Bahru,Johor,80000,0
436.372646928369,Kuala Lumpur,Kuala Lumpur,53000,1
623.0003887090568,Kuala Lumpur,Kuala Lumpur,56000,0
0.0,Johor Bahru,Johor,80000,1
0.0,Kuala Lumpur,Kuala Lumpur,50200,1
603.959668835672,Kluang,Johor,86000,0
775.2805332131976,Puchong,Selangor,47100,0
773.4567679986224,Johor Bahru,Johor,81200,0
451.1807601508073,Miri,Sarawak,98000,1
27.00001650848456,Kajang,Selangor,43000,1
1707.0029640799198,Petaling Jaya,Selangor,46000,0
1796.5139213847458,Johor Bahru,Johor,81200,0
744.4382277640826,Kuala Lumpur,Kuala Lumpur,55000,0
1281.1161540789114,Petaling Jaya,Selangor,47301,0
1123.6756046097034,Seremban,Negeri Sembilan,70300,0
806.2662081902865,Petaling Jaya,Selangor,47301,0
313.6615223250307,Kuching,Sarawak,93150,1
2237.9151215813777,Ipoh,Perak,30250,0
397.5204655640747,Kuala Lumpur,Kuala Lumpur,50200,1
1069.0213303858857,Kuala Lumpur,Kuala Lumpur,55100,0
0.0,Kajang,Selangor,43000,1
455.9100332294836,Kuching,Sarawak,93400,1
1070.715812440958,Kuala Lumpur,Kuala Lumpur,68100,0
630.726382077088,Petaling Jaya,Selangor,47301,0
479.9982119232083,Johor Bahru,Johor,81100,1
869.1936595819062,Kuala Lumpur,Kuala Lumpur,55000,0
496.1340315582063,Kuala Lumpur,Kuala Lumpur,56000,1
254.2029587038489,Klang,Selangor,41200,1
621.4494666446312,Ipoh,Perak,31350,0
661.7514189445758,Johor Bahru,Johor,81200,0
259.06886723432507,Kuala Lumpur,Kuala Lumpur,53100,1
886.3346642438673,Petaling Jaya,Selangor,46000,0
794.610897807136,Beaufort,Sabah,89800,0
214.5774264975726,Kuala Lumpur,Kuala Lumpur,50350,1
1025.5664961783689,Kuala Lumpur,Kuala Lumpur,50470,0
420.2373806007607,Kuching,Sarawak,93400,1
1210.145731605589,Kuala Lumpur,Kuala Lumpur,53000,0
1188.2894237087316,Mlk,Melaka,76400,0
544.9338463555501,Kuala Lumpur,Kuala Lumpur,51200,0
2146.620913428364,Kuala Lumpur,Kuala Lumpur,55200,0
603.959668835672,Kluang,Johor,86000,0
1815.9759346077071,Kuala Lumpur,Kuala Lumpur,50480,0
775.2805332131976,Puchong,Selangor,47100,0
1416.1076374752147,Johor Bahru,Johor,81200,0
2028.5873472085725,Kuala Lumpur,Kuala Lumpur,50460,0
661.7514189445758,Johor Bahru,Johor,81200,0
902.644010630184,Kuala Lumpur,Kuala Lumpur,55100,0
1025.5664961783689,Kuala Lumpur,Kuala Lumpur,50470,0
864.8633991655428,Seremban,Negeri Sembilan,70100,0
238.31361002581264,Johor Bahru,Johor,80150,1
1055.8993739233272,Ipoh,Perak,31350,0
1439.4789151973257,Kuala Lumpur,Kuala Lumpur,55100,0
267.69606144165925,Johor Bahru,Johor,81100,1
1279.8350596516163,Johor Bahru,Johor,81100,0
902.644010630184,Kuala Lumpur,Kuala Lumpur,55100,0
1294.7633385885752,Petaling Jaya,Selangor,47500,0
691.9888896308671,Alor Setar,Kedah,5250,0
392.1327513635824,Georgetown,Penang,10400,1
254.2029587038489,Klang,Selangor,41200,1
98.95066492089089,Kuala Lumpur,Kuala Lumpur,50100,1
556.1474400139821,Petaling Jaya,Selangor,47301,0
2421.784684626666,Kuala Lumpur,Kuala Lumpur,50490,0
796.6004745722207,Kuala Lumpur,Kuala Lumpur,55100,0
810.544325658241,Johor Bahru,Johor,81300,0
1277.1332446530917,Shah Alam,Selangor,40300,0
1170.89299026386,Klang,Selangor,42100,0
570.1949148567668,Johor Bahru,Johor,81200,0
2419.9734615424245,Johor Bahru,Johor,81100,0
2414.958039458644,Kota Bharu,Kelantan,15000,0
196.0090258542604,Kuala Lumpur,Kuala Lumpur,51200,1
643.4585964295866,Kuala Lumpur,Kuala Lumpur,50450,0
326.9263158156846,Johor Bahru,Johor,80250,1
98.61528815791574,Kajang,Selangor,43000,1
606.5613745987719,Johor Bahru,Johor,81100,0
1739.9039691016594,Ipoh,Perak,31200,0
1906.9143338256044,Ipoh,Perak,30000,0
227.76752987595,Kuala Lumpur,Kuala Lumpur,56100,1
429.51784535977714,Kuala Lumpur,Kuala Lumpur,50000,1
267.0529812116571,Petaling Jaya,Selangor,46200,1
1242.77423401303,Petaling Jaya,Selangor,46150,0
1792.122570536418,Kuala Lumpur,Kuala Lumpur,55200,0
1444.548376761719,Kuala Terengganu,Terengganu,21100,0
773.4567679986224,Johor Bahru,Johor,81200,0
293.4512647393605,Kuala Lumpur,Kuala Lumpur,55100,1
506.9126923605896,Ipoh,Perak,31400,0
858.7727099845516,Klang,Selangor,53100,0
379.2079148787194,Johor Bahru,Johor,81100,1
285.302801341441,Kuala Lumpur,Kuala Lumpur,58100,1
1981.9313925937963,Kuala Lumpur,Kuala Lumpur,50450,0
536.6328418408759,Petaling Jaya,Selangor,47301,0
421.0531358176197,Kuantan,Pahang,25300,1
145.49652221345426,Kuala Lumpur,Kuala Lumpur,50350,1
0.0,Kuala Lumpur,Kuala Lumpur,50250,1
217.2811556893505,Kuala Lumpur,Kuala Lumpur,50150,1
959.9813549521746,Klang,Selangor,53300,0
184.2018324644136,Petaling Jaya,Selangor,46200,1
41.10735166400505,Kuching,Sarawak,93400,1
1804.206110533774,Johor Bahru,Johor,81200,0
926.2462288424769,Johor Bahru,Johor,81100,0
303.28123896051784,Kota Kinabalu,Sabah,88450,1
2777.947506656475,Petaling Jaya,Selangor,47300,0
608.750743262487,Kuala Lumpur,Kuala Lumpur,50250,0
382.8047038179376,Alor Setar,Kedah,5050,1
1194.495263444891,Klang,Selangor,41200,0
440.0343489216392,Johor Bahru,Johor,80000,1
36.47027317201651,Kuala Lumpur,Kuala Lumpur,50470,1
364.18725671325166,Kuala Lumpur,Kuala Lumpur,52000,1
1038.4423212379345,Kuala Lumpur,Kuala Lumpur,59000,0
451.6162608806201,Jalan Hang Tuah,Melaka,75300,1
2509.3500704471685,Malaysia,Johor,81200,0
543.2611447624547,Johor Bahru,Johor,81100,0
455.9100332294836,Kuching,Sarawak,93400,1
804.8306438017502,Seri Kembangan,Selangor,43300,0
118.31867704343465,Johor Bahru,Johor,81100,1
538.3192765076564,Bayan Lepas,Penang,11900,0
1271.8554723560496,Subang Jaya,Selangor,47500,0
2923.770108664987,Ipoh,Perak,31400,0
861.167223851514,Kuala Lumpur,Kuala Lumpur,60000,0
1373.7035683334243,Johor Bahru,Johor,81100,0
471.3421347044776,Johor Bahru,Johor,81200,1
1295.0270182635522,Petaling Jaya,Selangor,47500,0
105.73526474319884,Kuching,Sarawak,93200,1
1039.9669938433549,Lunas,Kedah,9600,0
2609.2786942210605,Kuantan,Pahang,26080,0
812.2410709545194,Klang,Selangor,41150,0
517.4076267493163,Johor Bahru,Johor,80000,0
2614.573447821856,Johor Bahru,Johor,81100,0
1371.103593424558,Petaling Jaya,Selangor,46300,0
922.90108666016,Perai,Penang,13700,0
0.0,Kuala Lumpur,Kuala Lumpur,50350,1
1208.187727990078,Johor Bahru,Johor,81100,0
500.2032218763907,Johor Bahru,Johor,80000,0
18.1963589598036,Kuching,Sarawak,93450,1
768.9099244798673,Johor Bahru,Johor,80250,0
376.7457413393727,Johor Bahru,Johor,81300,1
146.0023168099149,Petaling Jaya,Selangor,46200,1
869.1936595819062,Kuala Lumpur,Kuala Lumpur,55000,0
1981.9313925937963,Kuala Lumpur,Kuala Lumpur,50450,0
232.38117917043647,Kuala Lumpur,Kuala Lumpur,50350,1
291.42018842564454,Klang,Selangor,42100,1
254.2029587038489,Klang,Selangor,41200,1
361.9309006993951,Bandar Melaka,Melaka,75000,1
1595.1809481921948,Petaling Jaya,Selangor,46000,0
1329.9289452232294,Bukit Mertajam,Penang,14000,0
336.99759351307864,Kuching,Sarawak,93100,1
769.239961602618,Johor Bahru,Johor,80150,0
976.1671826967214,Port Klang,Selangor,42000,0
1588.356778871688,Johor Bahru,Johor,81300,0
617.2593087556712,Johor Bahru,Johor,81100,0
1918.79882339422,Johor Bahru,Johor,81100,0
3054.660682286288,Subang Jaya,Selangor,47600,0
612.8824073664229,Kuala Lumpur,Kuala Lumpur,51200,0
611.5219663637872,Seremban,Negeri Sembilan,70000,0
380.5204537907603,Kuala Lumpur,Kuala Lumpur,55100,1
833.0596779315887,Klang,Selangor,41200,0
762.9759509650384,Ipoh,Perak,30000,0
580.2334440378208,Kuching,Sarawak,93450,0
909.5589289345124,Klang,Selangor,41050,0
632.030418548675,Kuala Lumpur,Kuala Lumpur,60000,0
1810.4264120577952,Kota Bharu,Kelantan,15000,0
496.1349482659063,Petaling Jaya,Selangor,47301,1
721.0487117023271,Melaka,Melaka,75300,0
1981.6706526901423,Ipoh,Perak,30250,0
2419.9734615424245,Johor Bahru,Johor,81100,0
783.7560618877638,Klang,Selangor,53100,0
519.1322128043893,Bukit Mertajam,Penang,14000,0
267.0529812116571,Petaling Jaya,Selangor,46200,1
1695.228744703223,Kota Kinabalu,Sabah,88000,0
1704.968771253764,Ipoh,Perak,30000,0
255.29250728482592,Perai,Penang,13700,1
1413.4581568555786,Seremban,Negeri Sembilan,70100,0
240.64981153376505,Kuching,Sarawak,93100,1
264.6492438569643,Kuala Lumpur,Kuala Lumpur,50556,1
1455.0564092109398,Petaling Jaya,Selangor,47820,0
1090.092056348359,Petaling Jaya,Selangor,47301,0
520.1424264210393,Kuala Lumpur,Kuala Lumpur,50470,0
227.23148913749492,Petaling Jaya,Selangor,47400,1
764.6763072828312,Kuala Lumpur,Kuala Lumpur,55100,0
898.0101917746686,Shah Alam,Selangor,40100,0
134.516720505778,Kuala Lumpur,Kuala Lumpur,56100,1
652.620034329257,Petaling Jaya,Selangor,47400,0
225.29687248115343,Teluk Intan,Perak,36000,1
608.750743262487,Kuala Lumpur,Kuala Lumpur,50250,0
198.52573836960977,Georgetown,Penang,10400,1
2175.925446882059,Ipoh,Perak,30000,0
2141.288745820399,Petaling Jaya,Selangor,46150,0
1146.155762149665,Kuala Lumpur,Kuala Lumpur,52000,0
76.975933198951,Kuala Lumpur,Kuala Lumpur,50400,1
324.74589722771003,Kuala Lumpur,Kuala Lumpur,50400,1
1362.990397931442,Ipoh,Perak,30300,0
292.3218772978137,Johor Bahru,Johor,81100,1
1301.0456297463463,Ipoh,Perak,30010,0
691.8102121941671,Kuala Lumpur,Kuala Lumpur,50450,0
557.1354083189798,Klang,Selangor,53100,0
303.36364295174377,Puchong,Selangor,47100,1
1208.187727990078,Johor Bahru,Johor,81100,0
517.7948921616479,Johor Bahru,Johor,80250,0
511.76485088921527,Kuala Lumpur,Kuala Lumpur,55000,0
366.8102816574833,Kuala Lumpur,Kuala Lumpur,50470,1
1455.0564092109398,Petaling Jaya,Selangor,47820,0
720.3910241759089,Taiping,Perak,34000,0
1420.1797410522695,Johor Bahru,Johor,81100,0
1025.5664961783689,Kuala Lumpur,Kuala Lumpur,50470,0
1779.4238037387172,Ipoh,Perak,30100,0
630.726382077088,Petaling Jaya,Selangor,47301,0
603.959668835672,Kluang,Johor,86000,0
1092.0663793117703,Johor Bahru,Johor,80250,0
1771.826681597467,Kuala Lumpur,Kuala Lumpur,57100,0
108.00932113400992,Kuala Lumpur,Kuala Lumpur,50350,1
1397.5614461318648,Ipoh,Perak,30250,0
1701.7123499684533,Johor Bahru,Johor,81200,0
134.24518102853577,Kuala Lumpur,Kuala Lumpur,59000,1
903.0996611597178,Kuala Lumpur,Kuala Lumpur,51000,0
299.64351656314085,Jalan Selat,Penang,12000,1
3042.5806471515093,Puchong,Selangor,47100,0
854.046994406732,Johor Bahru,Johor,80350,0
292.7719378312854,Petaling Jaya,Selangor,47400,1
1296.9237837234004,Johor Bahru,Johor,80400,0
2256.6676000460616,Johor Bahru,Johor,81300,0
1984.5878552318463,Kuala Lumpur,Kuala Lumpur,50480,0
809.0152968402828,Kuala Lumpur,Kuala Lumpur,55000,0
371.1080271650324,Kuching,Sarawak,93100,1
1070.715812440958,Kuala Lumpur,Kuala Lumpur,68100,0
336.99759351307864,Kuching,Sarawak,93100,1
304.5606312711479,Seremban,Negeri Sembilan,70000,1
850.5431159508483,Batu Caves,Selangor,68100,0
2546.480666387026,Shah Alam,Selangor,40000,0
321.00282928354727,Kota Kinabalu,Sabah,88450,1
252.34192982870948,Kuching,Sarawak,93400,1
67.94561855313955,Kota Bharu,Kelantan,15100,1
1294.7633385885752,Petaling Jaya,Selangor,47500,0
580.2334440378208,Kuching,Sarawak,93450,0
1069.0213303858857,Kuala Lumpur,Kuala Lumpur,55100,0
112.65082221539744,Kuala Lumpur,Kuala Lumpur,51000,1
371.1080271650324,Kuching,Sarawak,93100,1
66.44574087511575,Teluk Intan,Perak,36000,1
392.1327513635824,Georgetown,Penang,10400,1
2403.675487043851,Kota Bharu,Kelantan,15000,0
554.591562261695,Alor Setar,Kedah,5150,0
320.88936231123654,Seremban,Negeri Sembilan,70200,1
2175.925446882059,Ipoh,Perak,30000,0
18.1963589598036,Kuching,Sarawak,93450,1
940.4223892674148,Tapah,Perak,35000,0
888.7079120891303,Johor Bahru,Johor,80400,0
170.4442522409658,Kuala Lumpur,Kuala Lumpur,59100,1
1868.0507067386388,Ipoh,Perak,30010,0
1414.142391103936,Kuala Lumpur,Kuala Lumpur,52200,0
659.6744043215559,Kuala Lumpur,Kuala Lumpur,50100,0
485.45417168535664,Kuala Lumpur,Kuala Lumpur,51200,1
1109.3962538615974,Petaling Jaya,Selangor,46150,0
1054.2088451452005,Petaling Jaya,Selangor,47301,0
261.9632001057625,Kuala Lumpur,Kuala Lumpur,57100,1
520.1424264210393,Kuala Lumpur,Kuala Lumpur,50470,0
1118.5818343534786,Kuala Lumpur,Kuala Lumpur,52000,0
1487.6221912669012,Petaling Jaya,Selangor,47400,0
1219.177254146043,Petaling Jaya,Selangor,47301,0
741.8768882729537,Kuala Lumpur,Kuala Lumpur,57100,0
1960.97773034784,Kuala Lumpur,Kuala Lumpur,56000,0
2146.620913428364,Kuala Lumpur,Kuala Lumpur,55200,0
888.7079120891303,Johor Bahru,Johor,80400,0
580.2334440378208,Kuching,Sarawak,93450,0
685.8539715736259,Klang,Selangor,53100,0
809.0152968402828,Kuala Lumpur,Kuala Lumpur,55000,0
923.4426254589732,Johor Bahru,Johor,80300,0
352.6988494559589,Johor Bahru,Johor,81100,1
692.4415794933593,Kuala Lumpur,Kuala Lumpur,52100,0
2287.5676304028248,Kota Bharu,Kelantan,15050,0
1186.7021547640295,Johor Bahru,Johor,80050,0
622.3794509324474,Ipoh,Perak,31400,0
1188.2894237087316,Mlk,Melaka,76400,0
1618.9113021167427,Johor Bahru,Johor,81100,0
243.1252308721263,Petaling Jaya,Selangor,47301,1
796.7250248653133,Kuala Lumpur,Kuala Lumpur,50250,0
1525.8280038682217,Kuala Lumpur,Kuala Lumpur,52200,0
804.2251883563081,Subang Jaya,Selangor,47500,0
1562.5215512549812,Kota Tinggi,Johor,81900,0
1371.103593424558,Petaling Jaya,Selangor,46300,0
1596.4099514572176,Ipoh,Perak,30300,0
643.4585964295866,Kuala Lumpur,Kuala Lumpur,50450,0
0.0,Kuching,Sarawak,93400,1
4083.785250948831,Petaling Jaya,Selangor,47500,0
429.3905500556255,Bentong,Pahang,28700,1
245.7478057775737,Kuala Lumpur,Kuala Lumpur,50100,1
898.0101917746686,Shah Alam,Selangor,40100,0
1445.3567259053473,Ipoh,Perak,30200,0
1062.9759005220194,Kuala Lumpur,Kuala Lumpur,55300,0
517.4076267493163,Johor Bahru,Johor,80000,0
483.4037480222692,Kuala Lumpur,Kuala Lumpur,50150,1
569.4504695886417,Johor Bahru,Johor,81100,0
1021.6659520021076,Kuala Lumpur,Kuala Lumpur,52100,0
1033.339567412629,Kuala Lumpur,Kuala Lumpur,68100,0
1414.142391103936,Kuala Lumpur,Kuala Lumpur,52100,0
299.64351656314085,Jalan Selat,Penang,12000,1
1642.916799961872,Johor Bahru,Johor,81100,0
1675.25453903508,Johor Bahru,Johor,81100,0
535.7973660770499,Kuala Lumpur,Kuala Lumpur,50400,0
451.9461882652306,Petaling Jaya,Selangor,46200,1
946.9698015828872,Petaling Jaya,Selangor,46050,0
1517.726417318931,Kuala Lumpur,Kuala Lumpur,53300,0
1771.826681597467,Kuala Lumpur,Kuala Lumpur,57100,0
216.49888930514192,Wilayah Persekutuan,Kuala Lumpur,50350,1
1279.879924479058,Butterworth,Penang,12200,0
700.5027199922471,Ipoh,Perak,30300,0
234.51438479286315,Seri Kembangan,Selangor,43300,1
0.0,Padang Lalang,Penang,14000,1
1770.2754179902115,Kuala Lumpur,Kuala Lumpur,52100,0
1008.4830009307708,Puchong,Selangor,47100,0
761.731832455607,Cheras,Selangor,43200,0
1039.9669938433549,Lunas,Kedah,9600,0
227.57445339970243,Kuching,Sarawak,93150,1
1530.8840232955752,Ipoh,Perak,31400,0
324.74589722771003,Kuala Lumpur,Kuala Lumpur,50400,1
1810.4264120577952,Kota Bharu,Kelantan,15000,0
1685.305564201906,Johor Bahru,Johor,81100,0
420.2373806007607,Kuching,Sarawak,93400,1
1520.144092396916,Seremban,Negeri Sembilan,70450,0
318.595225803697,Melaka,Melaka,75250,1
1594.2292953664191,Kuala Lumpur,Kuala Lumpur,50460,0
1056.8502844811728,Kuala Lumpur,Kuala Lumpur,58100,0
1503.1521261001812,Ipoh,Perak,30100,0
2022.5393221160905,Kuala Lumpur,Kuala Lumpur,57100,0
1984.5878552318463,Kuala Lumpur,Kuala Lumpur,50480,0
1182.8809902291932,Shah Alam,Selangor,40000,0
630.726382077088,Petaling Jaya,Selangor,47301,0
126.05105657659944,Kuala Lumpur,Kuala Lumpur,50100,1
449.4111685298536,Limbang,Sarawak,98700,1
0.0,Kuching,Sarawak,93150,1
1449.774885552744,Klang,Selangor,26326,0
372.38007416634616,Klang,Selangor,41400,1
777.5846042418432,Johor Bahru,Johor,81100,0
1413.4581568555786,Seremban,Negeri Sembilan,70100,0
1775.691230541271,Petaling Jaya,Selangor,46150,0
202.40316370719287,Ipoh,Perak,30010,1
2264.8707680506886,Shah Alam,Selangor,40400,0
1124.203862134909,Johor Bahru,Johor,81300,0
769.239961602618,Johor Bahru,Johor,80150,0
499.10778604388526,Johor Bahru,Johor,80300,1
869.1936595819062,Kuala Lumpur,Kuala Lumpur,55000,0
2722.0888402953724,Ipoh,Perak,31400,0
128.8052667542644,Kuala Lumpur,Kuala Lumpur,50350,1
621.7996107212005,Kajang,Selangor,43000,0
1124.9453748460148,Johor Bahru,Johor,80400,0
440.0343489216392,Johor Bahru,Johor,80000,1
976.1671826967214,Klang,Selangor,41100,0
283.32596680307745,Kuala Lumpur,Kuala Lumpur,56000,1
603.959668835672,Kluang,Johor,86000,0
720.3910241759089,Taiping,Perak,34000,0
108.21386872941964,Kuching,Sarawak,93400,1
1079.6759281669044,Kuala Lumpur,Kuala Lumpur,56000,0
722.0630500993951,Kuala Lumpur,Kuala Lumpur,55200,0
3601.781467429147,Lumut,Perak,32200,0
622.3794509324474,Ipoh,Perak,31400,0
292.90998725091737,Johor Bahru,Johor,81100,1
1376.822540808015,Kuala Lumpur,Kuala Lumpur,59200,0
1832.050007428545,Kuala Lumpur,Kuala Lumpur,52100,0
2779.861377786314,Subang Jaya,Selangor,47620,0
631.618615682133,Sungai Petani,Kedah,8000,0
911.24126476963,Kuala Lumpur,Kuala Lumpur,51200,0
254.86473079392627,Kuala Lumpur,Kuala Lumpur,51200,1
1703.1892293848696,Shah Alam,Selangor,40150,0
1413.4581568555786,Seremban,Negeri Sembilan,70100,0
1865.588406204937,Temerloh,Pahang,28000,0
1702.0818141143504,Johor Bahru,Johor,81100,0
1415.9278280456513,Johor Bahru,Johor,80350,0
1440.73319064136,Kuala Lumpur,Kuala Lumpur,57100,0
142.15736043470045,Johor Bahru,Johor,81100,1
692.6253917337787,Kuala Lumpur,Kuala Lumpur,60000,0
259.06886723432507,Kuala Lumpur,Kuala Lumpur,53100,1
1061.4102109197047,Petaling Jaya,Selangor,46050,0
594.1581582267407,Johor Bahru,Johor,80000,0
513.792178723312,Kuala Lumpur,Kuala Lumpur,51000,0
1100.6859536234722,Kuala Lumpur,Kuala Lumpur,53300,0
292.7719378312854,Petaling Jaya,Selangor,47400,1
0.0,Kajang,Selangor,43000,1
1267.2715581684524,Johor Bahru,Johor,80400,0
1884.539043355538,Penaga,Penang,13100,0
366.8102816574833,Kuala Lumpur,Kuala Lumpur,50470,1
2719.304432747624,Subang Jaya,Selangor,47620,0
380.0452399789853,Ipoh,Perak,31650,1
461.888953712645,Kuantan,Pahang,25100,1
1577.1948446509923,Petaling Jaya,Selangor,47800,0
1525.8280038682217,Kuala Lumpur,Kuala Lumpur,52200,0
371.1080271650324,Kuching,Sarawak,93100,1
1246.5859049598023,Kuala Lumpur,Kuala Lumpur,55100,0
966.4560896268872,Johor Bahru,Johor,80250,0
2388.055510502817,Ipoh,Perak,31350,0
2710.1569889520465,Ipoh,Perak,31400,0
1120.8420799325484,Seremban,Negeri Sembilan,70300,0
556.8152491282215,Kuala Lumpur,Kuala Lumpur,60000,0
761.0949822142989,Kuala Lumpur,Kuala Lumpur,50450,0
1101.375412120486,Klang,Selangor,53300,0
294.19873880157013,Kuching,Sarawak,93400,1
1492.0795011876326,Petaling Jaya,Selangor,46050,0
826.623204231156,Kuala Lumpur,Kuala Lumpur,50480,0
0.0,Klang,Selangor,41200,1
238.31361002581264,Johor Bahru,Johor,80150,1
0.0,Kuching,Sarawak,93150,1
1025.5664961783689,Kuala Lumpur,Kuala Lumpur,50706,0
888.7079120891303,Johor Bahru,Johor,80400,0
684.850510749769,Butterworth,Penang,13400,0
765.0961780404759,Sungai Buloh,Selangor,47000,0
409.4743496497727,Johor Bahru,Johor,80000,1
1970.3231847649563,Petaling Jaya,Selangor,46100,0
1183.5566781059442,Ipoh,Perak,31350,0
778.6755887003051,Kuala Lumpur,Kuala Lumpur,55000,0
1267.2715581684524,Johor Bahru,Johor,80400,0
237.1995214767232,Kuantan,Pahang,25300,1
949.917608891886,Johor Bahru,Johor,81300,0
826.3519249610115,Kuala Lumpur,Kuala Lumpur,50470,0
1100.6859536234722,Kuala Lumpur,Kuala Lumpur,53300,0
245.7478057775737,Kuala Lumpur,Kuala Lumpur,50100,1
120.28652523726572,Petaling Jaya,Selangor,46200,1
197.02381751701373,Kuching,Sarawak,93350,1
923.4426254589732,Johor Bahru,Johor,80300,0
1193.9806139729933,Klang,Selangor,42000,0
277.9648937035569,Kuala Lumpur,Kuala Lumpur,50400,1
855.3846011773014,Kuching,Sarawak,93450,0
269.5687422766618,Kuala Lumpur,Kuala Lumpur,51200,1
1676.3683665559586,Petaling Jaya,Selangor,47301,0
753.8312030534058,Shah Alam,Selangor,40000,0
120.28652523726572,Petaling Jaya,Selangor,46200,1
1027.1896648360832,Johor Bahru,Johor,80250,0
934.0256843110648,Klang,Selangor,42000,0
753.1209759556434,Seri Kembangan,Selangor,43300,0
933.251596632496,Kuala Lumpur,Kuala Lumpur,58000,0
621.4494666446312,Ipoh,Perak,31350,0
312.2928793873002,Seremban,Negeri Sembilan,70000,1
809.0152968402828,Kuala Lumpur,Kuala Lumpur,55000,0
709.7379672993625,Johor Bahru,Johor,81100,0
1157.7894586825837,Johor Bahru,Johor,81209,0
1455.916668955085,Kuala Lumpur,Kuala Lumpur,60000,0
1656.6849474179385,Petaling Jaya,Selangor,46300,0
98.60292139945184,Kuala Lumpur,Kuala Lumpur,50100,1
795.7800536592212,Klang,Selangor,41200,0
1458.242432873098,Petaling Jaya,Selangor,47400,0
18.1963589598036,Kuching,Sarawak,93450,1
1449.774885552744,Klang,Selangor,26326,0
576.2520801880875,Johor Bahru,Johor,80400,0
2231.226987561184,Johor Bahru,Johor,81100,0
814.7042496751233,Petaling Jaya,Selangor,46000,0
1525.8280038682217,Kuala Lumpur,Kuala Lumpur,52200,0
1056.8502844811728,Kuala Lumpur,Kuala Lumpur,58100,0
762.9759509650384,Ipoh,Perak,30000,0
542.3738343578876,Johor Bahru,Johor,80000,0
1312.5384839330309,Kuching,Sarawak,93050,0
1242.77423401303,Petaling Jaya,Selangor,46150,0
1182.5131134661644,Klang,Selangor,41050,0
652.620034329257,Petaling Jaya,Selangor,47400,0
2444.63622428152,Ipoh,Perak,31650,0
796.7250248653133,Kuala Lumpur,Kuala Lumpur,50450,0
1286.1941835258026,Kuala Lumpur,Kuala Lumpur,55200,0
792.1777925153848,Petaling Jaya,Selangor,46000,0
2376.071689314359,Johor Bahru,Johor,81100,0
294.19873880157013,Kuching,Sarawak,93400,1
1784.168778604862,Kuala Lumpur,Kuala Lumpur,53300,0
511.108079053971,Kuala Lumpur,Kuala Lumpur,58100,0
283.32596680307745,Kuala Lumpur,Kuala Lumpur,56000,1
714.1112346350324,Kuala Lumpur,Kuala Lumpur,60000,0
1297.014110230882,Petaling Jaya,Selangor,46400,0
453.8492087560995,Penang,Penang,10000,1
1822.4301006369988,Shah Alam,Selangor,40100,0
273.8041817761845,Kepala Batas,Penang,13200,1
1362.990397931442,Ipoh,Perak,30300,0
254.86473079392627,Kuala Lumpur,Kuala Lumpur,51200,1
2146.620913428364,Kuala Lumpur,Kuala Lumpur,55200,0
212.3669256067957,Kuching,Sarawak,93200,1
2520.5596988077928,Johor Bahru,Johor,81100,0
886.3346642438673,Petaling Jaya,Selangor,46000,0
483.8955053413555,Klang,Selangor,41400,1
516.3299206121807,Kuala Lumpur,Kuala Lumpur,50470,0
585.8782971288452,Johor Bahru,Johor,81200,0
1234.7726320194176,Kuala Lumpur,Kuala Lumpur,50460,0
777.5846042418432,Johor Bahru,Johor,81100,0
120.28652523726572,Petaling Jaya,Selangor,46200,1
1123.6756046097034,Seremban,Negeri Sembilan,70300,0
0.0,Kuala Lumpur,Kuala Lumpur,50350,1
1124.9453748460148,Johor Bahru,Johor,80400,0
2022.5393221160905,Kuala Lumpur,Kuala Lumpur,57100,0
621.4494666446312,Ipoh,Perak,31350,0
1275.184772664409,Kuala Lumpur,Kuala Lumpur,52200,0
947.4391817343547,Kuala Lumpur,Kuala Lumpur,56000,0
413.62416162364735,Klang,Selangor,68100,1
0.0,Klang,Selangor,10463,1
876.3376078024353,Melaka,Melaka,75400,0
1441.4412456817563,Kuala Lumpur,Kuala Lumpur,53300,0
245.7478057775737,Kuala Lumpur,Kuala Lumpur,50100,1
356.0248439150968,Kuala Lumpur,Kuala Lumpur,50470,1
773.4567679986224,Johor Bahru,Johor,81200,0
1468.1541097902766,Kuala Lumpur,Kuala Lumpur,52100,0
1906.9143338256044,Ipoh,Perak,30000,0
419.9661247113219,Klang,Selangor,41200,1
670.4730700937363,Kuching,Sarawak,93100,0
1503.2922327152526,Ipoh,Perak,31400,0
256.83014834179096,Kuala Lumpur,Kuala Lumpur,51100,1
2271.8430498261982,Ipoh,Perak,31650,0
118.31867704343465,Johor Bahru,Johor,81100,1
1021.7453555322114,Petaling Jaya,Selangor,46000,0
550.7742638283371,Klang,Selangor,41000,0
391.9195366329487,Klang,Selangor,41200,1
135.1606867596895,Kuala Lumpur,Kuala Lumpur,50000,1
2028.5873472085725,Kuala Lumpur,Kuala Lumpur,50460,0
198.52573836960977,Georgetown,Penang,10400,1
2194.441989674763,Ipoh,Perak,31650,0
2024.4419030647728,Ipoh,Perak,31400,0
1649.963964073752,Petaling Jaya,Selangor,46050,0
804.8306438017502,Seri Kembangan,Selangor,43300,0
656.8220045181135,Klang,Selangor,42000,0
1999.0257567217536,Ipoh,Perak,31350,0
732.956371370581,Kuala Lumpur,Kuala Lumpur,55100,0
976.1671826967214,Klang,Selangor,41100,0
259.06886723432507,Kuala Lumpur,Kuala Lumpur,53100,1
117.92240755354575,Klang,Selangor,41000,1
55.86183326866704,Petaling Jaya,Selangor,46200,1
1275.184772664409,Kuala Lumpur,Kuala Lumpur,52200,0
284.987453933,Kapit,Sarawak,96800,1
1275.184772664409,Kuala Lumpur,Kuala Lumpur,52200,0
429.51784535977714,Kuala Lumpur,Kuala Lumpur,50000,1
520.7712440562105,Kota Kinabalu,Sabah,89500,0
1595.0152278759492,Shah Alam,Selangor,40150,0
347.14396717002006,Kuala Lumpur,Kuala Lumpur,56100,1
1123.6756046097034,Seremban,Negeri Sembilan,70300,0
292.7719378312854,Petaling Jaya,Selangor,47400,1
1050.0274256376715,Ipoh,Perak,30450,0
474.2029485408802,Ipoh,Perak,31350,1
376.8002186622493,Klang,Selangor,42100,1
550.7742638283371,Klang,Selangor,41000,0
1069.0213303858857,Kuala Lumpur,Kuala Lumpur,55100,0
390.5046916391584,Kuala Lumpur,Kuala Lumpur,50470,1
519.1322128043893,Bukit Mertajam,Penang,14000,0
0.0,Kajang,Selangor,43000,1
1599.6033742970726,Johor Bahru,Johor,81100,0
0.0,Kuala Lumpur,Kuala Lumpur,50000,1
98.61528815791574,Kajang,Selangor,43000,1
1283.9678967763457,Cukai,Terengganu,24000,0
1923.7346609335257,Kuala Lumpur,Kuala Lumpur,57100,0
117.92240755354575,Klang,Selangor,41000,1
923.4426254589732,Johor Bahru,Johor,80300,0
335.78908918052474,Kuala Lumpur,Kuala Lumpur,54200,1
1295.0270182635522,Subang Jaya,Selangor,47500,0
112.65082221539744,Kuala Lumpur,Kuala Lumpur,51000,1
307.6414850794648,Kuala Lumpur,Kuala Lumpur,50480,1
933.9226719588694,Johor Bahru,Johor,81200,0
1413.4581568555786,Seremban,Negeri Sembilan,70100,0
1542.630532120466,Johor Bahru,Johor,81200,0
705.8052346827783,Seremban,Negeri Sembilan,70400,0
1230.7920856114454,Johor Bahru,Johor,80400,0
976.1671826967214,Port Klang,Selangor,42000,0
1056.8502844811728,Kuala Lumpur,Kuala Lumpur,58100,0
429.51784535977714,Kuala Lumpur,Kuala Lumpur,50000,1
240.64981153376505,Kuching,Sarawak,93100,1
1054.2088451452005,Petaling Jaya,Selangor,47301,0
2404.107881622997,Kuala Lumpur,Kuala Lumpur,57100,0
983.8659088954388,Klang,Selangor,41400,0
870.2496532842607,Kuala Lumpur,Kuala Lumpur,52000,0
1157.0081817342948,Ipoh,Perak,30300,0
2381.9162206830647,Kuala Lumpur,Kuala Lumpur,50490,0
165.5855329325019,Johor Bahru,Johor,81300,1
661.7514189445758,Johor Bahru,Johor,81200,0
2194.441989674763,Ipoh,Perak,31650,0
1191.1344124440416,Kulai,Johor,81000,0
960.0676317998729,Klang,Selangor,42450,0
2776.427320831612,Petaling Jaya,Selangor,47810,0
2202.8091226605243,Petaling Jaya,Selangor,46100,0
597.9353704769909,Kuala Lumpur,Kuala Lumpur,51200,0
407.3490566657117,Kuala Lumpur,Kuala Lumpur,50050,1
2509.3500704471685,Malaysia,Johor,81200,0
267.28011481392696,Alor Setar,Kedah,5150,1
2028.5873472085725,Kuala Lumpur,Kuala Lumpur,50460,0
352.19910538910824,Kajang,Selangor,43000,1
1025.5664961783689,Kuala Lumpur,Kuala Lumpur,50470,0
2476.102625263715,Puchong,Selangor,47100,0
2335.471986543317,Kuala Lumpur,Kuala Lumpur,57000,0
709.7379672993625,Johor Bahru,Johor,81100,0
1444.548376761719,Kuala Terengganu,Terengganu,21100,0
2259.5628199806165,Petaling Jaya,Selangor,46150,0
783.4687246646863,Jalan Pauh Indah,Penang,13500,0
1530.8840232955752,Ipoh,Perak,31400,0
2109.193194120573,Johor Bahru,Johor,81300,0
2287.5676304028248,Kota Bharu,Kelantan,15050,0
2022.5393221160905,Kuala Lumpur,Kuala Lumpur,57100,0
475.0756338099444,Port Dickson,Negeri Sembilan,71000,1
472.8268220665131,Klang,Selangor,41400,1
691.2173407579461,Johor Bahru,Johor,80100,0
1613.7501070776443,Subang Jaya,Selangor,47600,0
868.6328451717046,Johor Bahru,Johor,81100,0
1538.2048790288895,Ipoh,Perak,31400,0
145.82757635206892,Sibu,Sarawak,96000,1
656.8220045181135,Klang,Selangor,42000,0
259.6678178785795,Kuala Lumpur,Kuala Lumpur,50000,1
636.7318262358519,Kuala Lumpur,Kuala Lumpur,56100,0
254.2029587038489,Klang,Selangor,41200,1
55.86183326866704,Petaling Jaya,Selangor,46200,1
1937.808949304124,Cukai,Terengganu,24000,0
1294.7633385885752,Petaling Jaya,Selangor,47500,0
814.0248129406934,Shah Alam,Selangor,40400,0
553.3586919682855,Kuala Lumpur,Kuala Lumpur,56000,0
241.5271515398784,Kuala Lumpur,Kuala Lumpur,51100,1
449.4111685298536,Limbang,Sarawak,98700,1
1634.2738081843363,Kuala Lumpur,Kuala Lumpur,57100,0
196.0090258542604,Kuala Lumpur,Kuala Lumpur,51200,1
1804.206110533774,Johor Bahru,Johor,81200,0
561.7617509592936,Kuala Lumpur,Kuala Lumpur,52100,0
2386.8890536027843,Johor Bahru,Johor,81100,0
1453.5335551848295,Kuantan,Pahang,26080,0
254.8611369302442,Seremban,Negeri Sembilan,70000,1
1588.9008119474006,Kuala Lumpur,Kuala Lumpur,58200,0
20.83005760387424,Melaka,Melaka,75250,1
720.3910241759089,Taiping,Perak,34000,0
714.1112346350324,Kuala Lumpur,Kuala Lumpur,60000,0
1960.97773034784,Kuala Lumpur,Kuala Lumpur,56000,0
515.665644977856,Johor Bahru,Johor,81100,0
407.3490566657117,Kuala Lumpur,Kuala Lumpur,50050,1
481.820637520017,Kuching,Sarawak,93300,1
1567.680147427547,Mentakab,Pahang,28400,0
890.2277495499701,Petaling Jaya,Selangor,47301,0
389.20008837948126,Klang,Selangor,41200,1
1591.1057060302574,Kuala Lumpur,Kuala Lumpur,50628,0
253.78519109282223,Kuala Lumpur,Kuala Lumpur,56100,1
2419.9734615424245,Johor Bahru,Johor,81100,0
2024.4419030647728,Ipoh,Perak,31400,0
1981.9313925937963,Kuala Lumpur,Kuala Lumpur,50450,0
76.975933198951,Kuala Lumpur,Kuala Lumpur,50400,1
271.13469015852075,Butterworth,Penang,12300,1
833.0596779315887,Klang,Selangor,41200,0
1294.7633385885752,Petaling Jaya,Selangor,47500,0
1239.418658788585,Ipoh,Perak,30300,0
552.9648299416691,Johor Bahru,Johor,81200,0
1154.7149586771347,Shah Alam,Selangor,40460,0
507.9330042548892,Perai,Penang,13700,0
2002.7897354995305,Johor Bahru,Johor,81200,0
1853.323361855278,Ipoh,Perak,31400,0
764.6763072828312,Kuala Lumpur,Kuala Lumpur,55100,0
363.4030248516559,Kota Kinabalu,Sabah,88300,1
1596.4099514572176,Ipoh,Perak,30300,0
1657.2934613593447,Ipoh,Perak,30300,0
960.4517356056274,Klang,Selangor,42000,0
473.08314446564935,Kuala Lumpur,Kuala Lumpur,52000,1
779.1063670495237,Kuala Lumpur,Kuala Lumpur,53200,0
864.8633991655428,Seremban,Negeri Sembilan,70100,0
822.343390305979,Shah Alam,Selangor,40100,0
1759.6627456060182,Ipoh,Perak,31400,0
2500.262956495799,Johor Bahru,Johor,81100,0
485.45417168535664,Kuala Lumpur,Kuala Lumpur,51200,1
643.4585964295866,Kuala Lumpur,Kuala Lumpur,50450,0
1682.0377737799963,Petaling Jaya,Selangor,46000,0
259.6678178785795,Kuala Lumpur,Kuala Lumpur,50000,1
858.7727099845516,Klang,Selangor,53100,0
843.2556164425628,Puchong,Selangor,47100,0
1806.261806295322,Kuala Lumpur,Kuala Lumpur,50480,0
1704.968771253764,Ipoh,Perak,30000,0
66.44574087511575,Teluk Intan,Perak,36000,1
196.0090258542604,Kuala Lumpur,Kuala Lumpur,51200,1
822.343390305979,Shah Alam,Selangor,40100,0
1472.5393081696782,Kuala Lumpur,Kuala Lumpur,56000,0
93.52453384451417,Cheras,Selangor,43200,1
201.35029964489863,Sepang,Selangor,43900,1
594.1581582267407,Johor Bahru,Johor,80000,0
903.0996611597178,Kuala Lumpur,Kuala Lumpur,51000,0
2135.335382895287,Johor Bahru,Johor,81100,0
1412.6043769594723,Petaling Jaya,Selangor,46000,0
1315.6789612367998,Kuala Lumpur,Kuala Lumpur,52100,0
1883.1188058283185,Petaling Jaya,Selangor,47820,0
1618.9113021167427,Johor Bahru,Johor,81100,0
1385.4957931938573,Kuala Lumpur,Kuala Lumpur,59100,0
697.4619863639105,Klang,Selangor,53100,0
2704.103597551352,Petaling Jaya,Selangor,47810,0
405.97537965832765,Subang Jaya,Selangor,47500,1
792.1777925153848,Petaling Jaya,Selangor,46000,0
254.8611369302442,Seremban,Negeri Sembilan,70000,1
5579.6259821190615,Kulai,Johor,81000,0
658.0546798655431,Puchong,Selangor,47100,0
1813.1023583451768,Johor Bahru,Johor,81100,0
753.8312030534058,Shah Alam,Selangor,40000,0
213.041449455206,Sibu,Sarawak,96000,1
1432.637445854913,Kuala Lumpur,Kuala Lumpur,55100,0
656.8753072651493,Seremban,Negeri Sembilan,70100,0
212.26748760521068,Kuala Lumpur,Kuala Lumpur,50450,1
2003.8667561832376,Ipoh,Perak,31400,0
70.64892170693828,Penang,Penang,10400,1
762.9759509650384,Ipoh,Perak,30300,0
624.4239987616259,Kuala Lumpur,Kuala Lumpur,51200,0
1917.8921790091165,Kuala Lumpur,Kuala Lumpur,50480,0
62.30420789066097,Perai,Penang,13700,1
2101.809134946018,Johor Bahru,Johor,81100,0
588.3699481250517,Kuala Lumpur,Kuala Lumpur,59000,0
0.0,Kuching,Sarawak,93150,1
350.3003616470338,Parit Buntar,Perak,34200,1
1960.97773034784,Kuala Lumpur,Kuala Lumpur,56000,0
326.1002257587411,Kampung Valdor,Penang,14200,1
902.644010630184,Kuala Lumpur,Kuala Lumpur,55100,0
1210.145731605589,Kuala Lumpur,Kuala Lumpur,53000,0
2038.5277031688045,Johor Bahru,Johor,81100,0
254.2029587038489,Klang,Selangor,41200,1
213.041449455206,Sibu,Sarawak,96000,1
2921.2869497032184,Klang,Selangor,41050,0
2109.193194120573,Johor Bahru,Johor,81300,0
409.4743496497727,Johor Bahru,Johor,80000,1
814.7820722732241,Kuala Terengganu,Terengganu,20100,0
267.28011481392696,Alor Setar,Kedah,5150,1
548.6792429489658,Puchong,Selangor,47100,0
976.1671826967214,Klang,Selangor,42000,0
697.4619863639105,Klang,Selangor,53100,0
1013.7082558789876,Ipoh,Perak,31650,0
2135.335382895287,Johor Bahru,Johor,81100,0
1489.8951024695546,Kuala Lumpur,Kuala Lumpur,56100,0
1376.822540808015,Kuala Lumpur,Kuala Lumpur,59200,0
314.4368090444956,Seremban,Negeri Sembilan,70300,1
269.5687422766618,Kuala Lumpur,Kuala Lumpur,51200,1
557.1354083189798,Klang,Selangor,53100,0
914.2114580360634,Johor Bahru,Johor,81200,0
1947.476449379006,Puchong,Selangor,47100,0
2462.1374073111747,Kuala Lumpur,Kuala Lumpur,50940,0
1373.0784052684862,Petaling Jaya,Selangor,46400,0
1096.1528701498833,Ipoh,Perak,30100,0
1124.9453748460148,Johor Bahru,Johor,80400,0
710.9171743882206,Melaka,Melaka,75150,0
1489.8951024695546,Kuala Lumpur,Kuala Lumpur,56100,0
359.2243754965057,Kuching,Sarawak,93000,1
313.6615223250307,Kuching,Sarawak,93150,1
3399.724929850972,Seremban,Negeri Sembilan,70450,0
1385.4957931938573,Kuala Lumpur,Kuala Lumpur,59100,0
1010.9245581890818,Klang,Selangor,41200,0
1124.203862134909,Johor Bahru,Johor,81300,0
1286.8134230242888,Mersing,Johor,86800,0
1048.1873055780636,Kuala Lumpur,Kuala Lumpur,50460,0
764.6763072828312,Kuala Lumpur,Kuala Lumpur,55100,0
661.7514189445758,Johor Bahru,Johor,81200,0
2323.6045207932907,Puchong,Selangor,47100,0
98.95066492089089,Kuala Lumpur,Kuala Lumpur,50100,1
1865.588406204937,Temerloh,Pahang,28000,0
519.1322128043893,Bukit Mertajam,Penang,14000,0
291.42018842564454,Klang,Selangor,42100,1
1588.356778871688,Johor Bahru,Johor,81300,0
509.95764739442143,Seri Kembangan,Selangor,43300,0
440.0343489216392,Johor Bahru,Johor,80000,1
1832.050007428545,Kuala Lumpur,Kuala Lumpur,50470,0
550.7742638283371,Klang,Selangor,41000,0
603.4897451303733,Kuala Lumpur,Kuala Lumpur,56000,0
1234.7416966383837,Kuala Lumpur,Kuala Lumpur,57100,0
2523.821150950204,Petaling Jaya,Selangor,47300,0
1416.1076374752147,Johor Bahru,Johor,81200,0
1982.4523982139915,Kuala Lumpur,Kuala Lumpur,59200,0
1771.826681597467,Kuala Lumpur,Kuala Lumpur,57100,0
262.86652721780973,Kuala Lumpur,Kuala Lumpur,55100,1
2557.304791666388,Seremban,Negeri Sembilan,70200,0
655.0213204518755,Kuala Lumpur,Kuala Lumpur,55100,0
1264.5998344985055,Kuala Lumpur,Kuala Lumpur,52100,0
1193.9806139729933,Klang,Selangor,42000,0
1304.5956496761494,Petaling,Selangor,47800,0
751.2935338803175,Kuala Lumpur,Kuala Lumpur,51200,0
0.0,Kuala Lumpur,Kuala Lumpur,56100,1
1120.8420799325484,Seremban,Negeri Sembilan,70300,0
1417.8842283976355,Kuantan,Pahang,25000,0
1702.0818141143504,Johor Bahru,Johor,81100,0
2136.272844462665,Petaling Jaya,Selangor,47630,0
810.544325658241,Johor Bahru,Johor,81300,0
371.1080271650324,Kuching,Sarawak,93100,1
192.47462481368024,Bukit Mertajam,Penang,14000,1
2064.0127205282074,Bandar Baru Bangi,Selangor,43650,0
687.4356808466003,Kuala Lumpur,Kuala Lumpur,51200,0
1534.1676690252973,Petaling Jaya,Selangor,46050,0
563.9804100254437,Seremban,Negeri Sembilan,70000,0
826.1405442856186,Kuala Lumpur,Kuala Lumpur,51200,0
419.7053985208255,Kuala Lumpur,Kuala Lumpur,54100,1
0.0,Kuala Lumpur,Kuala Lumpur,50350,1
254.86473079392627,Kuala Lumpur,Kuala Lumpur,51200,1
1047.262394249006,Klang,Selangor,42100,0
594.1581582267407,Johor Bahru,Johor,80000,0
985.6323343105242,Ipoh,Perak,31400,0
430.751081259945,Johor Bahru,Johor,81200,1
279.50759495995163,Johor Bahru,Johor,80000,1
538.3192765076564,Bayan Lepas,Penang,11900,0
1003.0456471922578,Johor Bahru,Johor,81200,0
1784.168778604862,Kuala Lumpur,Kuala Lumpur,53300,0
392.1327513635824,Georgetown,Penang,10400,1
1274.5081042893185,Petaling Jaya,Selangor,46050,0
232.38117917043647,Kuala Lumpur,Kuala Lumpur,50350,1
579.0804869627192,Klang,Selangor,41000,0
1358.9953546300392,Klang,Selangor,42100,0
1124.9453748460148,Johor Bahru,Johor,80400,0
20.83005760387424,Melaka,Melaka,75250,1
740.530103504359,Klang,Selangor,41100,0
422.6122308855057,Kuala Lumpur,Kuala Lumpur,50768,1
1458.242432873098,Petaling Jaya,Selangor,47400,0
1316.5596907349775,Petaling Jaya,Selangor,47301,0
635.1582144865346,Kuala Lumpur,Kuala Lumpur,51100,0
2342.1180259656235,Johor Bahru,Johor,81100,0
379.2079148787194,Johor Bahru,Johor,81100,1
576.2520801880875,Johor Bahru,Johor,80400,0
536.4489662016782,Klang,Selangor,41200,0
528.7647100271383,Ipoh,Perak,31400,0
376.8002186622493,Klang,Selangor,42100,1
1959.0030129809188,Ipoh,Perak,31400,0
1025.5664961783689,Kuala Lumpur,Kuala Lumpur,50470,0
2141.288745820399,Petaling Jaya,Selangor,46150,0
108.21386872941964,Kuching,Sarawak,93400,1
949.917608891886,Johor Bahru,Johor,81300,0
611.5219663637872,Seremban,Negeri Sembilan,70000,0
1329.9289452232294,Bukit Mertajam,Penang,14000,0
1486.659659688362,Kuala Lumpur,Kuala Lumpur,50050,0
1202.1364209842222,Johor Bahru,Johor,81100,0
1577.1948446509923,Petaling Jaya,Selangor,47800,0
1914.7429174651456,Johor Bahru,Johor,81100,0
888.7079120891303,Johor Bahru,Johor,80400,0
485.45417168535664,Kuala Lumpur,Kuala Lumpur,51200,1
436.8113096218048,Bentong,Pahang,28700,1
2674.9624431666853,Subang Jaya,Selangor,47620,0
1271.8554723560496,Subang Jaya,Selangor,47500,0
1816.0319528922685,Petaling Jaya,Selangor,47400,0
0.0,Kajang,Selangor,43000,1
1675.25453903508,Johor Bahru,Johor,81100,0
254.2029587038489,Klang,Selangor,41200,1
1157.0081817342948,Ipoh,Perak,30300,0
120.28652523726572,Petaling Jaya,Selangor,46200,1
1562.467148242425,Ipoh,Perak,30020,0
1801.8711147413685,Petaling Jaya,Selangor,46300,0
181.9424066769301,Kuala Lumpur,Kuala Lumpur,59100,1
762.9759509650384,Ipoh,Perak,31400,0
245.64813367470765,Ampang,Selangor,68000,1
226.49946877408803,Johor Bahru,Johor,81100,1
764.6763072828312,Kuala Lumpur,Kuala Lumpur,55100,0
279.50759495995163,Johor Bahru,Johor,80000,1
1385.3179819796576,Ipoh,Perak,31400,0
519.1322128043893,Jalan Sungai Rambai,Penang,14000,0
1739.7430205789271,Kuala Lumpur,Kuala Lumpur,55200,0
366.8102816574833,Kuala Lumpur,Kuala Lumpur,50470,1
411.92697749302783,Kuching,Sarawak,93200,1
8144.211167819015,Labis,Johor,85300,0
934.0256843110648,Klang,Selangor,42000,0
858.7727099845516,Klang,Selangor,53100,0
1165.9596620217906,Subang Jaya,Selangor,46150,0
1461.048824261493,Bandar Baru Bangi,Selangor,43650,0
960.4517356056274,Klang,Selangor,42000,0
366.7237662494566,Klang,Selangor,41000,1
1437.9167333636271,Kota Kinabalu,Sabah,88000,0
290.98845467129485,Ampang,Selangor,68000,1
1061.4102109197047,Petaling Jaya,Selangor,46050,0
2109.193194120573,Johor Bahru,Johor,81300,0
1312.8177591655976,Kemaman,Terengganu,11083,0
484.8536922213937,Ipoh,Perak,30100,1
576.3430160053298,Petaling Jaya,Selangor,47400,0
930.190501449354,Kuala Lumpur,Kuala Lumpur,53300,0
1057.7637285393644,Subang Jaya,Selangor,47500,0
2066.1369605182103,Seremban,Negeri Sembilan,70300,0
386.9095586313307,Kuala Lumpur,Kuala Lumpur,52100,1
983.8659088954388,Klang,Selangor,41400,0
826.1405442856186,Kuala Lumpur,Kuala Lumpur,51200,0
366.8102816574833,Kuala Lumpur,Kuala Lumpur,50470,1
1124.9453748460148,Johor Bahru,Johor,80400,0
818.1701786212016,Johor Bahru,Johor,80000,0
740.530103504359,Klang,Selangor,41100,0
2141.288745820399,Petaling Jaya,Selangor,46150,0
1656.6849474179385,Petaling Jaya,Selangor,46300,0
949.917608891886,Johor Bahru,Johor,81300,0
306.19523227893524,Ampang,Selangor,68000,1
1416.1076374752147,Johor Bahru,Johor,81200,0
1947.476449379006,Puchong,Selangor,47100,0
240.64981153376505,Kuching,Sarawak,93100,1
1283.468715633205,Johor Bahru,Johor,81300,0
0.0,Kuala Lumpur,Kuala Lumpur,50000,1
379.6955239701808,Kuala Lumpur,Kuala Lumpur,56000,1
507.9231946362368,Ampang,Selangor,68000,0
1510.4808674577944,Petaling Jaya,Selangor,46100,0
775.9857119457212,Petaling Jaya,Selangor,46300,0
1413.3312038543029,Ipoh,Perak,30020,0
796.6004745722207,Kuala Lumpur,Kuala Lumpur,55100,0
580.2334440378208,Kuching,Sarawak,93450,0
0.0,Kuala Lumpur,Kuala Lumpur,50350,1
580.9432639140765,Kuala Lumpur,Kuala Lumpur,55100,0
370.4202521978357,Ipoh,Perak,31300,1
626.2303846554324,Kuala Lumpur,Kuala Lumpur,55000,0
727.1070713449514,Ampang,Selangor,68000,0
1843.6019322734503,Ipoh,Perak,31400,0
584.1903968626548,Taiping,Perak,34000,0
481.1845300382557,Kuala Lumpur,Kuala Lumpur,56100,1
2287.5676304028248,Kota Bharu,Kelantan,15050,0
929.5081432166982,Kuala Lumpur,Kuala Lumpur,56000,0
977.214496099304,Kota Bharu,Kelantan,15150,0
1816.0319528922685,Petaling Jaya,Selangor,47400,0
0.0,Johor Bahru,Johor,80000,1
621.4494666446312,Ipoh,Perak,31350,0
292.7719378312854,Petaling Jaya,Selangor,47400,1
635.1582144865346,Kuala Lumpur,Kuala Lumpur,51100,0
934.0256843110648,Klang,Selangor,42000,0
1588.9008119474006,Kuala Lumpur,Kuala Lumpur,58200,0
910.2278717651978,Butterworth,Penang,10100,0
0.0,Kluang,Johor,86000,1
2109.193194120573,Johor Bahru,Johor,81300,0
2704.103597551352,Petaling Jaya,Selangor,47810,0
0.0,Kuala Lumpur,Kuala Lumpur,50200,1
279.10958493986163,Kuala Lumpur,Kuala Lumpur,50480,1
471.3421347044776,Johor Bahru,Johor,81200,1
366.8102816574833,Kuala Lumpur,Kuala Lumpur,50470,1
483.6826068413882,Kuala Lumpur,Kuala Lumpur,58100,1
2200.6227823814065,Ipoh,Perak,31650,0
918.7669698997412,Kuala Lumpur,Kuala Lumpur,53300,0
1588.9008119474006,Kuala Lumpur,Kuala Lumpur,58200,0
603.4897451303733,Kuala Lumpur,Kuala Lumpur,56000,0
477.1781935518027,Petaling Jaya,Selangor,47400,1
1090.092056348359,Petaling Jaya,Selangor,47301,0
1832.050007428545,Kuala Lumpur,Kuala Lumpur,52100,0
621.4494666446312,Ipoh,Perak,31350,0
98.61528815791574,Kajang,Selangor,43000,1
2419.9734615424245,Johor Bahru,Johor,81100,0
1202.1364209842222,Johor Bahru,Johor,81100,0
1668.7131465663413,Johor Bahru,Johor,81100,0
2413.711500090749,Petaling Jaya,Selangor,47810,0
353.8226759655297,Kuala Lumpur,Kuala Lumpur,50300,1
594.1581582267407,Johor Bahru,Johor,80000,0
514.2095094022494,Johor Bahru,Johor,81100,0
1069.0213303858857,Kuala Lumpur,Kuala Lumpur,55100,0
2704.103597551352,Petaling Jaya,Selangor,47810,0
939.3108037737188,Seremban,Negeri Sembilan,70100,0
27.43666230093184,Seri Kembangan,Selangor,43300,1
810.544325658241,Johor Bahru,Johor,81300,0
1301.0456297463463,Ipoh,Perak,30010,0
1679.4132569542464,Kuala Lumpur,Kuala Lumpur,56100,0
796.6004745722207,Kuala Lumpur,Kuala Lumpur,55100,0
1165.9596620217906,Subang Jaya,Selangor,46150,0
1960.97773034784,Kuala Lumpur,Kuala Lumpur,56000,0
530.6843032623306,Klang,Selangor,42100,0
1583.2649277730063,Kuala Lumpur,Kuala Lumpur,53300,0
909.5589289345124,Klang,Selangor,41050,0
801.6487625979476,Klang,Selangor,42000,0
0.0,Kuala Lumpur,Kuala Lumpur,50350,1
2029.544164417112,Ipoh,Perak,31400,0
1073.9271392297023,Ipoh,Perak,31350,0
668.7988382341459,Johor Bahru,Johor,80200,0
580.2334440378208,Kuching,Sarawak,93450,0
299.64351656314085,Jalan Selat,Penang,12000,1
1796.5139213847458,Johor Bahru,Johor,80350,0
206.74334227057068,Bukit Mertajam,Penang,14000,1
535.7973660770499,Kuala Lumpur,Kuala Lumpur,50400,0
1608.7021386920908,Johor Bahru,Johor,81200,0
411.92697749302783,Kuching,Sarawak,93200,1
1702.0818141143504,Johor Bahru,Johor,81100,0
2024.4419030647728,Ipoh,Perak,31400,0
202.40316370719287,Ipoh,Perak,30010,1
902.0069515202772,Johor Bahru,Johor,81100,0
254.86473079392627,Kuala Lumpur,Kuala Lumpur,51200,1
970.6781378436484,Kuala Lumpur,Kuala Lumpur,52000,0
1218.2954743320167,Kota Kinabalu,Sabah,88000,0
1335.4873029935916,Petaling Jaya,Selangor,47301,0
1832.050007428545,Kuala Lumpur,Kuala Lumpur,52100,0
1230.7920856114454,Johor Bahru,Johor,80400,0
1957.7326928908903,Ipoh,Perak,31400,0
1279.8350596516163,Johor Bahru,Johor,81100,0
1933.6919880687983,Johor Bahru,Johor,81100,0
783.7560618877638,Klang,Selangor,53100,0
134.24518102853577,Kuala Lumpur,Kuala Lumpur,59000,1
1086.109974165865,Butterworth,Penang,12200,0
305.198868877622,Kuching,Sarawak,93150,1
18.1963589598036,Kuching,Sarawak,93450,1
3249.819496330013,Kuching,Sarawak,93250,0
1184.6564082666098,Ipoh,Perak,30450,0
366.8102816574833,Kuala Lumpur,Kuala Lumpur,50470,1
2444.63622428152,Ipoh,Perak,31650,0
339.48591618566724,Kuala Lumpur,Kuala Lumpur,59100,1
806.8859336788447,Kulai,Johor,81000,0
251.3640020510482,Kuching,Sarawak,93100,1
169.71773939701802,Johor Bahru,Johor,81100,1
815.9150330124933,Kuching,Sarawak,93450,0
1373.7035683334243,Johor Bahru,Johor,81100,0
904.6570925100868,Johor Bahru,Johor,80200,0
1779.4238037387172,Ipoh,Perak,30100,0
22182.962824051472,Kota Tinggi,Johor,81900,0
606.5613745987719,Johor Bahru,Johor,81100,0
1065.5204787890088,Kuala Lumpur,Kuala Lumpur,54200,0
1445.3567259053473,Ipoh,Perak,30200,0
366.8102816574833,Kuala Lumpur,Kuala Lumpur,50470,1
1832.6686558900265,Ipoh,Perak,30250,0
0.0,Kuala Lumpur,Kuala Lumpur,56100,1
293.4512647393605,Kuala Lumpur,Kuala Lumpur,55100,1
570.1949148567668,Johor Bahru,Johor,81200,0
1786.6309024000573,Petaling Jaya,Selangor,47610,0
804.8306438017502,Seri Kembangan,Selangor,43300,0
516.3299206121807,Kuala Lumpur,Kuala Lumpur,50470,0
214.3834178156404,Johor Bahru,Johor,80000,1
295.18296122284266,Kuching,Sarawak,93000,1
1363.3107753251254,Ipoh,Perak,31400,0
815.0710813180709,Kuala Lumpur,Kuala Lumpur,51000,0
279.50759495995163,Johor Bahru,Johor,80000,1
0.0,Petaling Jaya,Selangor,46050,1
1092.0663793117703,Johor Bahru,Johor,80250,0
460.1490310397023,Kuala Lumpur,Kuala Lumpur,60000,1
796.7250248653133,Kuala Lumpur,Kuala Lumpur,50450,0
397.5204655640747,Kuala Lumpur,Kuala Lumpur,50200,1
858.7727099845516,Klang,Selangor,53100,0
2004.977076382727,Kuala Lumpur,Kuala Lumpur,57100,0
933.251596632496,Kuala Lumpur,Kuala Lumpur,58000,0
1416.1076374752147,Johor Bahru,Johor,81200,0
886.3346642438673,Petaling Jaya,Selangor,46000,0
230.48732942811927,Kuala Lumpur,Kuala Lumpur,53000,1
720.3910241759089,Taiping,Perak,34000,0
1385.3179819796576,Ipoh,Perak,31400,0
1413.4581568555786,Seremban,Negeri Sembilan,70100,0
519.1322128043893,Bukit Mertajam,Penang,14000,0
866.8794127175058,Johor Bahru,Johor,81200,0
4423.923694798833,Johor Bahru,Johor,81750,0
455.9100332294836,Kuching,Sarawak,93400,1
462.6763073614719,Johor Bahru,Johor,80250,1
1124.9453748460148,Johor Bahru,Johor,80400,0
649.2165006708433,Johor Bahru,Johor,80000,0
300.89568602001043,Kuala Lumpur,Kuala Lumpur,50000,1
2704.103597551352,Petaling Jaya,Selangor,47810,0
930.190501449354,Kuala Lumpur,Kuala Lumpur,53300,0
903.0996611597178,Kuala Lumpur,Kuala Lumpur,51000,0
909.5589289345124,Klang,Selangor,41050,0
397.5204655640747,Kuala Lumpur,Kuala Lumpur,50200,1
1027.8713395260263,Kuala Lumpur,Kuala Lumpur,59200,0
435.7577724017706,Klang,Selangor,45800,1
678.0012096771754,Batu Caves,Selangor,68100,0
1017.7372712988118,Batu Caves,Selangor,68100,0
532.1752754617546,Johor Bahru,Johor,80350,0
279.50759495995163,Johor Bahru,Johor,80000,1
356.26791671903413,Kuantan,Pahang,25000,1
476.6855727377467,Jalan Kuching,Kuala Lumpur,98000,1
264.8094839674531,Kuala Lumpur,Kuala Lumpur,56000,1
762.9759509650384,Ipoh,Perak,30020,0
1929.898272463844,Ipoh,Perak,30000,0
741.9857985765088,Kuala Lumpur,Kuala Lumpur,50470,0
2109.193194120573,Johor Bahru,Johor,81300,0
3193.7031225525666,Puchong,Selangor,47100,0
1279.8350596516163,Johor Bahru,Johor,81100,0
2264.8707680506886,Shah Alam,Selangor,40400,0
685.8539715736259,Klang,Selangor,53100,0
1715.1440035231044,Johor Bahru,Johor,81200,0
983.5207395613136,Petaling Jaya,Selangor,46150,0
2704.103597551352,Petaling Jaya,Selangor,47810,0
2413.711500090749,Petaling Jaya,Selangor,47810,0
1093.356924496362,Subang Jaya,Selangor,47500,0
1052.6051777443822,Kajang,Selangor,43000,0
235.79887521335752,Kuala Lumpur,Kuala Lumpur,51000,1
419.1470016045229,Kuala Lumpur,Kuala Lumpur,50400,1
960.4517356056274,Klang,Selangor,42000,0
793.0393506438462,Petaling Jaya,Selangor,46000,0
1414.4876313931225,Petaling Jaya,Selangor,46000,0
234.51438479286315,Seri Kembangan,Selangor,43300,1
267.69606144165925,Johor Bahru,Johor,81100,1
1419.571463294424,Kuala Lumpur,Kuala Lumpur,56000,0
0.0,Kuala Lumpur,Kuala Lumpur,50350,1
563.9804100254437,Seremban,Negeri Sembilan,70200,0
2271.8430498261982,Ipoh,Perak,31650,0
285.44632069055257,Petaling Jaya,Selangor,47400,1
818.8522575152228,Johor Bahru,Johor,81100,0
561.3701533901839,Kuala Lumpur,Kuala Lumpur,55100,0
1595.1809481921948,Petaling Jaya,Selangor,46000,0
1071.9470376513782,Kuala Lumpur,Kuala Lumpur,56000,0
2404.107881622997,Kuala Lumpur,Kuala Lumpur,57100,0
1841.4179342182656,Petaling Jaya,Selangor,47500,0
548.6792429489658,Puchong,Selangor,47100,0
2236.067428130655,Petaling Jaya,Selangor,47300,0
1679.4132569542464,Kuala Lumpur,Kuala Lumpur,56100,0
303.28123896051784,Kota Kinabalu,Sabah,88450,1
1101.255010050078,Ipoh,Perak,30450,0
18.1963589598036,Kuching,Sarawak,93450,1
2032.8173053790613,Kuala Lumpur,Kuala Lumpur,56000,0
575.3737094320943,Seremban,Negeri Sembilan,70000,0
1625.5933115311718,Johor Bahru,Johor,81200,0
198.0764685437857,Kuala Lumpur,Kuala Lumpur,50100,1
0.0,Kuala Lumpur,Kuala Lumpur,50050,1
261.9632001057625,Kuala Lumpur,Kuala Lumpur,50000,1
1100.6859536234722,Kuala Lumpur,Kuala Lumpur,53300,0
2146.620913428364,Kuala Lumpur,Kuala Lumpur,55200,0
1267.2715581684524,Johor Bahru,Johor,80400,0
4520.027596633644,Ulu Tiram,Johor,17518,0
1020.8517067287996,Sungai Petani,Kedah,8000,0
1025.5664961783689,Kuala Lumpur,Kuala Lumpur,50470,0
624.0211367686649,Kuala Lumpur,Kuala Lumpur,58100,0
49.68736995483607,Kuala Lumpur,Kuala Lumpur,51200,1
0.0,Kuala Lumpur,Kuala Lumpur,50000,1
2674.9624431666853,Subang Jaya,Selangor,47620,0
334.00412773097503,Shah Alam,Selangor,40000,1
261.9632001057625,Kuala Lumpur,Kuala Lumpur,50000,1
2075.7470207999663,Petaling Jaya,Selangor,47810,0
697.4619863639105,Klang,Selangor,53100,0
170.4442522409658,Kuala Lumpur,Kuala Lumpur,59100,1
783.7560618877638,Klang,Selangor,53100,0
1027.1896648360832,Johor Bahru,Johor,80250,0
896.7595992494358,Prk,Perak,34600,0
879.8098740692258,Bayan Lepas,Penang,11900,0
1573.4081704342966,Kuala Lumpur,Kuala Lumpur,58200,0
1735.9951533833246,Petaling Jaya,Selangor,46300,0
868.6328451717046,Johor Bahru,Johor,81100,0
520.7712440562105,Kota Kinabalu,Sabah,89500,0
2403.675487043851,Kota Bharu,Kelantan,15200,0
2965.8231147913057,Petaling Jaya,Selangor,47301,0
1395.723255620988,Taiping,Perak,34000,0
795.7800536592212,Klang,Selangor,41200,0
232.07479256713992,Kuching,Sarawak,93250,1
1632.6496723770504,Johor Bahru,Johor,81100,0
907.7304167560072,Kuala Lumpur,Kuala Lumpur,58100,0
1423.9848616207155,Kuala Lumpur,Kuala Lumpur,51200,0
180.5508109794376,Kuala Lumpur,Kuala Lumpur,50480,1
1291.775390971621,Petaling Jaya,Selangor,47301,0
576.3430160053298,Petaling Jaya,Selangor,47400,0
1947.476449379006,Puchong,Selangor,47100,0
49.68736995483607,Kuala Lumpur,Kuala Lumpur,51200,1
359.2243754965057,Kuching,Sarawak,93000,1
1057.7637285393644,Subang Jaya,Selangor,47500,0
611.5219663637872,Seremban,Negeri Sembilan,70000,0
356.0248439150968,Kuala Lumpur,Kuala Lumpur,50470,1
2946.5371232678003,Subang Jaya,Selangor,47620,0
818.1701786212016,Johor Bahru,Johor,80000,0
238.1684387613169,Kuala Lumpur,Kuala Lumpur,50050,1
508.15993484000165,Johor Bahru,Johor,80250,0
774.8740105424499,Kajang,Selangor,43000,0
1233.8251065098657,Seremban,Negeri Sembilan,70200,0
479.9982119232083,Johor Bahru,Johor,81100,1
1193.9806139729933,Klang,Selangor,42000,0
1414.142391103936,Kuala Lumpur,Kuala Lumpur,52200,0
435.94954585548015,Kuching,Sarawak,93400,1
1021.0406816066044,Klang,Selangor,68000,0
288.2715665599914,Johor Bahru,Johor,81200,1
1357.532682548852,Ipoh,Perak,30350,0
253.9293444743852,Pahang,Pahang,25200,1
1277.1332446530917,Shah Alam,Selangor,40300,0
170.4442522409658,Kuala Lumpur,Kuala Lumpur,59100,1
576.3430160053298,Petaling Jaya,Selangor,47400,0
2135.335382895287,Johor Bahru,Johor,81100,0
1414.142391103936,Kuala Lumpur,Kuala Lumpur,52200,0
1129.8587491243295,Kuala Lumpur,Kuala Lumpur,46400,0
1273.1372014177418,Ipoh,Perak,30100,0
511.21307564480696,Petaling Jaya,Selangor,46200,0
451.2095744488619,Kuala Lumpur,Kuala Lumpur,50100,1
1871.325536342996,Johor Bahru,Johor,81200,0
606.5613745987719,Johor Bahru,Johor,81100,0
929.3135897282092,Kuala Lumpur,Kuala Lumpur,51200,0
762.9759509650384,Ipoh,Perak,30300,0
291.8007828085732,Georgetown,Penang,10050,1
1270.623669479205,Kuala Lumpur,Kuala Lumpur,53300,0
427.4126777860662,Kuala Lumpur,Kuala Lumpur,55000,1
1306.57228951205,Johor Bahru,Johor,81100,0
946.1571863196092,Seri Kembangan,Selangor,43300,0
397.5204655640747,Kuala Lumpur,Kuala Lumpur,50200,1
184.2018324644136,Petaling Jaya,Selangor,46200,1
2346.467324257427,Johor Bahru,Johor,81100,0
762.7728209543368,Klang,Selangor,41200,0
653.0650030729864,Kuala Lumpur,Kuala Lumpur,54100,0
2444.63622428152,Ipoh,Perak,31650,0
809.0152968402828,Kuala Lumpur,Kuala Lumpur,55000,0
146.0023168099149,Petaling Jaya,Selangor,46200,1
41.10735166400505,Kuching,Sarawak,93400,1
579.0804869627192,Klang,Selangor,41000,0
907.7304167560072,Kuala Lumpur,Kuala Lumpur,58100,0
1342.015999887041,Kuala Lumpur,Kuala Lumpur,59100,0
2404.107881622997,Kuala Lumpur,Kuala Lumpur,57100,0
1668.7131465663413,Johor Bahru,Johor,81100,0
526.5671839019901,Johor Bahru,Johor,81200,0
3399.724929850972,Seremban,Negeri Sembilan,70450,0
1316.5596907349775,Petaling Jaya,Selangor,47301,0
580.8973038347436,Johor Bahru,Johor,80050,0
291.8007828085732,Georgetown,Penang,10050,1
809.0152968402828,Kuala Lumpur,Kuala Lumpur,55000,0
1801.8711147413685,Petaling Jaya,Selangor,46300,0
806.2662081902865,Petaling Jaya,Selangor,47301,0
764.6763072828312,Kuala Lumpur,Kuala Lumpur,55100,0
1659.7952905062562,Kuala Lumpur,Kuala Lumpur,52100,0
451.2095744488619,Kuala Lumpur,Kuala Lumpur,50100,1
165.5855329325019,Johor Bahru,Johor,81300,1
1703.1892293848696,Shah Alam,Selangor,40150,0
903.0996611597178,Kuala Lumpur,Kuala Lumpur,51000,0
1347.0050076070322,Petaling Jaya,Selangor,47301,0
2066.1369605182103,Seremban,Negeri Sembilan,70300,0
1194.0932711218172,Kota Kinabalu,Sabah,88808,0
1136.0994034952787,Ipoh,Perak,31400,0
930.190501449354,Kuala Lumpur,Kuala Lumpur,53300,0
1520.084193994515,Ipoh,Perak,31350,0
516.3299206121807,Kuala Lumpur,Kuala Lumpur,50470,0
252.34192982870948,Kuching,Sarawak,93400,1
1322.5712704082728,Muar,Johor,84000,0
4083.785250948831,Subang Jaya,Selangor,47500,0
588.2984500268119,Kuala Lumpur,Kuala Lumpur,59100,0
134.24518102853577,Kuala Lumpur,Kuala Lumpur,59000,1
1385.3179819796576,Ipoh,Perak,31400,0
2779.861377786314,Subang Jaya,Selangor,47620,0
1960.97773034784,Kuala Lumpur,Kuala Lumpur,56000,0
1577.5952238336492,Ipoh,Perak,30250,0
550.7742638283371,Klang,Selangor,41000,0
861.167223851514,Kuala Lumpur,Kuala Lumpur,60000,0
1346.2423721971743,Ipoh,Perak,30100,0
1613.7501070776443,Subang Jaya,Selangor,47500,0
814.0248129406934,Shah Alam,Selangor,40400,0
1105.735854113134,Puchong,Selangor,47100,0
580.9432639140765,Kuala Lumpur,Kuala Lumpur,55100,0
1575.100725952009,Cheras,Selangor,43200,0
1198.3396523783215,Petaling Jaya,Selangor,46150,0
1796.5139213847458,Johor Bahru,Johor,81200,0
369.36169356431634,Kuala Lumpur,Kuala Lumpur,50450,1
1816.0319528922685,Petaling Jaya,Selangor,47400,0
858.7727099845516,Klang,Selangor,53100,0
1477.0834942692652,Petaling Jaya,Selangor,47400,0
742.3117549987995,Johor Bahru,Johor,81100,0
440.0343489216392,Johor Bahru,Johor,80000,1
947.4678203270298,Klang,Selangor,41200,0
1628.5297965215063,Kuala Lumpur,Kuala Lumpur,52100,0
1068.3700467467263,Ipoh,Perak,31350,0
356.13975639766795,Ipoh,Perak,31400,1
1159.9623435128944,Klang,Selangor,46000,0
1039.1512037528116,Batu Caves,Selangor,68100,0
661.7514189445758,Johor Bahru,Johor,81200,0
800.985990948334,Kuala Lumpur,Kuala Lumpur,60000,0
1591.1057060302574,Kuala Lumpur,Kuala Lumpur,50628,0
2867.519508537085,Subang Jaya,Selangor,47620,0
1025.5664961783689,Kuala Lumpur,Kuala Lumpur,50470,0
366.7237662494566,Klang,Selangor,41000,1
592.9854091791019,Selayang Baru,Selangor,68100,0
98.61528815791574,Kajang,Selangor,43000,1
1043.398679697329,Kuala Lumpur,Kuala Lumpur,50470,0
1437.9167333636271,Kota Kinabalu,Sabah,88000,0
1771.826681597467,Kuala Lumpur,Kuala Lumpur,57100,0
457.9591950066302,Kuala Lumpur,Kuala Lumpur,50250,1
998.377391174219,Kuala Lumpur,Kuala Lumpur,57100,0
764.6763072828312,Kuala Lumpur,Kuala Lumpur,55100,0
1183.5566781059442,Ipoh,Perak,31350,0
461.888953712645,Kuantan,Pahang,25100,1
3601.781467429147,Lumut,Perak,32200,0
587.8381838589501,Alor Setar,Kedah,5100,0
371.1080271650324,Kuching,Sarawak,93100,1
1796.5139213847458,Johor Bahru,Johor,81200,0
2259.5628199806165,Petaling Jaya,Selangor,46150,0
969.219257049122,Ipoh,Perak,30300,0
0.0,Kuching,Sarawak,93400,1
1507.4320914799623,Kuala Lumpur,Kuala Lumpur,57100,0
414.3377617529546,Shah Alam,Selangor,40000,1
616.1709267885323,Klang,Selangor,42000,0
222.1215660213531,Butterworth,Penang,13400,1
762.9759509650384,Ipoh,Perak,30000,0
371.1080271650324,Kuching,Sarawak,93100,1
293.61606751862735,Kuala Lumpur,Kuala Lumpur,55000,1
407.3490566657117,Kuala Lumpur,Kuala Lumpur,50050,1
202.40316370719287,Ipoh,Perak,30010,1
1450.707531883027,Petaling Jaya,Selangor,46000,0
978.8812774588924,Kajang,Selangor,43000,0
1382.4900255524346,Johor Bahru,Johor,81200,0
804.8306438017502,Seri Kembangan,Selangor,43300,0
4083.785250948831,Petaling Jaya,Selangor,47500,0
885.4987588415379,Petaling Jaya,Selangor,47301,0
1255.1202977490534,Kuala Terengganu,Terengganu,20100,0
1061.4102109197047,Petaling Jaya,Selangor,46050,0
355.43854651246994,Puchong,Selangor,47100,1
554.591562261695,Alor Setar,Kedah,5150,0
459.4404158035969,Petaling Jaya,Selangor,47800,1
101.06308278460884,Sungai Buloh,Selangor,47000,1
146.0023168099149,Petaling Jaya,Selangor,46200,1
556.1474400139821,Petaling Jaya,Selangor,47301,0
1148.5788516544544,Klang,Selangor,42000,0
819.3166854149173,Ipoh,Perak,31400,0
2632.746297257004,Johor Bahru,Johor,81100,0
575.3737094320943,Seremban,Negeri Sembilan,70000,0
1270.5416673780117,Kuala Lumpur,Kuala Lumpur,52100,0
1319.7749457935276,Ipoh,Perak,31350,0
292.3218772978137,Johor Bahru,Johor,81100,1
1413.4581568555786,Seremban,Negeri Sembilan,70100,0
981.8975585989804,Petaling Jaya,Selangor,46150,0
481.1845300382557,Kuala Lumpur,Kuala Lumpur,56100,1
489.2303609213265,Kuala Lumpur,Kuala Lumpur,51200,1
946.1571863196092,Seri Kembangan,Selangor,43300,0
1071.9470376513782,Kuala Lumpur,Kuala Lumpur,56000,0
639.9451320714994,Ipoh,Perak,31400,0
0.0,Kuantan,Pahang,25000,1
953.3151390981462,Sungai Petani,Kedah,8000,0
1567.7604697744002,Ipoh,Perak,30010,0
934.0256843110648,Klang,Selangor,42000,0
411.92697749302783,Kuching,Sarawak,93250,1
273.8041817761845,Kepala Batas,Penang,13200,1
245.7478057775737,Kuala Lumpur,Kuala Lumpur,50100,1
1071.9470376513782,Kuala Lumpur,Kuala Lumpur,56000,0
